{
"type": "FeatureCollection",
"name": "geo_11_訪問入浴介護",
"crs": { "type": "name", "properties": { "name": "urn:ogc:def:crs:OGC:1.3:CRS84" } },
"features": [
{ "type": "Feature", "properties": { "内容": "コスモ訪問入浴サービス【訪問入浴介護】さいたま市西区飯田309-1", "url2": "https://www.kaigokensaku.mhlw.go.jp/11/index.php?action_kouhyou_detail_004_kani=true&JigyosyoCd=1176515607-00&ServiceCd=120&Type=search" }, "geometry": { "type": "Point", "coordinates": [ 139.582538413760659, 35.89414679703534 ] } },
{ "type": "Feature", "properties": { "内容": "ふくしのまち大宮【訪問入浴介護】さいたま市北区櫛引町2-271-1川善ビル2-A", "url2": "https://www.kaigokensaku.mhlw.go.jp/11/index.php?action_kouhyou_detail_004_kani=true&JigyosyoCd=1170300105-00&ServiceCd=120&Type=search" }, "geometry": { "type": "Point", "coordinates": [ 139.609677599999941, 35.9187014 ] } },
{ "type": "Feature", "properties": { "内容": "ラ・メール訪問入浴さいたま【訪問入浴介護】埼玉県さいたま市北区本郷町112白石ビル2階", "url2": "https://www.kaigokensaku.mhlw.go.jp/11/index.php?action_kouhyou_detail_004_kani=true&JigyosyoCd=1176521142-00&ServiceCd=120&Type=search" }, "geometry": { "type": "Point", "coordinates": [ 139.6260361, 35.9379835 ] } },
{ "type": "Feature", "properties": { "内容": "アスケア訪問入浴　大宮【訪問入浴介護】埼玉県さいたま市北区東大成町二丁目642番地2SunriseⅢ　A号室", "url2": "https://www.kaigokensaku.mhlw.go.jp/11/index.php?action_kouhyou_detail_004_kani=true&JigyosyoCd=1176509188-00&ServiceCd=120&Type=search" }, "geometry": { "type": "Point", "coordinates": [ 139.614298600000012, 35.9340804 ] } },
{ "type": "Feature", "properties": { "内容": "SKYハート【訪問入浴介護】丸ケ崎1071ハロービズストレージ大宮丸ケ崎１", "url2": "https://www.kaigokensaku.mhlw.go.jp/11/index.php?action_kouhyou_detail_004_kani=true&JigyosyoCd=1176520144-00&ServiceCd=120&Type=search" }, "geometry": { "type": "Point", "coordinates": [ 139.655019624271233, 35.958345210008154 ] } },
{ "type": "Feature", "properties": { "内容": "ハピネスケア株式会社　大宮営業所【訪問入浴介護】埼玉県さいたま市見沼区南中野５７", "url2": "https://www.kaigokensaku.mhlw.go.jp/11/index.php?action_kouhyou_detail_004_kani=true&JigyosyoCd=1170300352-00&ServiceCd=120&Type=search" }, "geometry": { "type": "Point", "coordinates": [ 139.659176293254063, 35.90489707702357 ] } },
{ "type": "Feature", "properties": { "内容": "アースサポート北浦和【訪問入浴介護】埼玉県さいたま市中央区新中里1丁目3番3号", "url2": "https://www.kaigokensaku.mhlw.go.jp/11/index.php?action_kouhyou_detail_004_kani=true&JigyosyoCd=1176500971-00&ServiceCd=120&Type=search" }, "geometry": { "type": "Point", "coordinates": [ 139.637068799999952, 35.8706502 ] } },
{ "type": "Feature", "properties": { "内容": "アスケア訪問入浴　与野【訪問入浴介護】埼玉県さいたま市中央区下落合2-18-12田口ビル", "url2": "https://www.kaigokensaku.mhlw.go.jp/11/index.php?action_kouhyou_detail_004_kani=true&JigyosyoCd=1176504999-00&ServiceCd=120&Type=search" }, "geometry": { "type": "Point", "coordinates": [ 139.632225399999982, 35.8838353 ] } },
{ "type": "Feature", "properties": { "内容": "ふくしのまち与野【訪問入浴介護】埼玉県さいたま市浦和区木崎4-17-1バロンズ木崎202", "url2": "https://www.kaigokensaku.mhlw.go.jp/11/index.php?action_kouhyou_detail_004_kani=true&JigyosyoCd=1176500351-00&ServiceCd=120&Type=search" }, "geometry": { "type": "Point", "coordinates": [ 139.6611284, 35.886521299999984 ] } },
{ "type": "Feature", "properties": { "内容": "アスケア訪問入浴　浦和【訪問入浴介護】埼玉県さいたま市南区南浦和1丁目1番18号バーズヒル南浦和201号室", "url2": "https://www.kaigokensaku.mhlw.go.jp/11/index.php?action_kouhyou_detail_004_kani=true&JigyosyoCd=1176521001-00&ServiceCd=120&Type=search" }, "geometry": { "type": "Point", "coordinates": [ 139.6659841, 35.8511273 ] } },
{ "type": "Feature", "properties": { "内容": "ツクイさいたま東浦和【訪問入浴介護】埼玉県さいたま市緑区東浦和3－14－3", "url2": "https://www.kaigokensaku.mhlw.go.jp/11/index.php?action_kouhyou_detail_004_kani=true&JigyosyoCd=1176503199-00&ServiceCd=120&Type=search" }, "geometry": { "type": "Point", "coordinates": [ 139.697080199999959, 35.8652986 ] } },
{ "type": "Feature", "properties": { "内容": "アスケア訪問入浴　岩槻【訪問入浴介護】埼玉県さいたま市岩槻区東岩槻4丁目1番地9YSビル1階101号室", "url2": "https://www.kaigokensaku.mhlw.go.jp/11/index.php?action_kouhyou_detail_004_kani=true&JigyosyoCd=1176506382-00&ServiceCd=120&Type=search" }, "geometry": { "type": "Point", "coordinates": [ 139.7118825, 35.96292170000001 ] } },
{ "type": "Feature", "properties": { "内容": "ふくしのまち川越【訪問入浴介護】埼玉県川越市小仙波町３－６－８", "url2": "https://www.kaigokensaku.mhlw.go.jp/11/index.php?action_kouhyou_detail_004_kani=true&JigyosyoCd=1170401663-00&ServiceCd=120&Type=search" }, "geometry": { "type": "Point", "coordinates": [ 139.4947065, 35.9180936 ] } },
{ "type": "Feature", "properties": { "内容": "エミール川越　訪問入浴介護事業所【訪問入浴介護】埼玉県川越市砂新田1-13-15", "url2": "https://www.kaigokensaku.mhlw.go.jp/11/index.php?action_kouhyou_detail_004_kani=true&JigyosyoCd=1170400541-00&ServiceCd=120&Type=search" }, "geometry": { "type": "Point", "coordinates": [ 139.488433500000042, 35.8864171 ] } },
{ "type": "Feature", "properties": { "内容": "アースサポート川越【訪問入浴介護】埼玉県川越市仙波町2丁目15番地1", "url2": "https://www.kaigokensaku.mhlw.go.jp/11/index.php?action_kouhyou_detail_004_kani=true&JigyosyoCd=1170402638-00&ServiceCd=120&Type=search" }, "geometry": { "type": "Point", "coordinates": [ 139.490313, 35.9085699 ] } },
{ "type": "Feature", "properties": { "内容": "アスケア訪問入浴　川越【訪問入浴介護】埼玉県川越市新宿町二丁目４番地１オフィスアヴニール２A号室", "url2": "https://www.kaigokensaku.mhlw.go.jp/11/index.php?action_kouhyou_detail_004_kani=true&JigyosyoCd=1170402414-00&ServiceCd=120&Type=search" }, "geometry": { "type": "Point", "coordinates": [ 139.484227199999964, 35.903096 ] } },
{ "type": "Feature", "properties": { "内容": "アースサポート熊谷【訪問入浴介護】埼玉県熊谷市籠原南1丁目1番地", "url2": "https://www.kaigokensaku.mhlw.go.jp/11/index.php?action_kouhyou_detail_004_kani=true&JigyosyoCd=1173102003-00&ServiceCd=120&Type=search" }, "geometry": { "type": "Point", "coordinates": [ 139.33085959999994, 36.1733255 ] } },
{ "type": "Feature", "properties": { "内容": "ふくしのまち熊谷【訪問入浴介護】熊谷市肥塚６４１－１", "url2": "https://www.kaigokensaku.mhlw.go.jp/11/index.php?action_kouhyou_detail_004_kani=true&JigyosyoCd=1173100742-00&ServiceCd=120&Type=search" }, "geometry": { "type": "Point", "coordinates": [ 139.393365200000062, 36.1637639 ] } },
{ "type": "Feature", "properties": { "内容": "医療法人　善心会　訪問入浴サービスステーション【訪問入浴介護】埼玉県熊谷市柿沼３３４番地１", "url2": "https://www.kaigokensaku.mhlw.go.jp/11/index.php?action_kouhyou_detail_004_kani=true&JigyosyoCd=1113103835-00&ServiceCd=120&Type=search" }, "geometry": { "type": "Point", "coordinates": [ 139.3836073, 36.1727016 ] } },
{ "type": "Feature", "properties": { "内容": "アスケア訪問入浴　熊谷【訪問入浴介護】埼玉県熊谷市曙町１丁目４ＯＭレジデンス熊谷１０Ｂ号室", "url2": "https://www.kaigokensaku.mhlw.go.jp/11/index.php?action_kouhyou_detail_004_kani=true&JigyosyoCd=1173103019-00&ServiceCd=120&Type=search" }, "geometry": { "type": "Point", "coordinates": [ 139.3904814, 36.137679400000017 ] } },
{ "type": "Feature", "properties": { "内容": "株式会社ケアサービス　訪問入浴　川口【訪問入浴介護】埼玉県川口市西青木3-10-7　エスポワール小陽202", "url2": "https://www.kaigokensaku.mhlw.go.jp/11/index.php?action_kouhyou_detail_004_kani=true&JigyosyoCd=1170208423-00&ServiceCd=120&Type=search" }, "geometry": { "type": "Point", "coordinates": [ 139.713001909897088, 35.819532943233888 ] } },
{ "type": "Feature", "properties": { "内容": "アースサポート川口【訪問入浴介護】埼玉県川口市幸町2丁目14番27号", "url2": "https://www.kaigokensaku.mhlw.go.jp/11/index.php?action_kouhyou_detail_004_kani=true&JigyosyoCd=1170202327-00&ServiceCd=120&Type=search" }, "geometry": { "type": "Point", "coordinates": [ 139.719771600000058, 35.8067269 ] } },
{ "type": "Feature", "properties": { "内容": "株式会社大起エンゼルヘルプ　川口ケアセンター【訪問入浴介護】埼玉県川口市芝園町3番12号棟101", "url2": "https://www.kaigokensaku.mhlw.go.jp/11/index.php?action_kouhyou_detail_004_kani=true&JigyosyoCd=1170207441-00&ServiceCd=120&Type=search" }, "geometry": { "type": "Point", "coordinates": [ 139.683351899999934, 35.8339357 ] } },
{ "type": "Feature", "properties": { "内容": "ハピネスケア株式会社川口営業所【訪問入浴介護】埼玉県川口市芝樋ノ爪2-14-23F", "url2": "https://www.kaigokensaku.mhlw.go.jp/11/index.php?action_kouhyou_detail_004_kani=true&JigyosyoCd=1170200040-00&ServiceCd=120&Type=search" }, "geometry": { "type": "Point", "coordinates": [ 139.688612004597161, 35.834980736659858 ] } },
{ "type": "Feature", "properties": { "内容": "アスケア訪問入浴　川口【訪問入浴介護】川口市柳崎５－１８－８サンフラワーカトウ１０２号室", "url2": "https://www.kaigokensaku.mhlw.go.jp/11/index.php?action_kouhyou_detail_004_kani=true&JigyosyoCd=1170200560-00&ServiceCd=120&Type=search" }, "geometry": { "type": "Point", "coordinates": [ 139.7030919, 35.86056580000001 ] } },
{ "type": "Feature", "properties": { "内容": "株式会社　エミール行田訪問入浴介護事業所【訪問入浴介護】埼玉県行田市持田2-15-14", "url2": "https://www.kaigokensaku.mhlw.go.jp/11/index.php?action_kouhyou_detail_004_kani=true&JigyosyoCd=1173700061-00&ServiceCd=120&Type=search" }, "geometry": { "type": "Point", "coordinates": [ 139.435656399999971, 36.1345151 ] } },
{ "type": "Feature", "properties": { "内容": "緑風苑訪問入浴サービス【訪問入浴介護】埼玉県行田市佐間2-2-18", "url2": "https://www.kaigokensaku.mhlw.go.jp/11/index.php?action_kouhyou_detail_004_kani=true&JigyosyoCd=1173700087-00&ServiceCd=120&Type=search" }, "geometry": { "type": "Point", "coordinates": [ 139.466626939156583, 36.131606202322871 ] } },
{ "type": "Feature", "properties": { "内容": "株式会社福祉の街　ふくしのまち秩父【訪問入浴介護】埼玉県秩父市野坂町1-20-33　K'Sノサカ1F", "url2": "https://www.kaigokensaku.mhlw.go.jp/11/index.php?action_kouhyou_detail_004_kani=true&JigyosyoCd=1174900116-00&ServiceCd=120&Type=search" }, "geometry": { "type": "Point", "coordinates": [ 139.084665437639927, 35.989456112773247 ] } },
{ "type": "Feature", "properties": { "内容": "アースサポート所沢【訪問入浴介護】埼玉県所沢市並木3丁目1番地6", "url2": "https://www.kaigokensaku.mhlw.go.jp/11/index.php?action_kouhyou_detail_004_kani=true&JigyosyoCd=1172501726-00&ServiceCd=120&Type=search" }, "geometry": { "type": "Point", "coordinates": [ 139.469182199999977, 35.8008852 ] } },
{ "type": "Feature", "properties": { "内容": "ニチイケアセンター所沢【訪問入浴介護】所沢市荒幡１９５－１", "url2": "https://www.kaigokensaku.mhlw.go.jp/11/index.php?action_kouhyou_detail_004_kani=true&JigyosyoCd=1172500017-00&ServiceCd=120&Type=search" }, "geometry": { "type": "Point", "coordinates": [ 139.451337200000012, 35.7799017 ] } },
{ "type": "Feature", "properties": { "内容": "アスケア訪問入浴　所沢【訪問入浴介護】埼玉県所沢市旭町５－６鹿野川ビル１階", "url2": "https://www.kaigokensaku.mhlw.go.jp/11/index.php?action_kouhyou_detail_004_kani=true&JigyosyoCd=1172501122-00&ServiceCd=120&Type=search" }, "geometry": { "type": "Point", "coordinates": [ 139.4746127, 35.7908463 ] } },
{ "type": "Feature", "properties": { "内容": "アースサポート飯能【訪問入浴介護】埼玉県飯能市大字中山320番地1", "url2": "https://www.kaigokensaku.mhlw.go.jp/11/index.php?action_kouhyou_detail_004_kani=true&JigyosyoCd=1172600718-00&ServiceCd=120&Type=search" }, "geometry": { "type": "Point", "coordinates": [ 139.322487099999989, 35.860033 ] } },
{ "type": "Feature", "properties": { "内容": "株式会社　エミール加須訪問入浴介護事業所【訪問入浴介護】埼玉県加須市花崎北2-2-10花咲コーポ　101", "url2": "https://www.kaigokensaku.mhlw.go.jp/11/index.php?action_kouhyou_detail_004_kani=true&JigyosyoCd=1173800598-00&ServiceCd=120&Type=search" }, "geometry": { "type": "Point", "coordinates": [ 139.634942089629277, 36.112560238895291 ] } },
{ "type": "Feature", "properties": { "内容": "アスケア訪問入浴　加須【訪問入浴介護】埼玉県加須市花崎１丁目２３－１０", "url2": "https://www.kaigokensaku.mhlw.go.jp/11/index.php?action_kouhyou_detail_004_kani=true&JigyosyoCd=1173801315-00&ServiceCd=120&Type=search" }, "geometry": { "type": "Point", "coordinates": [ 139.633241300000037, 36.1076474 ] } },
{ "type": "Feature", "properties": { "内容": "ふくしのまち東松山【訪問入浴介護】東松山市元宿1-31-1", "url2": "https://www.kaigokensaku.mhlw.go.jp/11/index.php?action_kouhyou_detail_004_kani=true&JigyosyoCd=1173300029-00&ServiceCd=120&Type=search" }, "geometry": { "type": "Point", "coordinates": [ 139.3977112, 35.998556 ] } },
{ "type": "Feature", "properties": { "内容": "アースサポート東松山【訪問入浴介護】埼玉県東松山市若松町2丁目2番4号", "url2": "https://www.kaigokensaku.mhlw.go.jp/11/index.php?action_kouhyou_detail_004_kani=true&JigyosyoCd=1173300730-00&ServiceCd=120&Type=search" }, "geometry": { "type": "Point", "coordinates": [ 139.412374199999903, 36.03711040000001 ] } },
{ "type": "Feature", "properties": { "内容": "アースサポート春日部【訪問入浴介護】埼玉県春日部市中央1丁目7番7号", "url2": "https://www.kaigokensaku.mhlw.go.jp/11/index.php?action_kouhyou_detail_004_kani=true&JigyosyoCd=1170801284-00&ServiceCd=120&Type=search" }, "geometry": { "type": "Point", "coordinates": [ 139.7501009, 35.9785481 ] } },
{ "type": "Feature", "properties": { "内容": "ハピネスケア株式会社　春日部営業所【訪問入浴介護】埼玉県春日部市梅田本町2-12-4", "url2": "https://www.kaigokensaku.mhlw.go.jp/11/index.php?action_kouhyou_detail_004_kani=true&JigyosyoCd=1170600116-00&ServiceCd=120&Type=search" }, "geometry": { "type": "Point", "coordinates": [ 139.743136386508212, 35.989182069554715 ] } },
{ "type": "Feature", "properties": { "内容": "アスケア訪問入浴　春日部【訪問入浴介護】埼玉県春日部市粕壁東二丁目三番４０号グレースヒル橋本　２０２号", "url2": "https://www.kaigokensaku.mhlw.go.jp/11/index.php?action_kouhyou_detail_004_kani=true&JigyosyoCd=1170602088-00&ServiceCd=120&Type=search" }, "geometry": { "type": "Point", "coordinates": [ 139.756672188954923, 35.98181739028071 ] } },
{ "type": "Feature", "properties": { "内容": "ニチイケアセンター狭山西【訪問入浴介護】埼玉県狭山市入間川1-7-2シティパル狭山２０１", "url2": "https://www.kaigokensaku.mhlw.go.jp/11/index.php?action_kouhyou_detail_004_kani=true&JigyosyoCd=1172701227-00&ServiceCd=120&Type=search" }, "geometry": { "type": "Point", "coordinates": [ 139.410821299999952, 35.8558333 ] } },
{ "type": "Feature", "properties": { "内容": "株式会社福祉の街　ふくしのまち鴻巣【訪問入浴介護】埼玉県鴻巣市滝馬室９２３－２", "url2": "https://www.kaigokensaku.mhlw.go.jp/11/index.php?action_kouhyou_detail_004_kani=true&JigyosyoCd=1171700055-00&ServiceCd=120&Type=search" }, "geometry": { "type": "Point", "coordinates": [ 139.506613099999981, 36.0538062 ] } },
{ "type": "Feature", "properties": { "内容": "株式会社　彩香らんど【訪問入浴介護】埼玉県鴻巣市箕田２７０番１", "url2": "https://www.kaigokensaku.mhlw.go.jp/11/index.php?action_kouhyou_detail_004_kani=true&JigyosyoCd=1171700030-00&ServiceCd=120&Type=search" }, "geometry": { "type": "Point", "coordinates": [ 139.478310500000021, 36.0763832 ] } },
{ "type": "Feature", "properties": { "内容": "アースサポート鴻巣【訪問入浴介護】埼玉県鴻巣市逆川1丁目7番34号", "url2": "https://www.kaigokensaku.mhlw.go.jp/11/index.php?action_kouhyou_detail_004_kani=true&JigyosyoCd=1171700766-00&ServiceCd=120&Type=search" }, "geometry": { "type": "Point", "coordinates": [ 139.509987599999931, 36.0565922 ] } },
{ "type": "Feature", "properties": { "内容": "エミール深谷訪問入浴介護事業所【訪問入浴介護】深谷市小前田1048番地5", "url2": "https://www.kaigokensaku.mhlw.go.jp/11/index.php?action_kouhyou_detail_004_kani=true&JigyosyoCd=1174500452-00&ServiceCd=120&Type=search" }, "geometry": { "type": "Point", "coordinates": [ 139.221894220638717, 36.126243870204242 ] } },
{ "type": "Feature", "properties": { "内容": "ふくしのまち深谷【訪問入浴介護】深谷市岡部２０１６－１", "url2": "https://www.kaigokensaku.mhlw.go.jp/11/index.php?action_kouhyou_detail_004_kani=true&JigyosyoCd=1174500742-00&ServiceCd=120&Type=search" }, "geometry": { "type": "Point", "coordinates": [ 139.244666300000063, 36.1883051 ] } },
{ "type": "Feature", "properties": { "内容": "あねとす訪問入浴【訪問入浴介護】埼玉県深谷市人見１９７５番地", "url2": "https://www.kaigokensaku.mhlw.go.jp/11/index.php?action_kouhyou_detail_004_kani=true&JigyosyoCd=1174601235-00&ServiceCd=120&Type=search" }, "geometry": { "type": "Point", "coordinates": [ 139.26452740000002, 36.1622361 ] } },
{ "type": "Feature", "properties": { "内容": "ふくしのまち上尾【訪問入浴介護】上尾市壱丁目北１０－３", "url2": "https://www.kaigokensaku.mhlw.go.jp/11/index.php?action_kouhyou_detail_004_kani=true&JigyosyoCd=1171600388-00&ServiceCd=120&Type=search" }, "geometry": { "type": "Point", "coordinates": [ 139.570340559135502, 35.958958601939237 ] } },
{ "type": "Feature", "properties": { "内容": "アースサポート上尾【訪問入浴介護】埼玉県上尾市中妻2丁目16番地8", "url2": "https://www.kaigokensaku.mhlw.go.jp/11/index.php?action_kouhyou_detail_004_kani=true&JigyosyoCd=1171601287-00&ServiceCd=120&Type=search" }, "geometry": { "type": "Point", "coordinates": [ 139.570288, 35.9815021 ] } },
{ "type": "Feature", "properties": { "内容": "アスケア訪問入浴　上尾【訪問入浴介護】埼玉県上尾市上町１丁目１１－２０伊藤店舗１階", "url2": "https://www.kaigokensaku.mhlw.go.jp/11/index.php?action_kouhyou_detail_004_kani=true&JigyosyoCd=1171602152-00&ServiceCd=120&Type=search" }, "geometry": { "type": "Point", "coordinates": [ 139.590753799999987, 35.977380600000011 ] } },
{ "type": "Feature", "properties": { "内容": "ニチイケアセンター　草加稲荷【訪問入浴介護】埼玉県草加市稲荷4-4-36", "url2": "https://www.kaigokensaku.mhlw.go.jp/11/index.php?action_kouhyou_detail_004_kani=true&JigyosyoCd=1171800244-00&ServiceCd=120&Type=search" }, "geometry": { "type": "Point", "coordinates": [ 139.823683699999947, 35.8332538 ] } },
{ "type": "Feature", "properties": { "内容": "アースサポート草加【訪問入浴介護】埼玉県草加市住吉1丁目5番27号", "url2": "https://www.kaigokensaku.mhlw.go.jp/11/index.php?action_kouhyou_detail_004_kani=true&JigyosyoCd=1171801754-00&ServiceCd=120&Type=search" }, "geometry": { "type": "Point", "coordinates": [ 139.804555, 35.8298261 ] } },
{ "type": "Feature", "properties": { "内容": "ヘルパーステーションさんわ【訪問入浴介護】草加市両新田西町438－8", "url2": "https://www.kaigokensaku.mhlw.go.jp/11/index.php?action_kouhyou_detail_004_kani=true&JigyosyoCd=1171800756-00&ServiceCd=120&Type=search" }, "geometry": { "type": "Point", "coordinates": [ 139.786825680287166, 35.815899241410719 ] } },
{ "type": "Feature", "properties": { "内容": "アスケア訪問入浴　草加【訪問入浴介護】埼玉県草加市吉町５－４－１高橋貸事務所１階", "url2": "https://www.kaigokensaku.mhlw.go.jp/11/index.php?action_kouhyou_detail_004_kani=true&JigyosyoCd=1171803073-00&ServiceCd=120&Type=search" }, "geometry": { "type": "Point", "coordinates": [ 139.805363475480448, 35.820386883581314 ] } },
{ "type": "Feature", "properties": { "内容": "アースサポート越谷【訪問入浴介護】埼玉県越谷市南越谷3丁目18番12号", "url2": "https://www.kaigokensaku.mhlw.go.jp/11/index.php?action_kouhyou_detail_004_kani=true&JigyosyoCd=1170802639-00&ServiceCd=120&Type=search" }, "geometry": { "type": "Point", "coordinates": [ 139.788102200000026, 35.8771444 ] } },
{ "type": "Feature", "properties": { "内容": "株式会社大起エンゼルヘルプ越谷ケアセンター【訪問入浴介護】埼玉県越谷市川柳町1丁目166-1", "url2": "https://www.kaigokensaku.mhlw.go.jp/11/index.php?action_kouhyou_detail_004_kani=true&JigyosyoCd=1170800021-00&ServiceCd=120&Type=search" }, "geometry": { "type": "Point", "coordinates": [ 139.80718109999998, 35.875267 ] } },
{ "type": "Feature", "properties": { "内容": "訪問入浴　もあな【訪問入浴介護】埼玉県越谷市東越谷4丁目3-15フェリーチェ越谷104", "url2": "https://www.kaigokensaku.mhlw.go.jp/11/index.php?action_kouhyou_detail_004_kani=true&JigyosyoCd=1170805285-00&ServiceCd=120&Type=search" }, "geometry": { "type": "Point", "coordinates": [ 139.7965242, 35.899412 ] } },
{ "type": "Feature", "properties": { "内容": "アスケア訪問入浴　越谷【訪問入浴介護】埼玉県越谷市南越谷四丁目２番地１２ハーモニーハイツ第３", "url2": "https://www.kaigokensaku.mhlw.go.jp/11/index.php?action_kouhyou_detail_004_kani=true&JigyosyoCd=1170800856-00&ServiceCd=120&Type=search" }, "geometry": { "type": "Point", "coordinates": [ 139.787731899999983, 35.876164599999989 ] } },
{ "type": "Feature", "properties": { "内容": "アスケア訪問入浴　戸田【訪問入浴介護】埼玉県戸田市川岸２丁目７番８号大友事務所１階", "url2": "https://www.kaigokensaku.mhlw.go.jp/11/index.php?action_kouhyou_detail_004_kani=true&JigyosyoCd=1171902008-00&ServiceCd=120&Type=search" }, "geometry": { "type": "Point", "coordinates": [ 139.6842002, 35.8042675 ] } },
{ "type": "Feature", "properties": { "内容": "あさか訪問入浴介護事業所【訪問入浴介護】岡3-17-53", "url2": "https://www.kaigokensaku.mhlw.go.jp/11/index.php?action_kouhyou_detail_004_kani=true&JigyosyoCd=1172100032-00&ServiceCd=120&Type=search" }, "geometry": { "type": "Point", "coordinates": [ 139.605054429497613, 35.808800296897608 ] } },
{ "type": "Feature", "properties": { "内容": "アースサポート志木【訪問入浴介護】埼玉県志木市本町3丁目5番29号", "url2": "https://www.kaigokensaku.mhlw.go.jp/11/index.php?action_kouhyou_detail_004_kani=true&JigyosyoCd=1172200311-00&ServiceCd=120&Type=search" }, "geometry": { "type": "Point", "coordinates": [ 139.5730175, 35.8281067 ] } },
{ "type": "Feature", "properties": { "内容": "訪問入浴彩たま介護サービス【訪問入浴介護】埼玉県志木市幸町4-5-3", "url2": "https://www.kaigokensaku.mhlw.go.jp/11/index.php?action_kouhyou_detail_004_kani=true&JigyosyoCd=1172201004-00&ServiceCd=120&Type=search" }, "geometry": { "type": "Point", "coordinates": [ 139.562271399999986, 35.81946 ] } },
{ "type": "Feature", "properties": { "内容": "株式会社　愛和　和光営業所【訪問入浴介護】埼玉県和光市本町１５－３５　２Ｆ", "url2": "https://www.kaigokensaku.mhlw.go.jp/11/index.php?action_kouhyou_detail_004_kani=true&JigyosyoCd=1172300525-00&ServiceCd=120&Type=search" }, "geometry": { "type": "Point", "coordinates": [ 139.609529912303174, 35.785991053929955 ] } },
{ "type": "Feature", "properties": { "内容": "ふれあい広場　入浴サービス　りぼん【訪問入浴介護】埼玉県新座市東北2-29-12", "url2": "https://www.kaigokensaku.mhlw.go.jp/11/index.php?action_kouhyou_detail_004_kani=true&JigyosyoCd=1175100211-00&ServiceCd=120&Type=search" }, "geometry": { "type": "Point", "coordinates": [ 139.572756600000048, 35.821988 ] } },
{ "type": "Feature", "properties": { "内容": "アスケア訪問入浴　新座【訪問入浴介護】埼玉県新座市大和田１－１７－３ファーストコート１０２", "url2": "https://www.kaigokensaku.mhlw.go.jp/11/index.php?action_kouhyou_detail_004_kani=true&JigyosyoCd=1175101227-00&ServiceCd=120&Type=search" }, "geometry": { "type": "Point", "coordinates": [ 139.555927878180938, 35.806997463183642 ] } },
{ "type": "Feature", "properties": { "内容": "ふくしのまち久喜【訪問入浴介護】埼玉県久喜市本町3-8-33", "url2": "https://www.kaigokensaku.mhlw.go.jp/11/index.php?action_kouhyou_detail_004_kani=true&JigyosyoCd=1170900300-00&ServiceCd=120&Type=search" }, "geometry": { "type": "Point", "coordinates": [ 139.6684378, 36.0655423 ] } },
{ "type": "Feature", "properties": { "内容": "アスケア訪問入浴　三郷【訪問入浴介護】埼玉県三郷市早稲田３－７－１パークサイド早稲田Ⅲ１階１０２号室", "url2": "https://www.kaigokensaku.mhlw.go.jp/11/index.php?action_kouhyou_detail_004_kani=true&JigyosyoCd=1171200726-00&ServiceCd=120&Type=search" }, "geometry": { "type": "Point", "coordinates": [ 139.885877835495961, 35.850009255524967 ] } },
{ "type": "Feature", "properties": { "内容": "アスケア訪問入浴　白岡【訪問入浴介護】埼玉県白岡市千駄野７７４－３ShiraokaApartment　Ｂ号室", "url2": "https://www.kaigokensaku.mhlw.go.jp/11/index.php?action_kouhyou_detail_004_kani=true&JigyosyoCd=1176600425-00&ServiceCd=120&Type=search" }, "geometry": { "type": "Point", "coordinates": [ 139.6711607069997, 36.017411351234671 ] } },
{ "type": "Feature", "properties": { "内容": "株式会社　はーとふる・ファイン【訪問入浴介護】埼玉県入間郡三芳町藤久保８９－５リエス鶴瀬103", "url2": "https://www.kaigokensaku.mhlw.go.jp/11/index.php?action_kouhyou_detail_004_kani=true&JigyosyoCd=1172401299-00&ServiceCd=120&Type=search" }, "geometry": { "type": "Point", "coordinates": [ 139.529900600000019, 35.8452677 ] } },
{ "type": "Feature", "properties": { "内容": "株式会社　福祉の街　ふくしのまち西入間【訪問入浴介護】埼玉県入間郡毛呂山町長瀬720-25", "url2": "https://www.kaigokensaku.mhlw.go.jp/11/index.php?action_kouhyou_detail_004_kani=true&JigyosyoCd=1172400549-00&ServiceCd=120&Type=search" }, "geometry": { "type": "Point", "coordinates": [ 139.322799799999984, 35.9398315 ] } },
{ "type": "Feature", "properties": { "内容": "にこりんの湯　笑【訪問入浴介護】埼玉県北葛飾郡松伏町松伏2432－1", "url2": "https://www.kaigokensaku.mhlw.go.jp/11/index.php?action_kouhyou_detail_004_kani=true&JigyosyoCd=1171102088-00&ServiceCd=120&Type=search" }, "geometry": { "type": "Point", "coordinates": [ 139.814938341664117, 35.924680479488366 ] } }
]
}
