{
"type": "FeatureCollection",
"name": "geo_11_短期入所療養介護（介護老人保健施設）",
"crs": { "type": "name", "properties": { "name": "urn:ogc:def:crs:OGC:1.3:CRS84" } },
"features": [
{ "type": "Feature", "properties": { "内容": "介護老人保健施設　葵の園・大宮【短期入所療養介護（介護老人保健施設）】埼玉県さいたま市西区清河寺685-1", "url": "https://www.kaigokensaku.mhlw.go.jp/11/index.php?action_kouhyou_detail_004_kani=true&JigyosyoCd=1156580118-00&ServiceCd=220&Type=search", "url2": "http://www.aoikai.jp" }, "geometry": { "type": "Point", "coordinates": [ 139.582807699999989, 35.9336007 ] } },
{ "type": "Feature", "properties": { "内容": "高齢者ケアセンター　ゆらぎ【短期入所療養介護（介護老人保健施設）】さいたま市西区西遊馬1556-1", "url": "https://www.kaigokensaku.mhlw.go.jp/11/index.php?action_kouhyou_detail_004_kani=true&JigyosyoCd=1150380048-00&ServiceCd=220&Type=search", "url2": "http://omiya-kyoritsu.or.jp/" }, "geometry": { "type": "Point", "coordinates": [ 139.564767599999982, 35.9113325 ] } },
{ "type": "Feature", "properties": { "内容": "短期入所療養介護　春陽苑【短期入所療養介護（介護老人保健施設）】埼玉県さいたま市西区飯田新田91-1", "url": "https://www.kaigokensaku.mhlw.go.jp/11/index.php?action_kouhyou_detail_004_kani=true&JigyosyoCd=1150380055-00&ServiceCd=220&Type=search", "url2": "http://www.mutsumikai.net" }, "geometry": { "type": "Point", "coordinates": [ 139.559774299999958, 35.8880939 ] } },
{ "type": "Feature", "properties": { "内容": "医療法人社団松弘会　　トワーム指扇【短期入所療養介護（介護老人保健施設）】さいたま市西区宝来５９１", "url": "https://www.kaigokensaku.mhlw.go.jp/11/index.php?action_kouhyou_detail_004_kani=true&JigyosyoCd=1156580001-00&ServiceCd=220&Type=search", "url2": "http://www.towarm.com/sashiougi/index.html" }, "geometry": { "type": "Point", "coordinates": [ 139.5578789, 35.9269635 ] } },
{ "type": "Feature", "properties": { "内容": "介護老人保健施設　びわの葉【短期入所療養介護（介護老人保健施設）】埼玉県さいたま市西区宝来1348-1", "url": "https://www.kaigokensaku.mhlw.go.jp/11/index.php?action_kouhyou_detail_004_kani=true&JigyosyoCd=1156580142-00&ServiceCd=220&Type=search", "url2": "http://www.sashiogi.com/" }, "geometry": { "type": "Point", "coordinates": [ 139.5619758, 35.9223116 ] } },
{ "type": "Feature", "properties": { "内容": "介護老人保健施設　ハートランド大宮【短期入所療養介護（介護老人保健施設）】埼玉県さいたま市北区奈良町120－2", "url": "https://www.kaigokensaku.mhlw.go.jp/11/index.php?action_kouhyou_detail_004_kani=true&JigyosyoCd=1156580134-00&ServiceCd=220&Type=search", "url2": "http://www.seisekikai.com/kenou/" }, "geometry": { "type": "Point", "coordinates": [ 139.597724199999988, 35.9514937 ] } },
{ "type": "Feature", "properties": { "内容": "介護老人保健施設ボヌール【短期入所療養介護（介護老人保健施設）】埼玉県さいたま市北区吉野町２丁目１３６５番地", "url": "https://www.kaigokensaku.mhlw.go.jp/11/index.php?action_kouhyou_detail_004_kani=true&JigyosyoCd=1156580054-00&ServiceCd=220&Type=search", "url2": "http://www.bonheur.or.jp" }, "geometry": { "type": "Point", "coordinates": [ 139.619120400000043, 35.9633026 ] } },
{ "type": "Feature", "properties": { "内容": "介護老人保健施設　みやびの里【短期入所療養介護（介護老人保健施設）】埼玉県さいたま市北区別所町920", "url": "https://www.kaigokensaku.mhlw.go.jp/11/index.php?action_kouhyou_detail_004_kani=true&JigyosyoCd=1156580047-00&ServiceCd=220&Type=search", "url2": "http://miyabinosato.org/" }, "geometry": { "type": "Point", "coordinates": [ 139.590623100000016, 35.9578191 ] } },
{ "type": "Feature", "properties": { "内容": "介護老人保健施設高齢者ケアセンターのぞみ【短期入所療養介護（介護老人保健施設）】さいたま市見沼区片柳１３８７－１", "url": "https://www.kaigokensaku.mhlw.go.jp/11/index.php?action_kouhyou_detail_004_kani=true&JigyosyoCd=1156580092-00&ServiceCd=220&Type=search", "url2": "https://omiya-kyoritsu.or.jp/nozomi/" }, "geometry": { "type": "Point", "coordinates": [ 139.690285200000062, 35.9033136 ] } },
{ "type": "Feature", "properties": { "内容": "介護老人保健施設　大宮ナーシング・ピア【短期入所療養介護（介護老人保健施設）】さいたま市見沼区片柳1550番地", "url": "https://www.kaigokensaku.mhlw.go.jp/11/index.php?action_kouhyou_detail_004_kani=true&JigyosyoCd=1150380014-00&ServiceCd=220&Type=search", "url2": "https://www.keijuen.info/pia" }, "geometry": { "type": "Point", "coordinates": [ 139.690930993362343, 35.904207559094083 ] } },
{ "type": "Feature", "properties": { "内容": "ハートケア東大宮【短期入所療養介護（介護老人保健施設）】埼玉県さいたま市見沼区大字風渡野４５", "url": "https://www.kaigokensaku.mhlw.go.jp/11/index.php?action_kouhyou_detail_004_kani=true&JigyosyoCd=1156580021-00&ServiceCd=220&Type=search", "url2": "http://www.hc-higashiomiya.jp" }, "geometry": { "type": "Point", "coordinates": [ 139.673877400000038, 35.9373896 ] } },
{ "type": "Feature", "properties": { "内容": "介護老人保健施設　あすか【短期入所療養介護（介護老人保健施設）】さいたま市見沼区染谷3丁目430番地１", "url": "https://www.kaigokensaku.mhlw.go.jp/11/index.php?action_kouhyou_detail_004_kani=true&JigyosyoCd=1150380030-00&ServiceCd=220&Type=search", "url2": "http://www.zuisen.net" }, "geometry": { "type": "Point", "coordinates": [ 139.686513200000036, 35.9078463 ] } },
{ "type": "Feature", "properties": { "内容": "介護老人保健施設　アーバンみらいハートランド東大宮【短期入所療養介護（介護老人保健施設）】埼玉県さいたま市見沼区春野2-9-22番地", "url": "https://www.kaigokensaku.mhlw.go.jp/11/index.php?action_kouhyou_detail_004_kani=true&JigyosyoCd=1156580062-00&ServiceCd=220&Type=search", "url2": "http://www.seisekikai.com/heartland-higashioomiya/" }, "geometry": { "type": "Point", "coordinates": [ 139.660516799999982, 35.9576117 ] } },
{ "type": "Feature", "properties": { "内容": "介護老人保健施設ファインハイム【短期入所療養介護（介護老人保健施設）】埼玉県さいたま市桜区宿３７２－１", "url": "https://www.kaigokensaku.mhlw.go.jp/11/index.php?action_kouhyou_detail_004_kani=true&JigyosyoCd=1156580013-00&ServiceCd=220&Type=search", "url2": "http://www.anseifukushikai.or.jp/" }, "geometry": { "type": "Point", "coordinates": [ 139.594741699999986, 35.8768538 ] } },
{ "type": "Feature", "properties": { "内容": "介護老人保健施設うらわの里【短期入所療養介護（介護老人保健施設）】さいたま市桜区西堀８－４－１", "url": "https://www.kaigokensaku.mhlw.go.jp/11/index.php?action_kouhyou_detail_004_kani=true&JigyosyoCd=1150180026-00&ServiceCd=220&Type=search", "url2": "http://www.eijukai/com" }, "geometry": { "type": "Point", "coordinates": [ 139.634666599999946, 35.8602624 ] } },
{ "type": "Feature", "properties": { "内容": "独立行政法人地域医療機能推進機構　埼玉メディカルセンター附属介護老人保健施設【短期入所療養介護（介護老人保健施設）】埼玉県さいたま市浦和区北浦和５丁目２番７号", "url": "https://www.kaigokensaku.mhlw.go.jp/11/index.php?action_kouhyou_detail_004_kani=true&JigyosyoCd=1150180034-00&ServiceCd=220&Type=search", "url2": "https://saitama.jcho.go.jp/rouken/" }, "geometry": { "type": "Point", "coordinates": [ 139.642909799999984, 35.8739527 ] } },
{ "type": "Feature", "properties": { "内容": "介護老人保健施設　葵の園・浦和【短期入所療養介護（介護老人保健施設）】埼玉県さいたま市南区内谷5-24-1", "url": "https://www.kaigokensaku.mhlw.go.jp/11/index.php?action_kouhyou_detail_004_kani=true&JigyosyoCd=1156580159-00&ServiceCd=220&Type=search", "url2": "http://www.aoikai.jp" }, "geometry": { "type": "Point", "coordinates": [ 139.6445679, 35.8304525 ] } },
{ "type": "Feature", "properties": { "内容": "介護老人保健施設　尚和園【短期入所療養介護（介護老人保健施設）】埼玉県さいたま市緑区原山3-15-31", "url": "https://www.kaigokensaku.mhlw.go.jp/11/index.php?action_kouhyou_detail_004_kani=true&JigyosyoCd=1156580088-00&ServiceCd=220&Type=search", "url2": "http://saitamakenkyousaikai.jp/" }, "geometry": { "type": "Point", "coordinates": [ 139.6754264, 35.8722395 ] } },
{ "type": "Feature", "properties": { "内容": "エスポワールさいたま【短期入所療養介護（介護老人保健施設）】埼玉県さいたま市緑区大門1548-7", "url": "https://www.kaigokensaku.mhlw.go.jp/11/index.php?action_kouhyou_detail_004_kani=true&JigyosyoCd=1156580126-00&ServiceCd=220&Type=search", "url2": "https://www.esp-saitama.com/" }, "geometry": { "type": "Point", "coordinates": [ 139.7281381, 35.8827465 ] } },
{ "type": "Feature", "properties": { "内容": "介護老人保健施設あさがお【短期入所療養介護（介護老人保健施設）】埼玉県さいたま市緑区大崎３３８５－１", "url": "https://www.kaigokensaku.mhlw.go.jp/11/index.php?action_kouhyou_detail_004_kani=true&JigyosyoCd=1156580100-00&ServiceCd=220&Type=search", "url2": "http://une-fleur.or.jp" }, "geometry": { "type": "Point", "coordinates": [ 139.716058, 35.8869493 ] } },
{ "type": "Feature", "properties": { "内容": "介護老人保健施設ソワンルミエ槻の森【短期入所療養介護（介護老人保健施設）】平林寺108", "url": "https://www.kaigokensaku.mhlw.go.jp/11/index.php?action_kouhyou_detail_004_kani=true&JigyosyoCd=1150780015-00&ServiceCd=220&Type=search", "url2": "https://www.hikarikaigroup.com/soinlumie/" }, "geometry": { "type": "Point", "coordinates": [ 139.6700849, 35.9644296 ] } },
{ "type": "Feature", "properties": { "内容": "介護老人保健施設　岩槻ライトケア【短期入所療養介護（介護老人保健施設）】埼玉県さいたま市岩槻区馬込1292", "url": "https://www.kaigokensaku.mhlw.go.jp/11/index.php?action_kouhyou_detail_004_kani=true&JigyosyoCd=1150780023-00&ServiceCd=220&Type=search", "url2": "hikarikaigroup.com/lightcare/introduction/" }, "geometry": { "type": "Point", "coordinates": [ 139.659347, 35.9704268 ] } },
{ "type": "Feature", "properties": { "内容": "医療法人社団明雄会【短期入所療養介護（介護老人保健施設）】表慈恩寺541-1", "url": "https://www.kaigokensaku.mhlw.go.jp/11/index.php?action_kouhyou_detail_004_kani=true&JigyosyoCd=1156580183-00&ServiceCd=220&Type=search", "url2": "https://www.esp-iwatsuki.com/" }, "geometry": { "type": "Point", "coordinates": [ 139.711938, 35.9671011 ] } },
{ "type": "Feature", "properties": { "内容": "介護老人保健施設　小江戸の郷【短期入所療養介護（介護老人保健施設）】埼玉県川越市上老袋86-1", "url": "https://www.kaigokensaku.mhlw.go.jp/11/index.php?action_kouhyou_detail_004_kani=true&JigyosyoCd=1150480075-00&ServiceCd=220&Type=search", "url2": "http://koedonosato.jp" }, "geometry": { "type": "Point", "coordinates": [ 139.525085100000013, 35.9465303 ] } },
{ "type": "Feature", "properties": { "内容": "介護老人保健施設プライムケア川越【短期入所療養介護（介護老人保健施設）】埼玉県川越市天沼新田３０７－１", "url": "https://www.kaigokensaku.mhlw.go.jp/11/index.php?action_kouhyou_detail_004_kani=true&JigyosyoCd=1150480012-00&ServiceCd=220&Type=search", "url2": null }, "geometry": { "type": "Point", "coordinates": [ 139.432721, 35.9377742 ] } },
{ "type": "Feature", "properties": { "内容": "医療法人　泰一会　介護老人保健施設　はつかり【短期入所療養介護（介護老人保健施設）】埼玉県川越市大字松郷821-1", "url": "https://www.kaigokensaku.mhlw.go.jp/11/index.php?action_kouhyou_detail_004_kani=true&JigyosyoCd=1150480091-00&ServiceCd=220&Type=search", "url2": "http://www.hatsukari.or.jp/" }, "geometry": { "type": "Point", "coordinates": [ 139.498558300000013, 35.921797 ] } },
{ "type": "Feature", "properties": { "内容": "介護老人保健施設　瑞穂の里【短期入所療養介護（介護老人保健施設）】埼玉県川越市中台元町1-16-11", "url": "https://www.kaigokensaku.mhlw.go.jp/11/index.php?action_kouhyou_detail_004_kani=true&JigyosyoCd=1150480053-00&ServiceCd=220&Type=search", "url2": "http://www.mizuhokai.or.jp" }, "geometry": { "type": "Point", "coordinates": [ 139.481750499999976, 35.8913385 ] } },
{ "type": "Feature", "properties": { "内容": "介護老人保健施設　ケアハイツ・川越【短期入所療養介護（介護老人保健施設）】川越市古谷本郷１４７５－１", "url": "https://www.kaigokensaku.mhlw.go.jp/11/index.php?action_kouhyou_detail_004_kani=true&JigyosyoCd=1150480046-00&ServiceCd=220&Type=search", "url2": "http://www.kawatsuru-g.jp" }, "geometry": { "type": "Point", "coordinates": [ 139.551982800000019, 35.90167 ] } },
{ "type": "Feature", "properties": { "内容": "介護老人保健施設　ケアパーク江南【短期入所療養介護（介護老人保健施設）】埼玉県熊谷市江南中央2-7-8", "url": "https://www.kaigokensaku.mhlw.go.jp/11/index.php?action_kouhyou_detail_004_kani=true&JigyosyoCd=1154580015-00&ServiceCd=220&Type=search", "url2": "https://www.careparkkounan.jp" }, "geometry": { "type": "Point", "coordinates": [ 139.339440500000023, 36.1137884 ] } },
{ "type": "Feature", "properties": { "内容": "介護老人保健施設　葵の園・熊谷【短期入所療養介護（介護老人保健施設）】埼玉県熊谷市善ケ島1324-1", "url": "https://www.kaigokensaku.mhlw.go.jp/11/index.php?action_kouhyou_detail_004_kani=true&JigyosyoCd=1153180037-00&ServiceCd=220&Type=search", "url2": "https://www.aoikai.jp/" }, "geometry": { "type": "Point", "coordinates": [ 139.395107700000011, 36.220983 ] } },
{ "type": "Feature", "properties": { "内容": "介護老人保健施設はなぶさ短期入所療養介護事業所【短期入所療養介護（介護老人保健施設）】埼玉県熊谷市玉井３３６番地１", "url": "https://www.kaigokensaku.mhlw.go.jp/11/index.php?action_kouhyou_detail_004_kani=true&JigyosyoCd=1153180015-00&ServiceCd=220&Type=search", "url2": "http://hanabusaen.com" }, "geometry": { "type": "Point", "coordinates": [ 139.35114550000003, 36.1707314 ] } },
{ "type": "Feature", "properties": { "内容": "介護老人保健施設　トワーム熊谷【短期入所療養介護（介護老人保健施設）】埼玉県熊谷市小曽根３３７－１", "url": "https://www.kaigokensaku.mhlw.go.jp/11/index.php?action_kouhyou_detail_004_kani=true&JigyosyoCd=1153100019-00&ServiceCd=220&Type=search", "url2": "http://www.towarm.com/kumagaya/" }, "geometry": { "type": "Point", "coordinates": [ 139.390134499999931, 36.173785 ] } },
{ "type": "Feature", "properties": { "内容": "ぬくもり【短期入所療養介護（介護老人保健施設）】熊谷市石原５１０", "url": "https://www.kaigokensaku.mhlw.go.jp/11/index.php?action_kouhyou_detail_004_kani=true&JigyosyoCd=1153180023-00&ServiceCd=220&Type=search", "url2": "http://www.jikei.or.jp/nukumori/" }, "geometry": { "type": "Point", "coordinates": [ 139.371172900000033, 36.1562528 ] } },
{ "type": "Feature", "properties": { "内容": "介護老人保健施設　ミレニアムマッシーランド【短期入所療養介護（介護老人保健施設）】埼玉県川口市新井宿802-5", "url": "https://www.kaigokensaku.mhlw.go.jp/11/index.php?action_kouhyou_detail_004_kani=true&JigyosyoCd=1150280024-00&ServiceCd=220&Type=search", "url2": "https://mashiko.or.jp/mashyland/" }, "geometry": { "type": "Point", "coordinates": [ 139.7287725, 35.8423961 ] } },
{ "type": "Feature", "properties": { "内容": "介護老人保健施設　厚生会川口ケアセンター【短期入所療養介護（介護老人保健施設）】埼玉県川口市西新井宿1271-1", "url": "https://www.kaigokensaku.mhlw.go.jp/11/index.php?action_kouhyou_detail_004_kani=true&JigyosyoCd=1150280032-00&ServiceCd=220&Type=search", "url2": "http://www.saitamakousei.com/" }, "geometry": { "type": "Point", "coordinates": [ 139.736370030024716, 35.852854891741934 ] } },
{ "type": "Feature", "properties": { "内容": "介護老人保健施設　かわぐちナーシングホーム【短期入所療養介護（介護老人保健施設）】埼玉県川口市大字西新井宿1022番地の1", "url": "https://www.kaigokensaku.mhlw.go.jp/11/index.php?action_kouhyou_detail_004_kani=true&JigyosyoCd=1150280137-00&ServiceCd=220&Type=search", "url2": "https://kawaguchi-nh.net" }, "geometry": { "type": "Point", "coordinates": [ 139.7315941, 35.8521966 ] } },
{ "type": "Feature", "properties": { "内容": "医療法人あかつき会老健ねぎしケアセンター【短期入所療養介護（介護老人保健施設）】埼玉県川口市安行領根岸２３５３", "url": "https://www.kaigokensaku.mhlw.go.jp/11/index.php?action_kouhyou_detail_004_kani=true&JigyosyoCd=1150280040-00&ServiceCd=220&Type=search", "url2": "https://hatogaya-hp.or.jp/negishi/" }, "geometry": { "type": "Point", "coordinates": [ 139.723523, 35.8431291 ] } },
{ "type": "Feature", "properties": { "内容": "介護老人保健施設　グリーンビレッジ安行【短期入所療養介護（介護老人保健施設）】埼玉県川口市安行１１４５番地", "url": "https://www.kaigokensaku.mhlw.go.jp/11/index.php?action_kouhyou_detail_004_kani=true&JigyosyoCd=1150280057-00&ServiceCd=220&Type=search", "url2": "http://gv-angyo.jp/" }, "geometry": { "type": "Point", "coordinates": [ 139.758041899999967, 35.8497295 ] } },
{ "type": "Feature", "properties": { "内容": "介護老人保健施設　グリーンピア【短期入所療養介護（介護老人保健施設）】行田市須加1531", "url": "https://www.kaigokensaku.mhlw.go.jp/11/index.php?action_kouhyou_detail_004_kani=true&JigyosyoCd=1153780020-00&ServiceCd=220&Type=search", "url2": null }, "geometry": { "type": "Point", "coordinates": [ 139.489039700000035, 36.1842617 ] } },
{ "type": "Feature", "properties": { "内容": "社会医療法人　壮幸会　老人保健施設ハートフル行田【短期入所療養介護（介護老人保健施設）】埼玉県行田市下忍1157-1", "url": "https://www.kaigokensaku.mhlw.go.jp/11/index.php?action_kouhyou_detail_004_kani=true&JigyosyoCd=1153780012-00&ServiceCd=220&Type=search", "url2": null }, "geometry": { "type": "Point", "coordinates": [ 139.461787800000025, 36.1185018 ] } },
{ "type": "Feature", "properties": { "内容": "介護老人保健施設うらら【短期入所療養介護（介護老人保健施設）】秩父市中村町3-6-24", "url": "https://www.kaigokensaku.mhlw.go.jp/11/index.php?action_kouhyou_detail_004_kani=true&JigyosyoCd=1154980025-00&ServiceCd=220&Type=search", "url2": "http://www.shunjinkai.or.jp" }, "geometry": { "type": "Point", "coordinates": [ 139.073867599999971, 36.0002957 ] } },
{ "type": "Feature", "properties": { "内容": "介護老人保健施設エスポワール秩父【短期入所療養介護（介護老人保健施設）】埼玉県秩父市寺尾2744", "url": "https://www.kaigokensaku.mhlw.go.jp/11/index.php?action_kouhyou_detail_004_kani=true&JigyosyoCd=1154980039-00&ServiceCd=220&Type=search", "url2": "http://www.esup-chichibu.com" }, "geometry": { "type": "Point", "coordinates": [ 139.078965399999987, 36.0256705 ] } },
{ "type": "Feature", "properties": { "内容": "介護老人保健施設　遊【短期入所療養介護（介護老人保健施設）】埼玉県所沢市東狭山ヶ丘4-2666-1", "url": "https://www.kaigokensaku.mhlw.go.jp/11/index.php?action_kouhyou_detail_004_kani=true&JigyosyoCd=1152580088-00&ServiceCd=220&Type=search", "url2": "http：//www.rouken-yuu.com" }, "geometry": { "type": "Point", "coordinates": [ 139.428641, 35.8098225 ] } },
{ "type": "Feature", "properties": { "内容": "介護老人保健施設みかじま【短期入所療養介護（介護老人保健施設）】埼玉県所沢市三ケ島5丁目1636番地", "url": "https://www.kaigokensaku.mhlw.go.jp/11/index.php?action_kouhyou_detail_004_kani=true&JigyosyoCd=1152580070-00&ServiceCd=220&Type=search", "url2": "http://roukenmikajima.jp/" }, "geometry": { "type": "Point", "coordinates": [ 139.404227100000071, 35.7972041 ] } },
{ "type": "Feature", "properties": { "内容": "老人保健施設　ケアステーション所沢【短期入所療養介護（介護老人保健施設）】埼玉県所沢市東狭山ヶ丘6-2823-13", "url": "https://www.kaigokensaku.mhlw.go.jp/11/index.php?action_kouhyou_detail_004_kani=true&JigyosyoCd=1152580025-00&ServiceCd=220&Type=search", "url2": "https://kuwanomikai.jp/" }, "geometry": { "type": "Point", "coordinates": [ 139.424713200000042, 35.8157635 ] } },
{ "type": "Feature", "properties": { "内容": "介護老人保健施設　所沢ロイヤルの丘【短期入所療養介護（介護老人保健施設）】埼玉県所沢市北野三丁目１番地１６", "url": "https://www.kaigokensaku.mhlw.go.jp/11/index.php?action_kouhyou_detail_004_kani=true&JigyosyoCd=1152580059-00&ServiceCd=220&Type=search", "url2": "http://www.wam-town.jp/tokorozawa-oka/" }, "geometry": { "type": "Point", "coordinates": [ 139.42025620000004, 35.797024 ] } },
{ "type": "Feature", "properties": { "内容": "エスポワール所沢【短期入所療養介護（介護老人保健施設）】埼玉県所沢市下富1310-15", "url": "https://www.kaigokensaku.mhlw.go.jp/11/index.php?action_kouhyou_detail_004_kani=true&JigyosyoCd=1152580062-00&ServiceCd=220&Type=search", "url2": "http://care-net.biz/11/esp-tokorozawa/" }, "geometry": { "type": "Point", "coordinates": [ 139.456493799999947, 35.8240986 ] } },
{ "type": "Feature", "properties": { "内容": "介護老人保健施設さんとめ【短期入所療養介護（介護老人保健施設）】埼玉県所沢市中富1617", "url": "https://www.kaigokensaku.mhlw.go.jp/11/index.php?action_kouhyou_detail_004_kani=true&JigyosyoCd=1152580033-00&ServiceCd=220&Type=search", "url2": "https://santome.mcp-saitamawest.jp/" }, "geometry": { "type": "Point", "coordinates": [ 139.483444400000053, 35.8150616 ] } },
{ "type": "Feature", "properties": { "内容": "介護老人保健施設　飯能ケアセンター楠苑【短期入所療養介護（介護老人保健施設）】埼玉県飯能市大字落合４５８番地１", "url": "https://www.kaigokensaku.mhlw.go.jp/11/index.php?action_kouhyou_detail_004_kani=true&JigyosyoCd=1152680015-00&ServiceCd=220&Type=search", "url2": "https://kusunoki-en.jp/" }, "geometry": { "type": "Point", "coordinates": [ 139.313706, 35.8363778 ] } },
{ "type": "Feature", "properties": { "内容": "介護老人保健施設　飯能リハビリ館【短期入所療養介護（介護老人保健施設）】埼玉県飯能市下畑296", "url": "https://www.kaigokensaku.mhlw.go.jp/11/index.php?action_kouhyou_detail_004_kani=true&JigyosyoCd=1152680023-00&ServiceCd=220&Type=search", "url2": "http://www.rihabili-kan.com" }, "geometry": { "type": "Point", "coordinates": [ 139.293970899999977, 35.8362016 ] } },
{ "type": "Feature", "properties": { "内容": "介護老人保健施設　ケア・ビレッジ　シャローム【短期入所療養介護（介護老人保健施設）】埼玉県加須市大字岡古井７３番地", "url": "https://www.kaigokensaku.mhlw.go.jp/11/index.php?action_kouhyou_detail_004_kani=true&JigyosyoCd=1153880010-00&ServiceCd=220&Type=search", "url2": "https://shalomranseikai.jimdo.com/" }, "geometry": { "type": "Point", "coordinates": [ 139.575608099999954, 36.1378143 ] } },
{ "type": "Feature", "properties": { "内容": "介護老人保健施設　虹の園【短期入所療養介護（介護老人保健施設）】埼玉県加須市上崎２０４７番地１", "url": "https://www.kaigokensaku.mhlw.go.jp/11/index.php?action_kouhyou_detail_004_kani=true&JigyosyoCd=1153680022-00&ServiceCd=220&Type=search", "url2": "http://www.nijinosono.jp/index.html" }, "geometry": { "type": "Point", "coordinates": [ 139.547969200000011, 36.1113371 ] } },
{ "type": "Feature", "properties": { "内容": "老人保健施設　彩の苑【短期入所療養介護（介護老人保健施設）】埼玉県本庄市千代田1-1-21", "url": "https://www.kaigokensaku.mhlw.go.jp/11/index.php?action_kouhyou_detail_004_kani=true&JigyosyoCd=1154380028-00&ServiceCd=220&Type=search", "url2": "http://www.ayanosono.com/" }, "geometry": { "type": "Point", "coordinates": [ 139.1822367, 36.2396599 ] } },
{ "type": "Feature", "properties": { "内容": "介護老人保健施設　わかばの丘【短期入所療養介護（介護老人保健施設）】埼玉県東松山市毛塚773", "url": "https://www.kaigokensaku.mhlw.go.jp/11/index.php?action_kouhyou_detail_004_kani=true&JigyosyoCd=1153380033-00&ServiceCd=220&Type=search", "url2": "http://www.wakaba-group.or.jp" }, "geometry": { "type": "Point", "coordinates": [ 139.398327900000027, 35.9939315 ] } },
{ "type": "Feature", "properties": { "内容": "介護老人保健施設東松山市総合福祉エリア【短期入所療養介護（介護老人保健施設）】埼玉県東松山市大字松山２１８３", "url": "https://www.kaigokensaku.mhlw.go.jp/11/index.php?action_kouhyou_detail_004_kani=true&JigyosyoCd=1173300805-00&ServiceCd=220&Type=search", "url2": "http://www.smile-shakyo.jp/" }, "geometry": { "type": "Point", "coordinates": [ 139.40182470000002, 36.0528113 ] } },
{ "type": "Feature", "properties": { "内容": "介護老人保健施設　ちとせ【短期入所療養介護（介護老人保健施設）】埼玉県春日部市下大増新田81-1", "url": "https://www.kaigokensaku.mhlw.go.jp/11/index.php?action_kouhyou_detail_004_kani=true&JigyosyoCd=1150680017-00&ServiceCd=220&Type=search", "url2": "https://syunmeikai.com/chitose/#" }, "geometry": { "type": "Point", "coordinates": [ 139.741108, 35.955753 ] } },
{ "type": "Feature", "properties": { "内容": "介護老人保健施設　葵の園・春日部【短期入所療養介護（介護老人保健施設）】埼玉県春日部市金崎71-1", "url": "https://www.kaigokensaku.mhlw.go.jp/11/index.php?action_kouhyou_detail_004_kani=true&JigyosyoCd=1150680088-00&ServiceCd=220&Type=search", "url2": "https://www.aoikai.jp/" }, "geometry": { "type": "Point", "coordinates": [ 139.7985193, 35.9937177 ] } },
{ "type": "Feature", "properties": { "内容": "介護老人保健施設　春日部ロイヤルケアセンター【短期入所療養介護（介護老人保健施設）】埼玉県春日部市藤塚2622番2", "url": "https://www.kaigokensaku.mhlw.go.jp/11/index.php?action_kouhyou_detail_004_kani=true&JigyosyoCd=1150680025-00&ServiceCd=220&Type=search", "url2": "http://www.ims.gr.jp/kasukabe-royal/" }, "geometry": { "type": "Point", "coordinates": [ 139.783362799999963, 35.9637757 ] } },
{ "type": "Feature", "properties": { "内容": "介護老人保健施設　かがやき【短期入所療養介護（介護老人保健施設）】埼玉県狭山市大字下奥富６８８", "url": "https://www.kaigokensaku.mhlw.go.jp/11/index.php?action_kouhyou_detail_004_kani=true&JigyosyoCd=1152780013-00&ServiceCd=220&Type=search", "url2": "https://rouken-kagayaki.jp/" }, "geometry": { "type": "Point", "coordinates": [ 139.433587799999941, 35.8812943 ] } },
{ "type": "Feature", "properties": { "内容": "介護老人保健施設愛【短期入所療養介護（介護老人保健施設）】埼玉県狭山市大字水野５９６番地", "url": "https://www.kaigokensaku.mhlw.go.jp/11/index.php?action_kouhyou_detail_004_kani=true&JigyosyoCd=1152780035-00&ServiceCd=220&Type=search", "url2": "https://roken-ai.jp/" }, "geometry": { "type": "Point", "coordinates": [ 139.4457721, 35.8316366 ] } },
{ "type": "Feature", "properties": { "内容": "介護老人保健施設　狭山ケアセンター【短期入所療養介護（介護老人保健施設）】狭山市北入曽1443-7", "url": "https://www.kaigokensaku.mhlw.go.jp/11/index.php?action_kouhyou_detail_004_kani=true&JigyosyoCd=1152780021-00&ServiceCd=220&Type=search", "url2": "http//www.sayama-care.com" }, "geometry": { "type": "Point", "coordinates": [ 139.43704230000003, 35.8258873 ] } },
{ "type": "Feature", "properties": { "内容": "介護老人保健施設カノープス・羽生【短期入所療養介護（介護老人保健施設）】羽生市大字本川俣１３０５", "url": "https://www.kaigokensaku.mhlw.go.jp/11/index.php?action_kouhyou_detail_004_kani=true&JigyosyoCd=1153980018-00&ServiceCd=220&Type=search", "url2": "http://www.hanyushi-ishikai.jp" }, "geometry": { "type": "Point", "coordinates": [ 139.534198300000071, 36.1887992 ] } },
{ "type": "Feature", "properties": { "内容": "介護老人保健施設あいの郷【短期入所療養介護（介護老人保健施設）】埼玉県羽生市桑崎196-1", "url": "https://www.kaigokensaku.mhlw.go.jp/11/index.php?action_kouhyou_detail_004_kani=true&JigyosyoCd=1153980030-00&ServiceCd=220&Type=search", "url2": "http://aino-sato.com/" }, "geometry": { "type": "Point", "coordinates": [ 139.5183752, 36.1776303 ] } },
{ "type": "Feature", "properties": { "内容": "鴻巣介護老人保健施設こうのとり【短期入所療養介護（介護老人保健施設）】埼玉県鴻巣市八幡田８６８－１", "url": "https://www.kaigokensaku.mhlw.go.jp/11/index.php?action_kouhyou_detail_004_kani=true&JigyosyoCd=1151780022-00&ServiceCd=220&Type=search", "url2": "http://www.kounosu-hp.jp/" }, "geometry": { "type": "Point", "coordinates": [ 139.502768800000013, 36.0732653 ] } },
{ "type": "Feature", "properties": { "内容": "こうのすナーシングホーム共生園【短期入所療養介護（介護老人保健施設）】鴻巣市下谷409-1", "url": "https://www.kaigokensaku.mhlw.go.jp/11/index.php?action_kouhyou_detail_004_kani=true&JigyosyoCd=1151780030-00&ServiceCd=220&Type=search", "url2": "http://www.kouaikai.net" }, "geometry": { "type": "Point", "coordinates": [ 139.546682139147919, 36.051722239221455 ] } },
{ "type": "Feature", "properties": { "内容": "介護老人保健施設　鴻巣フラワーパレス【短期入所療養介護（介護老人保健施設）】埼玉県鴻巣市市ノ縄250番地1", "url": "https://www.kaigokensaku.mhlw.go.jp/11/index.php?action_kouhyou_detail_004_kani=true&JigyosyoCd=1151780014-00&ServiceCd=220&Type=search", "url2": "http://www.flowerpalace.jp/" }, "geometry": { "type": "Point", "coordinates": [ 139.508712699999933, 36.0771201 ] } },
{ "type": "Feature", "properties": { "内容": "介護老人保健施設　秋桜【短期入所療養介護（介護老人保健施設）】埼玉県鴻巣市前砂９８０－１", "url": "https://www.kaigokensaku.mhlw.go.jp/11/index.php?action_kouhyou_detail_004_kani=true&JigyosyoCd=1151380013-00&ServiceCd=220&Type=search", "url2": "http://nishina-t.or.jp/" }, "geometry": { "type": "Point", "coordinates": [ 139.468072099999972, 36.0894365 ] } },
{ "type": "Feature", "properties": { "内容": "介護老人保健施設FOMA・なごみ【短期入所療養介護（介護老人保健施設）】埼玉県深谷市新戒413-1", "url": "https://www.kaigokensaku.mhlw.go.jp/11/index.php?action_kouhyou_detail_004_kani=true&JigyosyoCd=1154680021-00&ServiceCd=220&Type=search", "url2": "http://www.fukaya-osato.saitama.med.or.jp" }, "geometry": { "type": "Point", "coordinates": [ 139.292723099999989, 36.2287911 ] } },
{ "type": "Feature", "properties": { "内容": "老人保健施設　はなみずき【短期入所療養介護（介護老人保健施設）】埼玉県深谷市柏合1041-1", "url": "https://www.kaigokensaku.mhlw.go.jp/11/index.php?action_kouhyou_detail_004_kani=true&JigyosyoCd=1154680013-00&ServiceCd=220&Type=search", "url2": "http://yuujikai.jp" }, "geometry": { "type": "Point", "coordinates": [ 139.261034800000061, 36.1850807 ] } },
{ "type": "Feature", "properties": { "内容": "介護老人保健施設あねとす【短期入所療養介護（介護老人保健施設）】埼玉県深谷市人見1975番地", "url": "https://www.kaigokensaku.mhlw.go.jp/11/index.php?action_kouhyou_detail_004_kani=true&JigyosyoCd=1154680043-00&ServiceCd=220&Type=search", "url2": "https://www.koubunkai.jp/" }, "geometry": { "type": "Point", "coordinates": [ 139.264158604229777, 36.162023804058521 ] } },
{ "type": "Feature", "properties": { "内容": "医療法人　藤仁会　介護老人保健施設　ふれあいの郷あげお【短期入所療養介護（介護老人保健施設）】埼玉県上尾市平方1915", "url": "https://www.kaigokensaku.mhlw.go.jp/11/index.php?action_kouhyou_detail_004_kani=true&JigyosyoCd=1151680040-00&ServiceCd=220&Type=search", "url2": "http://roken.to-jinkai.or.jp/" }, "geometry": { "type": "Point", "coordinates": [ 139.550073600000019, 35.9484793 ] } },
{ "type": "Feature", "properties": { "内容": "介護老人保健施設　エルサ上尾【短期入所療養介護（介護老人保健施設）】埼玉県上尾市藤波３－２６５－１", "url": "https://www.kaigokensaku.mhlw.go.jp/11/index.php?action_kouhyou_detail_004_kani=true&JigyosyoCd=1151680032-00&ServiceCd=220&Type=search", "url2": "http://www.elusa-ageo.jp" }, "geometry": { "type": "Point", "coordinates": [ 139.549203499999976, 35.9907339 ] } },
{ "type": "Feature", "properties": { "内容": "介護老人保健施設ハーティハイム【短期入所療養介護（介護老人保健施設）】埼玉県上尾市大字平方３１４７番地３", "url": "https://www.kaigokensaku.mhlw.go.jp/11/index.php?action_kouhyou_detail_004_kani=true&JigyosyoCd=1151680024-00&ServiceCd=220&Type=search", "url2": "https//www.anseifukushikai.or.jp/" }, "geometry": { "type": "Point", "coordinates": [ 139.552429, 35.9512566 ] } },
{ "type": "Feature", "properties": { "内容": "介護老人保健施設　あげお愛友の里【短期入所療養介護（介護老人保健施設）】上尾市西門前字南前６３６", "url": "https://www.kaigokensaku.mhlw.go.jp/11/index.php?action_kouhyou_detail_004_kani=true&JigyosyoCd=1151680016-00&ServiceCd=220&Type=search", "url2": "http://www.aiyu.jp" }, "geometry": { "type": "Point", "coordinates": [ 139.588194, 35.9910014 ] } },
{ "type": "Feature", "properties": { "内容": "医療法人財団明理会　介護老人保健施設　草加ロイヤルケアセンター【短期入所療養介護（介護老人保健施設）】埼玉県草加市柿木町123-2", "url": "https://www.kaigokensaku.mhlw.go.jp/11/index.php?action_kouhyou_detail_004_kani=true&JigyosyoCd=1151880038-00&ServiceCd=220&Type=search", "url2": "http://www.ims.gr.jp/souka-royal" }, "geometry": { "type": "Point", "coordinates": [ 139.834546199999977, 35.8581031 ] } },
{ "type": "Feature", "properties": { "内容": "介護老人保健施設　翔寿苑【短期入所療養介護（介護老人保健施設）】埼玉県草加市青柳8-51-13", "url": "https://www.kaigokensaku.mhlw.go.jp/11/index.php?action_kouhyou_detail_004_kani=true&JigyosyoCd=1151880012-00&ServiceCd=220&Type=search", "url2": "http://www.shinko-kai.or.jp" }, "geometry": { "type": "Point", "coordinates": [ 139.819213799999943, 35.8606219 ] } },
{ "type": "Feature", "properties": { "内容": "医療法人社団友勝会　介護老人保健施設みどりの館【短期入所療養介護（介護老人保健施設）】草加市谷塚町2000番地", "url": "https://www.kaigokensaku.mhlw.go.jp/11/index.php?action_kouhyou_detail_004_kani=true&JigyosyoCd=1151880020-00&ServiceCd=220&Type=search", "url2": "http://www.midorino-yakata.or.jp" }, "geometry": { "type": "Point", "coordinates": [ 139.7916702, 35.8219689 ] } },
{ "type": "Feature", "properties": { "内容": "医療法人社団　葵会　介護老人保健施設　葵の園・越谷レイクタウン【短期入所療養介護（介護老人保健施設）】東町5-155-1", "url": "https://www.kaigokensaku.mhlw.go.jp/11/index.php?action_kouhyou_detail_004_kani=true&JigyosyoCd=1150880068-00&ServiceCd=220&Type=search", "url2": "https://www.aoikai.jp" }, "geometry": { "type": "Point", "coordinates": [ 139.8314385, 35.872062679954496 ] } },
{ "type": "Feature", "properties": { "内容": "エスポワール越谷【短期入所療養介護（介護老人保健施設）】埼玉県越谷市大竹712エスポワール越谷", "url": "https://www.kaigokensaku.mhlw.go.jp/11/index.php?action_kouhyou_detail_004_kani=true&JigyosyoCd=1150880084-00&ServiceCd=220&Type=search", "url2": "http://esp-koshigaya.com/" }, "geometry": { "type": "Point", "coordinates": [ 139.76647220000001, 35.9233443 ] } },
{ "type": "Feature", "properties": { "内容": "医療法人社団　葵会　介護老人保健施設　葵の園・越谷【短期入所療養介護（介護老人保健施設）】越谷市七左町六丁目100番地1", "url": "https://www.kaigokensaku.mhlw.go.jp/11/index.php?action_kouhyou_detail_004_kani=true&JigyosyoCd=1150880050-00&ServiceCd=220&Type=search", "url2": "https://www.aoikai.jp/" }, "geometry": { "type": "Point", "coordinates": [ 139.773886800000014, 35.8772159 ] } },
{ "type": "Feature", "properties": { "内容": "介護老人保健施設シルバーケア敬愛【短期入所療養介護（介護老人保健施設）】越谷市平方２７２番地１", "url": "https://www.kaigokensaku.mhlw.go.jp/11/index.php?action_kouhyou_detail_004_kani=true&JigyosyoCd=1150880013-00&ServiceCd=220&Type=search", "url2": "https://scc-keiai.ne.jp/" }, "geometry": { "type": "Point", "coordinates": [ 139.778868800000026, 35.9569821 ] } },
{ "type": "Feature", "properties": { "内容": "介護老人保健施設　憩いの里【短期入所療養介護（介護老人保健施設）】埼玉県越谷市増森1-85", "url": "https://www.kaigokensaku.mhlw.go.jp/11/index.php?action_kouhyou_detail_004_kani=true&JigyosyoCd=1150880039-00&ServiceCd=220&Type=search", "url2": "https://www.kishinkai.or.jp/" }, "geometry": { "type": "Point", "coordinates": [ 139.8207903, 35.9003807 ] } },
{ "type": "Feature", "properties": { "内容": "介護老人保健施設　とまりや【短期入所療養介護（介護老人保健施設）】埼玉県越谷市谷中町4-293-1", "url": "https://www.kaigokensaku.mhlw.go.jp/11/index.php?action_kouhyou_detail_004_kani=true&JigyosyoCd=1150880043-00&ServiceCd=220&Type=search", "url2": "http://goseikai.jp/tomariya.html" }, "geometry": { "type": "Point", "coordinates": [ 139.76448929999998, 35.8830375 ] } },
{ "type": "Feature", "properties": { "内容": "介護老人保健施設　南面【短期入所療養介護（介護老人保健施設）】埼玉県越谷市七左町４丁目１６１番地", "url": "https://www.kaigokensaku.mhlw.go.jp/11/index.php?action_kouhyou_detail_004_kani=true&JigyosyoCd=1150880021-00&ServiceCd=220&Type=search", "url2": "https://shuhokai.jp/nanmen/" }, "geometry": { "type": "Point", "coordinates": [ 139.769983200000013, 35.8715289 ] } },
{ "type": "Feature", "properties": { "内容": "介護老人保健施設　グリーンビレッジ蕨【短期入所療養介護（介護老人保健施設）】埼玉県蕨市北町五丁目13番6号", "url": "https://www.kaigokensaku.mhlw.go.jp/11/index.php?action_kouhyou_detail_004_kani=true&JigyosyoCd=1151480017-00&ServiceCd=220&Type=search", "url2": "http://gv_warabi.tmg.gr.jp" }, "geometry": { "type": "Point", "coordinates": [ 139.668686500000035, 35.8344074 ] } },
{ "type": "Feature", "properties": { "内容": "戸田市立介護老人保健施設【短期入所療養介護（介護老人保健施設）】戸田市美女木4-20-6", "url": "https://www.kaigokensaku.mhlw.go.jp/11/index.php?action_kouhyou_detail_004_kani=true&JigyosyoCd=1171901745-00&ServiceCd=220&Type=search", "url2": "http://www.mckenshukai.jp/toda/" }, "geometry": { "type": "Point", "coordinates": [ 139.645392, 35.8211906 ] } },
{ "type": "Feature", "properties": { "内容": "介護老人保健施設ゆりの木【短期入所療養介護（介護老人保健施設）】埼玉県入間市宮寺3187番地31", "url": "https://www.kaigokensaku.mhlw.go.jp/11/index.php?action_kouhyou_detail_004_kani=true&JigyosyoCd=1152880037-00&ServiceCd=220&Type=search", "url2": "https://www.eijinkjai.jp/care/yurinoki.html" }, "geometry": { "type": "Point", "coordinates": [ 139.3756677, 35.8105899 ] } },
{ "type": "Feature", "properties": { "内容": "介護老人保健施設　ケアセンターなごみ【短期入所療養介護（介護老人保健施設）】埼玉県入間市大字小谷田１２５８番地１", "url": "https://www.kaigokensaku.mhlw.go.jp/11/index.php?action_kouhyou_detail_004_kani=true&JigyosyoCd=1152880011-00&ServiceCd=220&Type=search", "url2": "https://www.eijinkai.jp/care/nagomicenter.html" }, "geometry": { "type": "Point", "coordinates": [ 139.375015, 35.8110654 ] } },
{ "type": "Feature", "properties": { "内容": "介護老人保健施設　アヴニール【短期入所療養介護（介護老人保健施設）】埼玉県入間市二本木1082-1", "url": "https://www.kaigokensaku.mhlw.go.jp/11/index.php?action_kouhyou_detail_004_kani=true&JigyosyoCd=1152880029-00&ServiceCd=220&Type=search", "url2": "http://saiyukai.jp/avenir" }, "geometry": { "type": "Point", "coordinates": [ 139.358266599999979, 35.7960723 ] } },
{ "type": "Feature", "properties": { "内容": "医療法人　泰一会　介護老人保健施設　いるまの里【短期入所療養介護（介護老人保健施設）】埼玉県入間市野田1630", "url": "https://www.kaigokensaku.mhlw.go.jp/11/index.php?action_kouhyou_detail_004_kani=true&JigyosyoCd=1152880058-00&ServiceCd=220&Type=search", "url2": "http://irumanosato.jp" }, "geometry": { "type": "Point", "coordinates": [ 139.34677970000007, 35.847538 ] } },
{ "type": "Feature", "properties": { "内容": "介護老人保健施設　ケアライフ朝霞【短期入所療養介護（介護老人保健施設）】埼玉県朝霞市溝沼２－４－１０", "url": "https://www.kaigokensaku.mhlw.go.jp/11/index.php?action_kouhyou_detail_004_kani=true&JigyosyoCd=1152180016-00&ServiceCd=220&Type=search", "url2": "https://yamayanagi.or.jp/carelife_asaka/" }, "geometry": { "type": "Point", "coordinates": [ 139.589669599999979, 35.8009406 ] } },
{ "type": "Feature", "properties": { "内容": "介護老人保健施設　つつじの郷【短期入所療養介護（介護老人保健施設）】埼玉県朝霞市下内間木１３６３－１", "url": "https://www.kaigokensaku.mhlw.go.jp/11/index.php?action_kouhyou_detail_004_kani=true&JigyosyoCd=1152180024-00&ServiceCd=220&Type=search", "url2": "http://wakabakai-medical.com/" }, "geometry": { "type": "Point", "coordinates": [ 139.6176527, 35.817756 ] } },
{ "type": "Feature", "properties": { "内容": "介護老人保健施設　グリーンビレッジ朝霞台【短期入所療養介護（介護老人保健施設）】埼玉県朝霞市大字宮戸3番地", "url": "https://www.kaigokensaku.mhlw.go.jp/11/index.php?action_kouhyou_detail_004_kani=true&JigyosyoCd=1152180004-00&ServiceCd=220&Type=search", "url2": "http://gv-asakadai.jp" }, "geometry": { "type": "Point", "coordinates": [ 139.602159384114088, 35.820774680907768 ] } },
{ "type": "Feature", "properties": { "内容": "介護老人保健施設　志木瑞穂の里【短期入所療養介護（介護老人保健施設）】埼玉県志木市上宗岡2-20-17", "url": "https://www.kaigokensaku.mhlw.go.jp/11/index.php?action_kouhyou_detail_004_kani=true&JigyosyoCd=1152280010-00&ServiceCd=220&Type=search", "url2": "http://www.mizuhokai.or.jp/index.html" }, "geometry": { "type": "Point", "coordinates": [ 139.58139970000002, 35.8498707 ] } },
{ "type": "Feature", "properties": { "内容": "老人保健施設ナーシングホーム和光【短期入所療養介護（介護老人保健施設）】和光市新倉８－２３－１", "url": "https://www.kaigokensaku.mhlw.go.jp/11/index.php?action_kouhyou_detail_004_kani=true&JigyosyoCd=1172300517-00&ServiceCd=220&Type=search", "url2": "http://www.fukusi.or.jp/" }, "geometry": { "type": "Point", "coordinates": [ 139.632010199999968, 35.8017751 ] } },
{ "type": "Feature", "properties": { "内容": "老人保健施設　新座園【短期入所療養介護（介護老人保健施設）】新座市野火止４－１４－２０", "url": "https://www.kaigokensaku.mhlw.go.jp/11/index.php?action_kouhyou_detail_004_kani=true&JigyosyoCd=1155180013-00&ServiceCd=220&Type=search", "url2": "https://jiseikai-niizaen.site" }, "geometry": { "type": "Point", "coordinates": [ 139.552989499999967, 35.7994962 ] } },
{ "type": "Feature", "properties": { "内容": "介護老人保健施設　四季の里【短期入所療養介護（介護老人保健施設）】埼玉県新座市北野2-14-8", "url": "https://www.kaigokensaku.mhlw.go.jp/11/index.php?action_kouhyou_detail_004_kani=true&JigyosyoCd=1155180021-00&ServiceCd=220&Type=search", "url2": "https://www.shikinosato.jp/" }, "geometry": { "type": "Point", "coordinates": [ 139.5623924, 35.8172695 ] } },
{ "type": "Feature", "properties": { "内容": "介護老人保健施設　ルーエハイム【短期入所療養介護（介護老人保健施設）】埼玉県桶川市川田谷４９４８－１", "url": "https://www.kaigokensaku.mhlw.go.jp/11/index.php?action_kouhyou_detail_004_kani=true&JigyosyoCd=1155280011-00&ServiceCd=220&Type=search", "url2": "http://www.anseifukushikai.or.jp" }, "geometry": { "type": "Point", "coordinates": [ 139.518902600000047, 35.9943739 ] } },
{ "type": "Feature", "properties": { "内容": "介護老人保健施設　葵の園・桶川【従来型】【短期入所療養介護（介護老人保健施設）】倉田2208-1", "url": "https://www.kaigokensaku.mhlw.go.jp/11/index.php?action_kouhyou_detail_004_kani=true&JigyosyoCd=1155280041-00&ServiceCd=220&Type=search", "url2": "https://www.aoikai.jp" }, "geometry": { "type": "Point", "coordinates": [ 139.589781, 36.007936 ] } },
{ "type": "Feature", "properties": { "内容": "介護老人保健施設　葵の園・桶川（ユニット型）【短期入所療養介護（介護老人保健施設）】倉田2208-1", "url": "https://www.kaigokensaku.mhlw.go.jp/11/index.php?action_kouhyou_detail_004_kani=true&JigyosyoCd=1155280033-00&ServiceCd=220&Type=search", "url2": "http://www.aoikai.jp/" }, "geometry": { "type": "Point", "coordinates": [ 139.5897817, 36.007936 ] } },
{ "type": "Feature", "properties": { "内容": "介護老人保健施設ハートランド桶川【短期入所療養介護（介護老人保健施設）】埼玉県桶川市坂田1725", "url": "https://www.kaigokensaku.mhlw.go.jp/11/index.php?action_kouhyou_detail_004_kani=true&JigyosyoCd=1155280029-00&ServiceCd=220&Type=search", "url2": "https://www.seisekikai.com/heartland/" }, "geometry": { "type": "Point", "coordinates": [ 139.561538399999989, 36.0112418 ] } },
{ "type": "Feature", "properties": { "内容": "介護老人保健施設　みやじま【短期入所療養介護（介護老人保健施設）】埼玉県久喜市菖蒲町菖蒲４０２８", "url": "https://www.kaigokensaku.mhlw.go.jp/11/index.php?action_kouhyou_detail_004_kani=true&JigyosyoCd=1150580019-00&ServiceCd=220&Type=search", "url2": "http://www.roken-miyajima.com/" }, "geometry": { "type": "Point", "coordinates": [ 139.612151100000034, 36.0717493 ] } },
{ "type": "Feature", "properties": { "内容": "介護老人保健施設　桜田【短期入所療養介護（介護老人保健施設）】埼玉県久喜市東大輪2039-4", "url": "https://www.kaigokensaku.mhlw.go.jp/11/index.php?action_kouhyou_detail_004_kani=true&JigyosyoCd=1151100011-00&ServiceCd=220&Type=search", "url2": "https:/saijukai.com/" }, "geometry": { "type": "Point", "coordinates": [ 139.67544410000005, 36.0969102 ] } },
{ "type": "Feature", "properties": { "内容": "介護老人保健施設　鶴寿の里ナーシングホーム【短期入所療養介護（介護老人保健施設）】埼玉県久喜市北青柳１３８５－２", "url": "https://www.kaigokensaku.mhlw.go.jp/11/index.php?action_kouhyou_detail_004_kani=true&JigyosyoCd=1150980011-00&ServiceCd=220&Type=search", "url2": "http://wwww.kakuju.saitama.jp" }, "geometry": { "type": "Point", "coordinates": [ 139.660788899999943, 36.0521385 ] } },
{ "type": "Feature", "properties": { "内容": "介護老人保健施設　栗橋ナーシングホーム翔裕園【短期入所療養介護（介護老人保健施設）】埼玉県久喜市小右衛門951-1", "url": "https://www.kaigokensaku.mhlw.go.jp/11/index.php?action_kouhyou_detail_004_kani=true&JigyosyoCd=1151180041-00&ServiceCd=220&Type=search", "url2": "http://www.kurihashi-roken-nhs.com" }, "geometry": { "type": "Point", "coordinates": [ 139.716093, 36.1170784 ] } },
{ "type": "Feature", "properties": { "内容": "カントリーハーベスト北本【短期入所療養介護（介護老人保健施設）】埼玉県北本市石戸宿5-236", "url": "https://www.kaigokensaku.mhlw.go.jp/11/index.php?action_kouhyou_detail_004_kani=true&JigyosyoCd=1155380027-00&ServiceCd=220&Type=search", "url2": "http://www.countryharvest.jp/" }, "geometry": { "type": "Point", "coordinates": [ 139.509091399999988, 36.0019931 ] } },
{ "type": "Feature", "properties": { "内容": "介護老人保健施設　いこいの家【短期入所療養介護（介護老人保健施設）】北本市本町６－２３２", "url": "https://www.kaigokensaku.mhlw.go.jp/11/index.php?action_kouhyou_detail_004_kani=true&JigyosyoCd=1155380019-00&ServiceCd=220&Type=search", "url2": "http://www.hokujukai.or.jp" }, "geometry": { "type": "Point", "coordinates": [ 139.528139, 36.0272872 ] } },
{ "type": "Feature", "properties": { "内容": "介護老人保健施設　ケアセンター八潮【短期入所療養介護（介護老人保健施設）】埼玉県八潮市鶴ヶ曽根１１８４－４", "url": "https://www.kaigokensaku.mhlw.go.jp/11/index.php?action_kouhyou_detail_004_kani=true&JigyosyoCd=1151080019-00&ServiceCd=220&Type=search", "url2": "http://www.cc-yashio.jp" }, "geometry": { "type": "Point", "coordinates": [ 139.8365387, 35.8266742 ] } },
{ "type": "Feature", "properties": { "内容": "介護老人保健施設　葵の園・富士見【短期入所療養介護（介護老人保健施設）】埼玉県富士見市勝瀬937番地3", "url": "https://www.kaigokensaku.mhlw.go.jp/11/index.php?action_kouhyou_detail_004_kani=true&JigyosyoCd=1152980031-00&ServiceCd=220&Type=search", "url2": "http://www.aoikai.jp" }, "geometry": { "type": "Point", "coordinates": [ 139.534607700000038, 35.8671125 ] } },
{ "type": "Feature", "properties": { "内容": "介護老人保健施設　富士見の里【短期入所療養介護（介護老人保健施設）】埼玉県富士見市みどり野南3-1", "url": "https://www.kaigokensaku.mhlw.go.jp/11/index.php?action_kouhyou_detail_004_kani=true&JigyosyoCd=1152980019-00&ServiceCd=220&Type=search", "url2": "http://www.kawatsuru-g.jp" }, "geometry": { "type": "Point", "coordinates": [ 139.5631, 35.8662024 ] } },
{ "type": "Feature", "properties": { "内容": "医療法人恵雄会　介護老人保健施設　鶴瀬台の里【短期入所療養介護（介護老人保健施設）】埼玉県富士見市鶴瀬西2-8-32", "url": "https://www.kaigokensaku.mhlw.go.jp/11/index.php?action_kouhyou_detail_004_kani=true&JigyosyoCd=1152980049-00&ServiceCd=220&Type=search", "url2": "http://www.kawatsuru-g.jp" }, "geometry": { "type": "Point", "coordinates": [ 139.533658699999933, 35.846115 ] } },
{ "type": "Feature", "properties": { "内容": "介護老人保健施設三郷ケアセンター【短期入所療養介護（介護老人保健施設）】埼玉県三郷市南蓮沼２６０－２", "url": "https://www.kaigokensaku.mhlw.go.jp/11/index.php?action_kouhyou_detail_004_kani=true&JigyosyoCd=1151280015-00&ServiceCd=220&Type=search", "url2": "http://www.misato-carecenter.jp/" }, "geometry": { "type": "Point", "coordinates": [ 139.87126330000001, 35.8469496 ] } },
{ "type": "Feature", "properties": { "内容": "蓮田ナーシングホーム翔裕園【短期入所療養介護（介護老人保健施設）】埼玉県蓮田市大字閏戸字吹上１８２６－１", "url": "https://www.kaigokensaku.mhlw.go.jp/11/index.php?action_kouhyou_detail_004_kani=true&JigyosyoCd=1155780010-00&ServiceCd=220&Type=search", "url2": "http://www.genkimuragroup.jp/genkimura/hasuda-nh/" }, "geometry": { "type": "Point", "coordinates": [ 139.64298910712111, 36.002327415562355 ] } },
{ "type": "Feature", "properties": { "内容": "介護老人保健施設ケアタウンゆうゆう【短期入所療養介護（介護老人保健施設）】埼玉県蓮田市南新宿９９４－１", "url": "https://www.kaigokensaku.mhlw.go.jp/11/index.php?action_kouhyou_detail_004_kani=true&JigyosyoCd=1155780024-00&ServiceCd=220&Type=search", "url2": "https://meikeikai.or.jp/" }, "geometry": { "type": "Point", "coordinates": [ 139.664365800000041, 36.0061388 ] } },
{ "type": "Feature", "properties": { "内容": "介護老人保健施設　すみよし【短期入所療養介護（介護老人保健施設）】埼玉県坂戸市塚越769番地", "url": "https://www.kaigokensaku.mhlw.go.jp/11/index.php?action_kouhyou_detail_004_kani=true&JigyosyoCd=1156080030-00&ServiceCd=220&Type=search", "url2": "http://www.kan-etsu-hp.ne.jp" }, "geometry": { "type": "Point", "coordinates": [ 139.679652, 35.542227 ] } },
{ "type": "Feature", "properties": { "内容": "介護老人保健施設　はつらつ【短期入所療養介護（介護老人保健施設）】埼玉県坂戸市本町2-13", "url": "https://www.kaigokensaku.mhlw.go.jp/11/index.php?action_kouhyou_detail_004_kani=true&JigyosyoCd=1156080014-00&ServiceCd=220&Type=search", "url2": "http://www.toujinkai.com" }, "geometry": { "type": "Point", "coordinates": [ 139.393724579762306, 35.961498843492819 ] } },
{ "type": "Feature", "properties": { "内容": "介護老人保健施設やまぶきの郷【短期入所療養介護（介護老人保健施設）】埼玉県坂戸市多和目３３０番地", "url": "https://www.kaigokensaku.mhlw.go.jp/11/index.php?action_kouhyou_detail_004_kani=true&JigyosyoCd=1156080022-00&ServiceCd=220&Type=search", "url2": "https://www.yamabukinosato.jp" }, "geometry": { "type": "Point", "coordinates": [ 139.344271700000036, 35.9223157 ] } },
{ "type": "Feature", "properties": { "内容": "老人保健施設　鶴ヶ島ケアホーム【短期入所療養介護（介護老人保健施設）】埼玉県鶴ヶ島市脚折１８７７介護老人保健施設　鶴ヶ島ケアホーム", "url": "https://www.kaigokensaku.mhlw.go.jp/11/index.php?action_kouhyou_detail_004_kani=true&JigyosyoCd=1156280010-00&ServiceCd=220&Type=search", "url2": "https://www.manjyukai.or.jp/pages/55/" }, "geometry": { "type": "Point", "coordinates": [ 139.385587699999974, 35.9349952 ] } },
{ "type": "Feature", "properties": { "内容": "介護老人保健施設　日高の里【短期入所療養介護（介護老人保健施設）】埼玉県日高市大字久保９６－１", "url": "https://www.kaigokensaku.mhlw.go.jp/11/index.php?action_kouhyou_detail_004_kani=true&JigyosyoCd=1156380018-00&ServiceCd=220&Type=search", "url2": "http://www.hidakanosato.com/" }, "geometry": { "type": "Point", "coordinates": [ 139.3005948, 35.8830514 ] } },
{ "type": "Feature", "properties": { "内容": "介護老人保健施設　ケアリングよしかわ【短期入所療養介護（介護老人保健施設）】埼玉県吉川市八子新田５２９", "url": "https://www.kaigokensaku.mhlw.go.jp/11/index.php?action_kouhyou_detail_004_kani=true&JigyosyoCd=1156480016-00&ServiceCd=220&Type=search", "url2": "http://www.caring-yoshikawa.or.jp/" }, "geometry": { "type": "Point", "coordinates": [ 139.866046800000049, 35.9153009 ] } },
{ "type": "Feature", "properties": { "内容": "社会福祉法人秋桜園　介護老人保健施設　秋桜の里【短期入所療養介護（介護老人保健施設）】埼玉県ふじみ野市福岡142-1", "url": "https://www.kaigokensaku.mhlw.go.jp/11/index.php?action_kouhyou_detail_004_kani=true&JigyosyoCd=1153080047-00&ServiceCd=220&Type=search", "url2": "http://www.kosumosuen.or.jp" }, "geometry": { "type": "Point", "coordinates": [ 139.5463962, 35.8740026 ] } },
{ "type": "Feature", "properties": { "内容": "介護老人保健施設上福岡リハケアセンター【短期入所療養介護（介護老人保健施設）】埼玉県ふじみ野市福岡新田１０８－１", "url": "https://www.kaigokensaku.mhlw.go.jp/11/index.php?action_kouhyou_detail_004_kani=true&JigyosyoCd=1153080025-00&ServiceCd=220&Type=search", "url2": "http://kamifukuoka-rihakea.net/" }, "geometry": { "type": "Point", "coordinates": [ 139.541134948137397, 35.876788862729278 ] } },
{ "type": "Feature", "properties": { "内容": "ふじみ野介護老人保健施設　ベテラン館【短期入所療養介護（介護老人保健施設）】埼玉県ふじみ野市亀久保1833番地5", "url": "https://www.kaigokensaku.mhlw.go.jp/11/index.php?action_kouhyou_detail_004_kani=true&JigyosyoCd=1153080054-00&ServiceCd=220&Type=search", "url2": "http://mashibamed.com/fujiminoveterankan/" }, "geometry": { "type": "Point", "coordinates": [ 139.49456710000004, 35.8595066 ] } },
{ "type": "Feature", "properties": { "内容": "介護老人保健施設　イムスケアふじみの【短期入所療養介護（介護老人保健施設）】埼玉県ふじみ野市鶴ケ岡5-6-58", "url": "https://www.kaigokensaku.mhlw.go.jp/11/index.php?action_kouhyou_detail_004_kani=true&JigyosyoCd=1153080039-00&ServiceCd=220&Type=search", "url2": "https://ims.gr.jp/fujimino/about/" }, "geometry": { "type": "Point", "coordinates": [ 139.495391399999988, 35.8658541 ] } },
{ "type": "Feature", "properties": { "内容": "介護老人保健施設　ぽっかぽか【短期入所療養介護（介護老人保健施設）】白岡市上野田357-1", "url": "https://www.kaigokensaku.mhlw.go.jp/11/index.php?action_kouhyou_detail_004_kani=true&JigyosyoCd=1150580027-00&ServiceCd=220&Type=search", "url2": "http://www.taijukai.com" }, "geometry": { "type": "Point", "coordinates": [ 139.684097, 36.0172952 ] } },
{ "type": "Feature", "properties": { "内容": "医療法人社団　愛友会　介護老人保健施設　一心館【短期入所療養介護（介護老人保健施設）】埼玉県北足立郡伊奈町小室８１１３番地", "url": "https://www.kaigokensaku.mhlw.go.jp/11/index.php?action_kouhyou_detail_004_kani=true&JigyosyoCd=1153080017-00&ServiceCd=220&Type=search", "url2": "http://www.issinkan.jp" }, "geometry": { "type": "Point", "coordinates": [ 139.628215400000045, 35.9992819 ] } },
{ "type": "Feature", "properties": { "内容": "介護老人保健施設　埼玉ロイヤルケアセンター【短期入所療養介護（介護老人保健施設）】入間郡三芳町上富2181-5", "url": "https://www.kaigokensaku.mhlw.go.jp/11/index.php?action_kouhyou_detail_004_kani=true&JigyosyoCd=1152480010-00&ServiceCd=220&Type=search", "url2": "http://www.ims.gr.jp/saitama.royal" }, "geometry": { "type": "Point", "coordinates": [ 139.5045834, 35.8414897 ] } },
{ "type": "Feature", "properties": { "内容": "介護老人保健施設むさしの苑【短期入所療養介護（介護老人保健施設）】埼玉県入間郡三芳町上富１７８４－７", "url": "https://www.kaigokensaku.mhlw.go.jp/11/index.php?action_kouhyou_detail_004_kani=true&JigyosyoCd=1152480028-00&ServiceCd=220&Type=search", "url2": "http://mkf.jp" }, "geometry": { "type": "Point", "coordinates": [ 139.492817800000012, 35.8416698 ] } },
{ "type": "Feature", "properties": { "内容": "介護老人保健施設　薫風園【短期入所療養介護（介護老人保健施設）】埼玉県入間郡毛呂山町大字毛呂本郷字沢又６９１番地", "url": "https://www.kaigokensaku.mhlw.go.jp/11/index.php?action_kouhyou_detail_004_kani=true&JigyosyoCd=1152480036-00&ServiceCd=220&Type=search", "url2": "http://www.marukikinen-wmc.or.jp" }, "geometry": { "type": "Point", "coordinates": [ 139.306654, 35.9381802 ] } },
{ "type": "Feature", "properties": { "内容": "医療法人　昭友会　介護老人保健施設　いづみケアセンター【短期入所療養介護（介護老人保健施設）】埼玉県比企郡滑川町和泉８７３", "url": "https://www.kaigokensaku.mhlw.go.jp/11/index.php?action_kouhyou_detail_004_kani=true&JigyosyoCd=1153280013-00&ServiceCd=220&Type=search", "url2": "http://www.kokoro.or.jp/izumi-care/" }, "geometry": { "type": "Point", "coordinates": [ 139.33144249999998, 36.0841039 ] } },
{ "type": "Feature", "properties": { "内容": "医療法人　啓仁会　介護老人保健施設　平成の森【短期入所療養介護（介護老人保健施設）】埼玉県比企郡川島町大字畑中４７８番地１", "url": "https://www.kaigokensaku.mhlw.go.jp/11/index.php?action_kouhyou_detail_004_kani=true&JigyosyoCd=1153280021-00&ServiceCd=220&Type=search", "url2": "http://www.wam-town.jp/kawashima/hp/" }, "geometry": { "type": "Point", "coordinates": [ 139.490094699999986, 35.991899 ] } },
{ "type": "Feature", "properties": { "内容": "介護老人保健施設　なでしこ【短期入所療養介護（介護老人保健施設）】埼玉県秩父郡横瀬町大字横瀬5850", "url": "https://www.kaigokensaku.mhlw.go.jp/11/index.php?action_kouhyou_detail_004_kani=true&JigyosyoCd=1154880027-00&ServiceCd=220&Type=search", "url2": "http://kenshukai-nadeshiko.jp" }, "geometry": { "type": "Point", "coordinates": [ 139.109035899999981, 36.0047429 ] } },
{ "type": "Feature", "properties": { "内容": "介護老人保健施設　縄文の里長瀞倶楽部【短期入所療養介護（介護老人保健施設）】大字岩田５８７", "url": "https://www.kaigokensaku.mhlw.go.jp/11/index.php?action_kouhyou_detail_004_kani=true&JigyosyoCd=1154880007-00&ServiceCd=220&Type=search", "url2": "https://www.ishin-kai.or.jp/" }, "geometry": { "type": "Point", "coordinates": [ 139.124298650262432, 36.129506380206301 ] } },
{ "type": "Feature", "properties": { "内容": "介護老人保健施設　みどうの杜【短期入所療養介護（介護老人保健施設）】埼玉県秩父郡東秩父村大字御堂１４５６－４", "url": "https://www.kaigokensaku.mhlw.go.jp/11/index.php?action_kouhyou_detail_004_kani=true&JigyosyoCd=1154880019-00&ServiceCd=220&Type=search", "url2": "http://www.mhp.or.jp/midou/midoutop.html" }, "geometry": { "type": "Point", "coordinates": [ 139.201300599999968, 36.052732 ] } },
{ "type": "Feature", "properties": { "内容": "老人保健施設　かみかわ【短期入所療養介護（介護老人保健施設）】埼玉県児玉郡神川町大字新里2783-5", "url": "https://www.kaigokensaku.mhlw.go.jp/11/index.php?action_kouhyou_detail_004_kani=true&JigyosyoCd=1154280012-00&ServiceCd=220&Type=search", "url2": "http://www.0495771212.or.jp" }, "geometry": { "type": "Point", "coordinates": [ 139.093766100000039, 36.1961227 ] } },
{ "type": "Feature", "properties": { "内容": "介護老人保健施設　かみさとナーシングホーム【短期入所療養介護（介護老人保健施設）】埼玉県児玉郡上里町金久保１３３６", "url": "https://www.kaigokensaku.mhlw.go.jp/11/index.php?action_kouhyou_detail_004_kani=true&JigyosyoCd=1154280020-00&ServiceCd=220&Type=search", "url2": "http://www.lupinus-kai.or.jp" }, "geometry": { "type": "Point", "coordinates": [ 139.145741899999962, 36.2620671 ] } },
{ "type": "Feature", "properties": { "内容": "介護老人保健施設　逍遥の郷【短期入所療養介護（介護老人保健施設）】埼玉県大里郡寄居町折原２４８２", "url": "https://www.kaigokensaku.mhlw.go.jp/11/index.php?action_kouhyou_detail_004_kani=true&JigyosyoCd=1154580023-00&ServiceCd=220&Type=search", "url2": "http://www.hagukumukai.jp/" }, "geometry": { "type": "Point", "coordinates": [ 139.174314399999957, 36.1057418 ] } },
{ "type": "Feature", "properties": { "内容": "介護老人保健施設やまざくら【短期入所療養介護（介護老人保健施設）】埼玉県大里郡寄居町末野2109", "url": "https://www.kaigokensaku.mhlw.go.jp/11/index.php?action_kouhyou_detail_004_kani=true&JigyosyoCd=1154580031-00&ServiceCd=220&Type=search", "url2": "http://shunjinkai.or.jp" }, "geometry": { "type": "Point", "coordinates": [ 139.165133400000059, 36.124789 ] } },
{ "type": "Feature", "properties": { "内容": "医療法人社団一恵会　介護老人保健施設　はーとぴあ【短期入所療養介護（介護老人保健施設）】埼玉県南埼玉郡宮代町字山崎472番地", "url": "https://www.kaigokensaku.mhlw.go.jp/11/index.php?action_kouhyou_detail_004_kani=true&JigyosyoCd=1150580049-00&ServiceCd=220&Type=search", "url2": "http://www.e-heartpia.jp" }, "geometry": { "type": "Point", "coordinates": [ 139.724860300000046, 36.01223 ] } },
{ "type": "Feature", "properties": { "内容": "介護老人保健施設あすかHOUSE松伏【短期入所療養介護（介護老人保健施設）】埼玉県北葛飾郡松伏町上赤岩７５２－１", "url": "https://www.kaigokensaku.mhlw.go.jp/11/index.php?action_kouhyou_detail_004_kani=true&JigyosyoCd=1151180025-00&ServiceCd=220&Type=search", "url2": "http://www.asuka-gp.jp/premier" }, "geometry": { "type": "Point", "coordinates": [ 139.822222600000032, 35.9153949 ] } },
{ "type": "Feature", "properties": { "内容": "介護老人保健施設　なのはなの里【短期入所療養介護（介護老人保健施設）】埼玉県北葛飾郡松伏町金杉1908", "url": "https://www.kaigokensaku.mhlw.go.jp/11/index.php?action_kouhyou_detail_004_kani=true&JigyosyoCd=1151180058-00&ServiceCd=220&Type=search", "url2": "http://www.nanohananosato.info/nanohana/index.html" }, "geometry": { "type": "Point", "coordinates": [ 139.826379, 35.9474285 ] } }
]
}
