{
"type": "FeatureCollection",
"name": "geo_11_幼保連携型認定こども園",
"crs": { "type": "name", "properties": { "name": "urn:ogc:def:crs:EPSG::6668" } },
"features": [
{ "type": "Feature", "properties": { "P29_001": "11207", "P29_002": "A211220700019", "P29_003": "16013", "P29_004": "秩父市立吉田こども園", "P29_005": "埼玉県秩父市下吉田3912-3", "P29_006": "3", "P29_007": "0", "P29_008": "00", "P29_009": null }, "geometry": { "type": "Point", "coordinates": [ 139.033178997718636, 36.040811999985884 ] } },
{ "type": "Feature", "properties": { "P29_001": "11365", "P29_002": "A211236500017", "P29_003": "16013", "P29_004": "小鹿野町立おがのこども園", "P29_005": "埼玉県秩父郡小鹿野町小鹿野2743", "P29_006": "3", "P29_007": "0", "P29_008": "00", "P29_009": null }, "geometry": { "type": "Point", "coordinates": [ 139.01144199823068, 36.018109001965733 ] } },
{ "type": "Feature", "properties": { "P29_001": "11101", "P29_002": "A211310100014", "P29_003": "16013", "P29_004": "認定こども園愛徳幼稚園", "P29_005": "埼玉県さいたま市西区プラザ36-11", "P29_006": "4", "P29_007": "0", "P29_008": "00", "P29_009": null }, "geometry": { "type": "Point", "coordinates": [ 139.578483003067305, 35.9051779964716 ] } },
{ "type": "Feature", "properties": { "P29_001": "11103", "P29_002": "A211310300012", "P29_003": "16013", "P29_004": "認定こども園聖愛幼稚園", "P29_005": "埼玉県さいたま市大宮区桜木町2-172", "P29_006": "4", "P29_007": "0", "P29_008": "00", "P29_009": null }, "geometry": { "type": "Point", "coordinates": [ 139.620219999987512, 35.907712998121859 ] } },
{ "type": "Feature", "properties": { "P29_001": "11104", "P29_002": "A211310400011", "P29_003": "16013", "P29_004": "七里ふたばこども園", "P29_005": "埼玉県さいたま市見沼区東宮下480", "P29_006": "4", "P29_007": "0", "P29_008": "00", "P29_009": null }, "geometry": { "type": "Point", "coordinates": [ 139.675002963372464, 35.932081917250166 ] } },
{ "type": "Feature", "properties": { "P29_001": "11105", "P29_002": "A211310500010", "P29_003": "16013", "P29_004": "認定こども園与野あいし幼稚園", "P29_005": "埼玉県さいたま市中央区下落合1030", "P29_006": "4", "P29_007": "0", "P29_008": "00", "P29_009": null }, "geometry": { "type": "Point", "coordinates": [ 139.636700156216421, 35.885834340616874 ] } },
{ "type": "Feature", "properties": { "P29_001": "11106", "P29_002": "A211310600019", "P29_003": "16013", "P29_004": "認定こども園ひなどり幼稚園", "P29_005": "埼玉県さいたま市桜区西堀2-6-18", "P29_006": "4", "P29_007": "0", "P29_008": "00", "P29_009": null }, "geometry": { "type": "Point", "coordinates": [ 139.633319378198451, 35.85662734996567 ] } },
{ "type": "Feature", "properties": { "P29_001": "11107", "P29_002": "A211310700018", "P29_003": "16013", "P29_004": "認定こども園母の会", "P29_005": "埼玉県さいたま市浦和区本太1-20-10", "P29_006": "4", "P29_007": "0", "P29_008": "00", "P29_009": null }, "geometry": { "type": "Point", "coordinates": [ 139.662446999087393, 35.863609002507957 ] } },
{ "type": "Feature", "properties": { "P29_001": "11107", "P29_002": "A211310700027", "P29_003": "16013", "P29_004": "ひかり認定こども園", "P29_005": "埼玉県さいたま市浦和区領家7-2-14", "P29_006": "4", "P29_007": "0", "P29_008": "00", "P29_009": null }, "geometry": { "type": "Point", "coordinates": [ 139.649772003018313, 35.882031998107195 ] } },
{ "type": "Feature", "properties": { "P29_001": "11110", "P29_002": "A211311000013", "P29_003": "16013", "P29_004": "認定こども園岩槻ひまわり幼稚園", "P29_005": "埼玉県さいたま市岩槻区飯塚233", "P29_006": "4", "P29_007": "0", "P29_008": "00", "P29_009": null }, "geometry": { "type": "Point", "coordinates": [ 139.732737963580121, 35.931705367720959 ] } },
{ "type": "Feature", "properties": { "P29_001": "11201", "P29_002": "A211320100013", "P29_003": "16013", "P29_004": "認定こども園のぞみ幼稚園", "P29_005": "埼玉県川越市笠幡2764", "P29_006": "4", "P29_007": "0", "P29_008": "00", "P29_009": null }, "geometry": { "type": "Point", "coordinates": [ 139.38705299526066, 35.909698999253614 ] } },
{ "type": "Feature", "properties": { "P29_001": "11201", "P29_002": "A211320100022", "P29_003": "16013", "P29_004": "認定こども園泉の森川越", "P29_005": "埼玉県川越市大字久下戸1880", "P29_006": "4", "P29_007": "0", "P29_008": "00", "P29_009": null }, "geometry": { "type": "Point", "coordinates": [ 139.531594995446852, 35.900190998052686 ] } },
{ "type": "Feature", "properties": { "P29_001": "11201", "P29_002": "A211320100031", "P29_003": "16013", "P29_004": "認定こども園ふじま幼稚園", "P29_005": "埼玉県川越市熊野町13-10", "P29_006": "4", "P29_007": "0", "P29_008": "00", "P29_009": null }, "geometry": { "type": "Point", "coordinates": [ 139.503101003909649, 35.875145996450215 ] } },
{ "type": "Feature", "properties": { "P29_001": "11201", "P29_002": "A211320100040", "P29_003": "16013", "P29_004": "幼保連携型認定こども園初雁幼稚園", "P29_005": "埼玉県川越市大手町8-5", "P29_006": "4", "P29_007": "0", "P29_008": "00", "P29_009": null }, "geometry": { "type": "Point", "coordinates": [ 139.486381999827671, 35.923241999126077 ] } },
{ "type": "Feature", "properties": { "P29_001": "11201", "P29_002": "A211320100059", "P29_003": "16013", "P29_004": "幼保連携型認定こども園岡田幼稚園", "P29_005": "埼玉県川越市古谷上5440", "P29_006": "4", "P29_007": "0", "P29_008": "00", "P29_009": null }, "geometry": { "type": "Point", "coordinates": [ 139.533093277994482, 35.918723436557698 ] } },
{ "type": "Feature", "properties": { "P29_001": "11201", "P29_002": "A211320100068", "P29_003": "16013", "P29_004": "ひかりの子認定こども園", "P29_005": "埼玉県川越市藤倉2-15-16", "P29_006": "4", "P29_007": "0", "P29_008": "00", "P29_009": null }, "geometry": { "type": "Point", "coordinates": [ 139.436774345486668, 35.884408974827295 ] } },
{ "type": "Feature", "properties": { "P29_001": "11201", "P29_002": "A211320100077", "P29_003": "16013", "P29_004": "芳野台こども園", "P29_005": "埼玉県川越市大字下老袋423", "P29_006": "4", "P29_007": "0", "P29_008": "00", "P29_009": null }, "geometry": { "type": "Point", "coordinates": [ 139.528075001301289, 35.930464003672313 ] } },
{ "type": "Feature", "properties": { "P29_001": "11201", "P29_002": "A211320100086", "P29_003": "16013", "P29_004": "幼保連携型認定こども園霞ヶ関幼稚園", "P29_005": "埼玉県川越市霞ケ関北6-3-1", "P29_006": "4", "P29_007": "0", "P29_008": "00", "P29_009": null }, "geometry": { "type": "Point", "coordinates": [ 139.43192854006216, 35.925949819902122 ] } },
{ "type": "Feature", "properties": { "P29_001": "11201", "P29_002": "A211320100095", "P29_003": "16013", "P29_004": "幼保連携型認定こども園あそか幼稚園", "P29_005": "埼玉県川越市小仙波町5-4-2", "P29_006": "4", "P29_007": "0", "P29_008": "00", "P29_009": null }, "geometry": { "type": "Point", "coordinates": [ 139.489773479772367, 35.914144056712075 ] } },
{ "type": "Feature", "properties": { "P29_001": "11202", "P29_002": "A211320200012", "P29_003": "16013", "P29_004": "三尻こども園", "P29_005": "埼玉県熊谷市拾六間字芝付419", "P29_006": "4", "P29_007": "0", "P29_008": "00", "P29_009": null }, "geometry": { "type": "Point", "coordinates": [ 139.322711154736169, 36.161918026441086 ] } },
{ "type": "Feature", "properties": { "P29_001": "11202", "P29_002": "A211320200021", "P29_003": "16013", "P29_004": "幼保連携型認定こども園荒川こども園", "P29_005": "埼玉県熊谷市宮本町189", "P29_006": "4", "P29_007": "0", "P29_008": "00", "P29_009": null }, "geometry": { "type": "Point", "coordinates": [ 139.377572085123433, 36.142419343494751 ] } },
{ "type": "Feature", "properties": { "P29_001": "11202", "P29_002": "A211320200030", "P29_003": "16013", "P29_004": "まことこども園", "P29_005": "埼玉県熊谷市上之1355", "P29_006": "4", "P29_007": "0", "P29_008": "00", "P29_009": null }, "geometry": { "type": "Point", "coordinates": [ 139.399477288684864, 36.157729028940146 ] } },
{ "type": "Feature", "properties": { "P29_001": "11202", "P29_002": "A211320200049", "P29_003": "16013", "P29_004": "認定こども園立正幼稚園", "P29_005": "埼玉県熊谷市楊井1748-2", "P29_006": "4", "P29_007": "0", "P29_008": "00", "P29_009": null }, "geometry": { "type": "Point", "coordinates": [ 139.368339998279595, 36.108449001514082 ] } },
{ "type": "Feature", "properties": { "P29_001": "11203", "P29_002": "A211320300011", "P29_003": "16013", "P29_004": "川口ふたばこども園", "P29_005": "埼玉県川口市柳根町2-11", "P29_006": "4", "P29_007": "0", "P29_008": "00", "P29_009": null }, "geometry": { "type": "Point", "coordinates": [ 139.7049516466424, 35.849812857307029 ] } },
{ "type": "Feature", "properties": { "P29_001": "11203", "P29_002": "A211320300020", "P29_003": "16013", "P29_004": "みのりこども園", "P29_005": "埼玉県川口市鳩ヶ谷本町4-8-28", "P29_006": "4", "P29_007": "0", "P29_008": "00", "P29_009": null }, "geometry": { "type": "Point", "coordinates": [ 139.746230999227635, 35.831936995118795 ] } },
{ "type": "Feature", "properties": { "P29_001": "11203", "P29_002": "A211320300039", "P29_003": "16013", "P29_004": "認定こども園清泉幼稚園", "P29_005": "埼玉県川口市前川1-6-19", "P29_006": "4", "P29_007": "0", "P29_008": "00", "P29_009": null }, "geometry": { "type": "Point", "coordinates": [ 139.709591125966483, 35.835342664177332 ] } },
{ "type": "Feature", "properties": { "P29_001": "11203", "P29_002": "A211320300048", "P29_003": "16013", "P29_004": "認定こども園新郷南幼稚園", "P29_005": "埼玉県川口市本蓮3-2-15", "P29_006": "4", "P29_007": "0", "P29_008": "00", "P29_009": null }, "geometry": { "type": "Point", "coordinates": [ 139.760041302519454, 35.81508722975947 ] } },
{ "type": "Feature", "properties": { "P29_001": "11206", "P29_002": "A211320600018", "P29_003": "16013", "P29_004": "行田こども園", "P29_005": "埼玉県行田市大字荒木4961", "P29_006": "4", "P29_007": "0", "P29_008": "00", "P29_009": null }, "geometry": { "type": "Point", "coordinates": [ 139.476614003181936, 36.168330002188149 ] } },
{ "type": "Feature", "properties": { "P29_001": "11207", "P29_002": "A211320700017", "P29_003": "16013", "P29_004": "秩父こども園", "P29_005": "埼玉県秩父市下宮地町17-6", "P29_006": "4", "P29_007": "0", "P29_008": "00", "P29_009": null }, "geometry": { "type": "Point", "coordinates": [ 139.09357672722092, 36.013071266704756 ] } },
{ "type": "Feature", "properties": { "P29_001": "11207", "P29_002": "A211320700026", "P29_003": "16013", "P29_004": "幼保連携型認定こども園大畑こども園", "P29_005": "埼玉県秩父市大畑町4-64", "P29_006": "4", "P29_007": "0", "P29_008": "00", "P29_009": null }, "geometry": { "type": "Point", "coordinates": [ 139.088883873835613, 36.014967663949172 ] } },
{ "type": "Feature", "properties": { "P29_001": "11207", "P29_002": "A211320700035", "P29_003": "16013", "P29_004": "秩父ふたばこども園", "P29_005": "埼玉県秩父市中宮地町26-21", "P29_006": "4", "P29_007": "0", "P29_008": "00", "P29_009": null }, "geometry": { "type": "Point", "coordinates": [ 139.090794085530746, 36.008161304625162 ] } },
{ "type": "Feature", "properties": { "P29_001": "11207", "P29_002": "A211320700044", "P29_003": "16013", "P29_004": "幼保連携型認定こども園秩父さくら幼稚園", "P29_005": "埼玉県秩父市上町3-10-10", "P29_006": "4", "P29_007": "0", "P29_008": "00", "P29_009": null }, "geometry": { "type": "Point", "coordinates": [ 139.075359999516593, 35.987704998996129 ] } },
{ "type": "Feature", "properties": { "P29_001": "11207", "P29_002": "A211320700053", "P29_003": "16013", "P29_004": "秩父こども園（分園）", "P29_005": "埼玉県秩父市東町26-7", "P29_006": "4", "P29_007": "0", "P29_008": "00", "P29_009": null }, "geometry": { "type": "Point", "coordinates": [ 139.082578660892779, 35.992474836395168 ] } },
{ "type": "Feature", "properties": { "P29_001": "11207", "P29_002": "A211320700062", "P29_003": "16013", "P29_004": "緑ガ丘認定こども園", "P29_005": "埼玉県秩父市寺尾1548-1", "P29_006": "4", "P29_007": "0", "P29_008": "00", "P29_009": null }, "geometry": { "type": "Point", "coordinates": [ 139.08410099681663, 36.024869998698151 ] } },
{ "type": "Feature", "properties": { "P29_001": "11207", "P29_002": "A211320700071", "P29_003": "16013", "P29_004": "かみたのこども園", "P29_005": "埼玉県秩父市荒川上田野993-1", "P29_006": "4", "P29_007": "0", "P29_008": "00", "P29_009": null }, "geometry": { "type": "Point", "coordinates": [ 139.037508000612405, 35.958916996297248 ] } },
{ "type": "Feature", "properties": { "P29_001": "11208", "P29_002": "A211320800016", "P29_003": "16013", "P29_004": "幼保連携型認定こども園所沢第六文化幼稚園", "P29_005": "埼玉県所沢市北野1-1-22", "P29_006": "4", "P29_007": "0", "P29_008": "00", "P29_009": null }, "geometry": { "type": "Point", "coordinates": [ 139.429318479268346, 35.796182784697315 ] } },
{ "type": "Feature", "properties": { "P29_001": "11208", "P29_002": "A211320800025", "P29_003": "16013", "P29_004": "幼保連携型認定こども園所沢中央文化幼稚園", "P29_005": "埼玉県所沢市宮本町2-22-15", "P29_006": "4", "P29_007": "0", "P29_008": "00", "P29_009": null }, "geometry": { "type": "Point", "coordinates": [ 139.45934100039517, 35.796823004043162 ] } },
{ "type": "Feature", "properties": { "P29_001": "11208", "P29_002": "A211320800034", "P29_003": "16013", "P29_004": "東所沢たんぽぽこども園", "P29_005": "埼玉県所沢市亀ヶ谷172-1", "P29_006": "4", "P29_007": "0", "P29_008": "00", "P29_009": null }, "geometry": { "type": "Point", "coordinates": [ 139.51928499887282, 35.805608002300019 ] } },
{ "type": "Feature", "properties": { "P29_001": "11208", "P29_002": "A211320800043", "P29_003": "16013", "P29_004": "なかよしこども園", "P29_005": "埼玉県所沢市三ヶ島3-1476-1", "P29_006": "4", "P29_007": "0", "P29_008": "00", "P29_009": null }, "geometry": { "type": "Point", "coordinates": [ 139.409287004903092, 35.798255997746821 ] } },
{ "type": "Feature", "properties": { "P29_001": "11208", "P29_002": "A211320800052", "P29_003": "16013", "P29_004": "第二なかよしこども園", "P29_005": "埼玉県所沢市若狭4-2479-21", "P29_006": "4", "P29_007": "0", "P29_008": "00", "P29_009": null }, "geometry": { "type": "Point", "coordinates": [ 139.417197003481817, 35.806935998255859 ] } },
{ "type": "Feature", "properties": { "P29_001": "11208", "P29_002": "A211320800061", "P29_003": "16013", "P29_004": "双実こども園", "P29_005": "埼玉県所沢市北岩岡480-3", "P29_006": "4", "P29_007": "0", "P29_008": "00", "P29_009": null }, "geometry": { "type": "Point", "coordinates": [ 139.451763003430273, 35.821407001548401 ] } },
{ "type": "Feature", "properties": { "P29_001": "11208", "P29_002": "A211320800070", "P29_003": "16013", "P29_004": "桑の実こども園", "P29_005": "埼玉県所沢市東狭山ヶ丘6-2823-12", "P29_006": "4", "P29_007": "0", "P29_008": "00", "P29_009": null }, "geometry": { "type": "Point", "coordinates": [ 139.424952001194924, 35.815252000515848 ] } },
{ "type": "Feature", "properties": { "P29_001": "11209", "P29_002": "A211320900015", "P29_003": "16013", "P29_004": "認定こども園さゆり幼稚園", "P29_005": "埼玉県飯能市緑町2-5", "P29_006": "4", "P29_007": "0", "P29_008": "00", "P29_009": null }, "geometry": { "type": "Point", "coordinates": [ 139.329977003985846, 35.850955000708652 ] } },
{ "type": "Feature", "properties": { "P29_001": "11209", "P29_002": "A211320900024", "P29_003": "16013", "P29_004": "幼保連携型認定こども園白鳥幼稚園", "P29_005": "埼玉県飯能市大字岩沢1129", "P29_006": "4", "P29_007": "0", "P29_008": "00", "P29_009": null }, "geometry": { "type": "Point", "coordinates": [ 139.342055081196037, 35.837165457661662 ] } },
{ "type": "Feature", "properties": { "P29_001": "11210", "P29_002": "A211321000012", "P29_003": "16013", "P29_004": "大利根ふじこども園", "P29_005": "埼玉県加須市旗井547-1", "P29_006": "4", "P29_007": "0", "P29_008": "00", "P29_009": null }, "geometry": { "type": "Point", "coordinates": [ 139.69089057368987, 36.149149325406192 ] } },
{ "type": "Feature", "properties": { "P29_001": "11210", "P29_002": "A211321000021", "P29_003": "16013", "P29_004": "認定こども園騎西桜が丘", "P29_005": "埼玉県加須市下崎370", "P29_006": "4", "P29_007": "0", "P29_008": "00", "P29_009": null }, "geometry": { "type": "Point", "coordinates": [ 139.571685054212196, 36.101534144746225 ] } },
{ "type": "Feature", "properties": { "P29_001": "11211", "P29_002": "A211321100011", "P29_003": "16013", "P29_004": "認定こども園児玉櫻井幼稚園", "P29_005": "埼玉県本庄市児玉町八幡山594-2", "P29_006": "4", "P29_007": "0", "P29_008": "00", "P29_009": null }, "geometry": { "type": "Point", "coordinates": [ 139.126486996461949, 36.197591999141579 ] } },
{ "type": "Feature", "properties": { "P29_001": "11211", "P29_002": "A211321100020", "P29_003": "16013", "P29_004": "認定こども園本庄幼稚園", "P29_005": "埼玉県本庄市小島6-5-3", "P29_006": "4", "P29_007": "0", "P29_008": "00", "P29_009": null }, "geometry": { "type": "Point", "coordinates": [ 139.177007209882305, 36.24574451578863 ] } },
{ "type": "Feature", "properties": { "P29_001": "11211", "P29_002": "A211321100039", "P29_003": "16013", "P29_004": "本庄東幼稚園", "P29_005": "埼玉県本庄市東台3-1-12", "P29_006": "4", "P29_007": "0", "P29_008": "00", "P29_009": null }, "geometry": { "type": "Point", "coordinates": [ 139.194484000121065, 36.238970998340676 ] } },
{ "type": "Feature", "properties": { "P29_001": "11211", "P29_002": "A211321100048", "P29_003": "16013", "P29_004": "幼保連携型認定こども園コウガの森・共和", "P29_005": "埼玉県本庄市児玉町蛭川885", "P29_006": "4", "P29_007": "0", "P29_008": "00", "P29_009": null }, "geometry": { "type": "Point", "coordinates": [ 139.150456997509053, 36.207333003446841 ] } },
{ "type": "Feature", "properties": { "P29_001": "11211", "P29_002": "A211321100057", "P29_003": "16013", "P29_004": "幼保連携型認定こども園コウガの森・梅花", "P29_005": "埼玉県本庄市見福1-2-7", "P29_006": "4", "P29_007": "0", "P29_008": "00", "P29_009": null }, "geometry": { "type": "Point", "coordinates": [ 139.183201995543186, 36.234551001431313 ] } },
{ "type": "Feature", "properties": { "P29_001": "11211", "P29_002": "A211321100066", "P29_003": "16013", "P29_004": "こだまの森こども園", "P29_005": "埼玉県本庄市児玉町児玉字内並木2448-1", "P29_006": "4", "P29_007": "0", "P29_008": "00", "P29_009": null }, "geometry": { "type": "Point", "coordinates": [ 139.135835620847615, 36.191394702476586 ] } },
{ "type": "Feature", "properties": { "P29_001": "11211", "P29_002": "A211321100075", "P29_003": "16013", "P29_004": "認定こども園秋平さくら保育園", "P29_005": "埼玉県本庄市児玉町秋山字四反畑2527-1", "P29_006": "4", "P29_007": "0", "P29_008": "00", "P29_009": null }, "geometry": { "type": "Point", "coordinates": [ 139.1315003888121, 36.174309440253772 ] } },
{ "type": "Feature", "properties": { "P29_001": "11214", "P29_002": "A211321400018", "P29_003": "16013", "P29_004": "認定こども園ふたば", "P29_005": "埼玉県春日部市大場902-1", "P29_006": "4", "P29_007": "0", "P29_008": "00", "P29_009": null }, "geometry": { "type": "Point", "coordinates": [ 139.766952994213312, 35.940517001383235 ] } },
{ "type": "Feature", "properties": { "P29_001": "11214", "P29_002": "A211321400027", "P29_003": "16013", "P29_004": "幼保連携型認定こども園武里幼稚園", "P29_005": "埼玉県春日部市大枝89-2-2", "P29_006": "4", "P29_007": "0", "P29_008": "00", "P29_009": null }, "geometry": { "type": "Point", "coordinates": [ 139.770995466751884, 35.94222592005314 ] } },
{ "type": "Feature", "properties": { "P29_001": "11214", "P29_002": "A211321400036", "P29_003": "16013", "P29_004": "認定こども園とよはるこども学園", "P29_005": "埼玉県春日部市上蛭田610-2", "P29_006": "4", "P29_007": "0", "P29_008": "00", "P29_009": null }, "geometry": { "type": "Point", "coordinates": [ 139.726408999038171, 35.965606003333782 ] } },
{ "type": "Feature", "properties": { "P29_001": "11214", "P29_002": "A211321400045", "P29_003": "16013", "P29_004": "認定こども園内牧幼稚園", "P29_005": "埼玉県春日部市栄町3-248", "P29_006": "4", "P29_007": "0", "P29_008": "00", "P29_009": null }, "geometry": { "type": "Point", "coordinates": [ 139.735214994545288, 35.992512998426584 ] } },
{ "type": "Feature", "properties": { "P29_001": "11215", "P29_002": "A211321500017", "P29_003": "16013", "P29_004": "けやき認定こども園", "P29_005": "埼玉県狭山市上奥富1042-3", "P29_006": "4", "P29_007": "0", "P29_008": "00", "P29_009": null }, "geometry": { "type": "Point", "coordinates": [ 139.411814684406892, 35.871021368056276 ] } },
{ "type": "Feature", "properties": { "P29_001": "11215", "P29_002": "A211321500026", "P29_003": "16013", "P29_004": "狭山ふじみだい認定こども園", "P29_005": "埼玉県狭山市富士見2-18-28", "P29_006": "4", "P29_007": "0", "P29_008": "00", "P29_009": null }, "geometry": { "type": "Point", "coordinates": [ 139.421655608368951, 35.846399944666082 ] } },
{ "type": "Feature", "properties": { "P29_001": "11215", "P29_002": "A211321500035", "P29_003": "16013", "P29_004": "未来ふじみ認定こども園", "P29_005": "埼玉県狭山市入間川3-26-21", "P29_006": "4", "P29_007": "0", "P29_008": "00", "P29_009": null }, "geometry": { "type": "Point", "coordinates": [ 139.404166002904361, 35.857006999421067 ] } },
{ "type": "Feature", "properties": { "P29_001": "11215", "P29_002": "A211321500044", "P29_003": "16013", "P29_004": "いるまこども園", "P29_005": "埼玉県狭山市北入曽1294-1", "P29_006": "4", "P29_007": "0", "P29_008": "00", "P29_009": null }, "geometry": { "type": "Point", "coordinates": [ 139.422353365635985, 35.836509289343525 ] } },
{ "type": "Feature", "properties": { "P29_001": "11215", "P29_002": "A211321500053", "P29_003": "16013", "P29_004": "未来たけのこ認定こども園", "P29_005": "埼玉県狭山市北入曽656-1", "P29_006": "4", "P29_007": "0", "P29_008": "00", "P29_009": null }, "geometry": { "type": "Point", "coordinates": [ 139.439358005902363, 35.848752996395334 ] } },
{ "type": "Feature", "properties": { "P29_001": "11216", "P29_002": "A211321600016", "P29_003": "16013", "P29_004": "かなくぼこども園キラリ", "P29_005": "埼玉県羽生市大字北荻島430-1", "P29_006": "4", "P29_007": "0", "P29_008": "00", "P29_009": null }, "geometry": { "type": "Point", "coordinates": [ 139.584941990294908, 36.167147328355426 ] } },
{ "type": "Feature", "properties": { "P29_001": "11216", "P29_002": "A211321600025", "P29_003": "16013", "P29_004": "きむら認定こども園", "P29_005": "埼玉県羽生市上手子林76-3", "P29_006": "4", "P29_007": "0", "P29_008": "00", "P29_009": null }, "geometry": { "type": "Point", "coordinates": [ 139.563588996922562, 36.153111996463743 ] } },
{ "type": "Feature", "properties": { "P29_001": "11216", "P29_002": "A211321600034", "P29_003": "16013", "P29_004": "とねの会こども園", "P29_005": "埼玉県羽生市上川俣87", "P29_006": "4", "P29_007": "0", "P29_008": "00", "P29_009": null }, "geometry": { "type": "Point", "coordinates": [ 139.518977996446068, 36.183957003185007 ] } },
{ "type": "Feature", "properties": { "P29_001": "11217", "P29_002": "A211321700015", "P29_003": "16013", "P29_004": "認定こども園エンゼル幼稚園", "P29_005": "埼玉県鴻巣市加美1-2-34", "P29_006": "4", "P29_007": "0", "P29_008": "00", "P29_009": null }, "geometry": { "type": "Point", "coordinates": [ 139.506589615377749, 36.064250672943388 ] } },
{ "type": "Feature", "properties": { "P29_001": "11217", "P29_002": "A211321700024", "P29_003": "16013", "P29_004": "ゆめのはなこども園", "P29_005": "埼玉県鴻巣市原馬室3747", "P29_006": "4", "P29_007": "0", "P29_008": "00", "P29_009": null }, "geometry": { "type": "Point", "coordinates": [ 139.519650000876851, 36.035955004086809 ] } },
{ "type": "Feature", "properties": { "P29_001": "11217", "P29_002": "A211321700033", "P29_003": "16013", "P29_004": "めぐみの木こども園", "P29_005": "埼玉県鴻巣市原馬室4113", "P29_006": "4", "P29_007": "0", "P29_008": "00", "P29_009": null }, "geometry": { "type": "Point", "coordinates": [ 139.512991644642227, 36.042612314519367 ] } },
{ "type": "Feature", "properties": { "P29_001": "11217", "P29_002": "A211321700042", "P29_003": "16013", "P29_004": "大芦こども園", "P29_005": "埼玉県鴻巣市大芦1616-2", "P29_006": "4", "P29_007": "0", "P29_008": "00", "P29_009": null }, "geometry": { "type": "Point", "coordinates": [ 139.444285705175162, 36.094466529202329 ] } },
{ "type": "Feature", "properties": { "P29_001": "11218", "P29_002": "A211321800014", "P29_003": "16013", "P29_004": "花園第二こども園", "P29_005": "埼玉県深谷市永田407", "P29_006": "4", "P29_007": "0", "P29_008": "00", "P29_009": null }, "geometry": { "type": "Point", "coordinates": [ 139.250964824723411, 36.139622479436191 ] } },
{ "type": "Feature", "properties": { "P29_001": "11218", "P29_002": "A211321800023", "P29_003": "16013", "P29_004": "豊里こども園", "P29_005": "埼玉県深谷市新戒640-3", "P29_006": "4", "P29_007": "0", "P29_008": "00", "P29_009": null }, "geometry": { "type": "Point", "coordinates": [ 139.285439995728041, 36.23417599640883 ] } },
{ "type": "Feature", "properties": { "P29_001": "11218", "P29_002": "A211321800032", "P29_003": "16013", "P29_004": "花園こども園", "P29_005": "埼玉県深谷市小前田字西之上1994", "P29_006": "4", "P29_007": "0", "P29_008": "00", "P29_009": null }, "geometry": { "type": "Point", "coordinates": [ 139.229578072653084, 36.134651696933581 ] } },
{ "type": "Feature", "properties": { "P29_001": "11219", "P29_002": "A211321900013", "P29_003": "16013", "P29_004": "つつみの森認定こども園", "P29_005": "埼玉県上尾市大字上22-5", "P29_006": "4", "P29_007": "0", "P29_008": "00", "P29_009": null }, "geometry": { "type": "Point", "coordinates": [ 139.572533102573317, 35.993480096391806 ] } },
{ "type": "Feature", "properties": { "P29_001": "11219", "P29_002": "A211321900022", "P29_003": "16013", "P29_004": "つつじが丘認定こども園", "P29_005": "埼玉県上尾市上野1053-1", "P29_006": "4", "P29_007": "0", "P29_008": "00", "P29_009": null }, "geometry": { "type": "Point", "coordinates": [ 139.553628997753208, 35.940334995890638 ] } },
{ "type": "Feature", "properties": { "P29_001": "11219", "P29_002": "A211321900031", "P29_003": "16013", "P29_004": "認定こども園泉の森", "P29_005": "埼玉県上尾市平方4220-1", "P29_006": "4", "P29_007": "0", "P29_008": "00", "P29_009": null }, "geometry": { "type": "Point", "coordinates": [ 139.557965001753701, 35.953893999920993 ] } },
{ "type": "Feature", "properties": { "P29_001": "11219", "P29_002": "A211321900040", "P29_003": "16013", "P29_004": "原市文化認定こども園", "P29_005": "埼玉県上尾市瓦葺1032", "P29_006": "4", "P29_007": "0", "P29_008": "00", "P29_009": null }, "geometry": { "type": "Point", "coordinates": [ 139.635107003817865, 35.965727998585542 ] } },
{ "type": "Feature", "properties": { "P29_001": "11219", "P29_002": "A211321900059", "P29_003": "16013", "P29_004": "認定こども園西上尾しらぎく幼稚園", "P29_005": "埼玉県上尾市大字今泉字西浦313-2", "P29_006": "4", "P29_007": "0", "P29_008": "00", "P29_009": null }, "geometry": { "type": "Point", "coordinates": [ 139.569882325750768, 35.968393657449582 ] } },
{ "type": "Feature", "properties": { "P29_001": "11221", "P29_002": "A211322100019", "P29_003": "16013", "P29_004": "かおりＫａｒｕｎａ認定こども園", "P29_005": "埼玉県草加市氷川町1080-1", "P29_006": "4", "P29_007": "0", "P29_008": "00", "P29_009": null }, "geometry": { "type": "Point", "coordinates": [ 139.797330149186394, 35.829092921378361 ] } },
{ "type": "Feature", "properties": { "P29_001": "11221", "P29_002": "A211322100028", "P29_003": "16013", "P29_004": "幼保連携型認定こども園あずま幼稚園", "P29_005": "埼玉県草加市遊馬町430", "P29_006": "4", "P29_007": "0", "P29_008": "00", "P29_009": null }, "geometry": { "type": "Point", "coordinates": [ 139.775471117987621, 35.819796127266997 ] } },
{ "type": "Feature", "properties": { "P29_001": "11222", "P29_002": "A211322200018", "P29_003": "16013", "P29_004": "認定こども園小牧", "P29_005": "埼玉県越谷市大間野町5-147-1", "P29_006": "4", "P29_007": "0", "P29_008": "00", "P29_009": null }, "geometry": { "type": "Point", "coordinates": [ 139.775261210471399, 35.861252054511695 ] } },
{ "type": "Feature", "properties": { "P29_001": "11222", "P29_002": "A211322200027", "P29_003": "16013", "P29_004": "第二愛隣こども園", "P29_005": "埼玉県越谷市川柳町3-275-1", "P29_006": "4", "P29_007": "0", "P29_008": "00", "P29_009": null }, "geometry": { "type": "Point", "coordinates": [ 139.811258997548549, 35.86415400132924 ] } },
{ "type": "Feature", "properties": { "P29_001": "11222", "P29_002": "A211322200036", "P29_003": "16013", "P29_004": "幼保連携型認定こども園越谷さくらの森", "P29_005": "埼玉県越谷市大字増林字城ノ上5987-1", "P29_006": "4", "P29_007": "0", "P29_008": "00", "P29_009": null }, "geometry": { "type": "Point", "coordinates": [ 139.810047004224202, 35.901988996598853 ] } },
{ "type": "Feature", "properties": { "P29_001": "11222", "P29_002": "A211322200045", "P29_003": "16013", "P29_004": "こばとの里こども園", "P29_005": "埼玉県越谷市神明町3-246-3", "P29_006": "4", "P29_007": "0", "P29_008": "00", "P29_009": null }, "geometry": { "type": "Point", "coordinates": [ 139.764434001500092, 35.894371002477769 ] } },
{ "type": "Feature", "properties": { "P29_001": "11222", "P29_002": "A211322200054", "P29_003": "16013", "P29_004": "認定こども園わかばの森ナーサリー", "P29_005": "埼玉県越谷市新越谷1-31-18", "P29_006": "4", "P29_007": "0", "P29_008": "00", "P29_009": null }, "geometry": { "type": "Point", "coordinates": [ 139.78211099714602, 35.875063001890368 ] } },
{ "type": "Feature", "properties": { "P29_001": "11222", "P29_002": "A211322200063", "P29_003": "16013", "P29_004": "認定こども園しらこばと幼稚園", "P29_005": "埼玉県越谷市袋山631-3", "P29_006": "4", "P29_007": "0", "P29_008": "00", "P29_009": null }, "geometry": { "type": "Point", "coordinates": [ 139.774153003526351, 35.930677998275804 ] } },
{ "type": "Feature", "properties": { "P29_001": "11222", "P29_002": "A211322200072", "P29_003": "16013", "P29_004": "認定こども園北越谷幼稚園", "P29_005": "埼玉県越谷市北越谷3-2-18", "P29_006": "4", "P29_007": "0", "P29_008": "00", "P29_009": null }, "geometry": { "type": "Point", "coordinates": [ 139.774077004235949, 35.900200997898324 ] } },
{ "type": "Feature", "properties": { "P29_001": "11222", "P29_002": "A211322200081", "P29_003": "16013", "P29_004": "しらとりこども園", "P29_005": "埼玉県越谷市弥十郎275-1", "P29_006": "4", "P29_007": "0", "P29_008": "00", "P29_009": null }, "geometry": { "type": "Point", "coordinates": [ 139.792516202008528, 35.925621122520297 ] } },
{ "type": "Feature", "properties": { "P29_001": "11222", "P29_002": "A211322200090", "P29_003": "16013", "P29_004": "認定こども園まどか幼稚園", "P29_005": "埼玉県越谷市平方299-2", "P29_006": "4", "P29_007": "0", "P29_008": "00", "P29_009": null }, "geometry": { "type": "Point", "coordinates": [ 139.780222976309346, 35.956653145321631 ] } },
{ "type": "Feature", "properties": { "P29_001": "11225", "P29_002": "A211322500015", "P29_003": "16013", "P29_004": "おおぎこども園", "P29_005": "埼玉県入間市扇台4-5-19", "P29_006": "4", "P29_007": "0", "P29_008": "00", "P29_009": null }, "geometry": { "type": "Point", "coordinates": [ 139.389102000697875, 35.826490996469751 ] } },
{ "type": "Feature", "properties": { "P29_001": "11225", "P29_002": "A211322500024", "P29_003": "16013", "P29_004": "おおぎ第二こども園", "P29_005": "埼玉県入間市豊岡1-8-24", "P29_006": "4", "P29_007": "0", "P29_008": "00", "P29_009": null }, "geometry": { "type": "Point", "coordinates": [ 139.386556985998311, 35.837780425120208 ] } },
{ "type": "Feature", "properties": { "P29_001": "11229", "P29_002": "A211322900011", "P29_003": "16013", "P29_004": "和光なかよしこども園", "P29_005": "埼玉県和光市広沢1-5-53", "P29_006": "4", "P29_007": "0", "P29_008": "00", "P29_009": null }, "geometry": { "type": "Point", "coordinates": [ 139.606611881508684, 35.782720148121875 ] } },
{ "type": "Feature", "properties": { "P29_001": "11230", "P29_002": "A211323000018", "P29_003": "16013", "P29_004": "学校法人竹内学園認定こども園第二新座幼稚園", "P29_005": "埼玉県新座市新座3-4-12", "P29_006": "4", "P29_007": "0", "P29_008": "00", "P29_009": null }, "geometry": { "type": "Point", "coordinates": [ 139.555671383605954, 35.820857034160746 ] } },
{ "type": "Feature", "properties": { "P29_001": "11231", "P29_002": "A211323100017", "P29_003": "16013", "P29_004": "認定こども園ひがし幼稚園ひがし保育園", "P29_005": "埼玉県桶川市東1-6-25", "P29_006": "4", "P29_007": "0", "P29_008": "00", "P29_009": null }, "geometry": { "type": "Point", "coordinates": [ 139.569041997885705, 35.99984000219726 ] } },
{ "type": "Feature", "properties": { "P29_001": "11231", "P29_002": "A211323100026", "P29_003": "16013", "P29_004": "桶川ときわこども園", "P29_005": "埼玉県桶川市鴨川1-1-43", "P29_006": "4", "P29_007": "0", "P29_008": "00", "P29_009": null }, "geometry": { "type": "Point", "coordinates": [ 139.556661998800166, 35.997838997567733 ] } },
{ "type": "Feature", "properties": { "P29_001": "11231", "P29_002": "A211323100035", "P29_003": "16013", "P29_004": "認定こども園ひだまり", "P29_005": "埼玉県桶川市大字川田谷3821-3", "P29_006": "4", "P29_007": "0", "P29_008": "00", "P29_009": null }, "geometry": { "type": "Point", "coordinates": [ 139.53332700229754, 36.00021599655404 ] } },
{ "type": "Feature", "properties": { "P29_001": "11231", "P29_002": "A211323100044", "P29_003": "16013", "P29_004": "うさぎこども園", "P29_005": "埼玉県桶川市大字倉田字前方103-2", "P29_006": "4", "P29_007": "0", "P29_008": "00", "P29_009": null }, "geometry": { "type": "Point", "coordinates": [ 139.588055357234055, 36.013229536050858 ] } },
{ "type": "Feature", "properties": { "P29_001": "11232", "P29_002": "A211323200016", "P29_003": "16013", "P29_004": "幼保連携型認定こども園さくらだこども園", "P29_005": "埼玉県久喜市西大輪1-17-2", "P29_006": "4", "P29_007": "0", "P29_008": "00", "P29_009": null }, "geometry": { "type": "Point", "coordinates": [ 139.677226129210027, 36.094868176677274 ] } },
{ "type": "Feature", "properties": { "P29_001": "11232", "P29_002": "A211323200025", "P29_003": "16013", "P29_004": "認定こども園こどもむら　さくらのもり保育園", "P29_005": "埼玉県久喜市伊坂135", "P29_006": "4", "P29_007": "0", "P29_008": "00", "P29_009": null }, "geometry": { "type": "Point", "coordinates": [ 139.688642001032036, 36.134072997770573 ] } },
{ "type": "Feature", "properties": { "P29_001": "11232", "P29_002": "A211323200034", "P29_003": "16013", "P29_004": "幼保連携型認定こども園久喜みなみこども園", "P29_005": "埼玉県久喜市下早見481-2", "P29_006": "4", "P29_007": "0", "P29_008": "00", "P29_009": null }, "geometry": { "type": "Point", "coordinates": [ 139.671050995086432, 36.058255997567784 ] } },
{ "type": "Feature", "properties": { "P29_001": "11232", "P29_002": "A211323200043", "P29_003": "16013", "P29_004": "幼保連携型認定こども園あけぼの幼稚園", "P29_005": "埼玉県久喜市青葉3-7", "P29_006": "4", "P29_007": "0", "P29_008": "00", "P29_009": null }, "geometry": { "type": "Point", "coordinates": [ 139.697539995464126, 36.070981999431567 ] } },
{ "type": "Feature", "properties": { "P29_001": "11232", "P29_002": "A211323200052", "P29_003": "16013", "P29_004": "そらにとどくき認定こども園ののの", "P29_005": "埼玉県久喜市本町1-2-60", "P29_006": "4", "P29_007": "0", "P29_008": "00", "P29_009": null }, "geometry": { "type": "Point", "coordinates": [ 139.67223540781697, 36.069680670314582 ] } },
{ "type": "Feature", "properties": { "P29_001": "11232", "P29_002": "A211323200061", "P29_003": "16013", "P29_004": "認定こども園こどもむら栗橋さくら幼稚園", "P29_005": "埼玉県久喜市伊坂46", "P29_006": "4", "P29_007": "0", "P29_008": "00", "P29_009": null }, "geometry": { "type": "Point", "coordinates": [ 139.687764001588278, 36.133408998654623 ] } },
{ "type": "Feature", "properties": { "P29_001": "11232", "P29_002": "A211323200070", "P29_003": "16013", "P29_004": "幼保連携型認定こども園菖蒲幼稚園", "P29_005": "埼玉県久喜市菖蒲町菖蒲410-4", "P29_006": "4", "P29_007": "0", "P29_008": "00", "P29_009": null }, "geometry": { "type": "Point", "coordinates": [ 139.607767996918625, 36.066968003568618 ] } },
{ "type": "Feature", "properties": { "P29_001": "11232", "P29_002": "A211323200089", "P29_003": "16013", "P29_004": "あけぼの東幼稚園", "P29_005": "埼玉県久喜市久喜東1-16-12", "P29_006": "4", "P29_007": "0", "P29_008": "00", "P29_009": null }, "geometry": { "type": "Point", "coordinates": [ 139.68026400034887, 36.062806004804933 ] } },
{ "type": "Feature", "properties": { "P29_001": "11233", "P29_002": "A211323300015", "P29_003": "16013", "P29_004": "幼保連携型認定こども園みなみ絵本のこども園", "P29_005": "埼玉県北本市本町4-43", "P29_006": "4", "P29_007": "0", "P29_008": "00", "P29_009": null }, "geometry": { "type": "Point", "coordinates": [ 139.52938599423041, 36.021339998870261 ] } },
{ "type": "Feature", "properties": { "P29_001": "11233", "P29_002": "A211323300024", "P29_003": "16013", "P29_004": "北本東スマイルこども園", "P29_005": "埼玉県北本市二ツ家3-28", "P29_006": "4", "P29_007": "0", "P29_008": "00", "P29_009": null }, "geometry": { "type": "Point", "coordinates": [ 139.550453968206881, 36.015628198984309 ] } },
{ "type": "Feature", "properties": { "P29_001": "11234", "P29_002": "A211323400014", "P29_003": "16013", "P29_004": "認定こども園しおどめの森", "P29_005": "埼玉県八潮市木曽根1063", "P29_006": "4", "P29_007": "0", "P29_008": "00", "P29_009": null }, "geometry": { "type": "Point", "coordinates": [ 139.855283998169938, 35.821218999858161 ] } },
{ "type": "Feature", "properties": { "P29_001": "11235", "P29_002": "A211323500013", "P29_003": "16013", "P29_004": "認定こども園　南畑幼稚園・なんばた保育園", "P29_005": "埼玉県富士見市下南畑3474-1", "P29_006": "4", "P29_007": "0", "P29_008": "00", "P29_009": null }, "geometry": { "type": "Point", "coordinates": [ 139.565849996479329, 35.853702995801328 ] } },
{ "type": "Feature", "properties": { "P29_001": "11235", "P29_002": "A211323500022", "P29_003": "16013", "P29_004": "認定こども園きたはら幼稚園・ナーサリーＫＩＴＡＨＡＲＡ", "P29_005": "埼玉県富士見市山室2-5-17", "P29_006": "4", "P29_007": "0", "P29_008": "00", "P29_009": null }, "geometry": { "type": "Point", "coordinates": [ 139.544403002521534, 35.860150003032849 ] } },
{ "type": "Feature", "properties": { "P29_001": "11235", "P29_002": "A211323500031", "P29_003": "16013", "P29_004": "幼保連携型認定こども園けやき子ども園", "P29_005": "埼玉県富士見市水子4888", "P29_006": "4", "P29_007": "0", "P29_008": "00", "P29_009": null }, "geometry": { "type": "Point", "coordinates": [ 139.553944001502799, 35.837182004940402 ] } },
{ "type": "Feature", "properties": { "P29_001": "11235", "P29_002": "A211323500040", "P29_003": "16013", "P29_004": "幼保連携型認定こども園谷津幼稚園", "P29_005": "埼玉県富士見市鶴瀬東2-13-17", "P29_006": "4", "P29_007": "0", "P29_008": "00", "P29_009": null }, "geometry": { "type": "Point", "coordinates": [ 139.541027095687582, 35.849559994620911 ] } },
{ "type": "Feature", "properties": { "P29_001": "11237", "P29_002": "A211323700011", "P29_003": "16013", "P29_004": "認定こども園わせだ", "P29_005": "埼玉県三郷市幸房1457-1", "P29_006": "4", "P29_007": "0", "P29_008": "00", "P29_009": null }, "geometry": { "type": "Point", "coordinates": [ 139.877763001465865, 35.836242004335084 ] } },
{ "type": "Feature", "properties": { "P29_001": "11237", "P29_002": "A211323700020", "P29_003": "16013", "P29_004": "認定こども園栄光けやきの森", "P29_005": "埼玉県三郷市高州1-174-1", "P29_006": "4", "P29_007": "0", "P29_008": "00", "P29_009": null }, "geometry": { "type": "Point", "coordinates": [ 139.883699391476654, 35.78888344631423 ] } },
{ "type": "Feature", "properties": { "P29_001": "11237", "P29_002": "A211323700039", "P29_003": "16013", "P29_004": "幼保連携型認定こども園みさとさくらの森", "P29_005": "埼玉県三郷市彦成4-321", "P29_006": "4", "P29_007": "0", "P29_008": "00", "P29_009": null }, "geometry": { "type": "Point", "coordinates": [ 139.867315997751092, 35.855533995916097 ] } },
{ "type": "Feature", "properties": { "P29_001": "11237", "P29_002": "A211323700048", "P29_003": "16013", "P29_004": "埼玉さくら幼稚園", "P29_005": "埼玉県三郷市戸ヶ崎2336", "P29_006": "4", "P29_007": "0", "P29_008": "00", "P29_009": null }, "geometry": { "type": "Point", "coordinates": [ 139.863338004259077, 35.807825001609139 ] } },
{ "type": "Feature", "properties": { "P29_001": "11237", "P29_002": "A211323700057", "P29_003": "16013", "P29_004": "幼保連携型認定こども園いなほ幼稚園", "P29_005": "埼玉県三郷市早稲田7-13-12", "P29_006": "4", "P29_007": "0", "P29_008": "00", "P29_009": null }, "geometry": { "type": "Point", "coordinates": [ 139.890455507606248, 35.855315713784876 ] } },
{ "type": "Feature", "properties": { "P29_001": "11238", "P29_002": "A211323800010", "P29_003": "16013", "P29_004": "認定こども園しらゆり", "P29_005": "埼玉県蓮田市御前橋1-5-5", "P29_006": "4", "P29_007": "0", "P29_008": "00", "P29_009": null }, "geometry": { "type": "Point", "coordinates": [ 139.648830000345725, 35.977386000896907 ] } },
{ "type": "Feature", "properties": { "P29_001": "11241", "P29_002": "A211324100015", "P29_003": "16013", "P29_004": "認定こども園つるがしま白百合幼稚園", "P29_005": "埼玉県鶴ヶ島市下新田388", "P29_006": "4", "P29_007": "0", "P29_008": "00", "P29_009": null }, "geometry": { "type": "Point", "coordinates": [ 139.37850000905479, 35.941249883016887 ] } },
{ "type": "Feature", "properties": { "P29_001": "11242", "P29_002": "A211324200014", "P29_003": "16013", "P29_004": "フレンド認定こども園", "P29_005": "埼玉県日高市大字台589-9", "P29_006": "4", "P29_007": "0", "P29_008": "00", "P29_009": null }, "geometry": { "type": "Point", "coordinates": [ 139.303968005447103, 35.877556996170206 ] } },
{ "type": "Feature", "properties": { "P29_001": "11242", "P29_002": "A211324200023", "P29_003": "16013", "P29_004": "日高ふじみだい認定こども園", "P29_005": "埼玉県日高市大字新堀150-3", "P29_006": "4", "P29_007": "0", "P29_008": "00", "P29_009": null }, "geometry": { "type": "Point", "coordinates": [ 139.331022248409113, 35.896938288325678 ] } },
{ "type": "Feature", "properties": { "P29_001": "11245", "P29_002": "A211324500011", "P29_003": "16013", "P29_004": "幼保連携型認定こども園星和幼稚園", "P29_005": "埼玉県ふじみ野市元福岡3-15-1", "P29_006": "4", "P29_007": "0", "P29_008": "00", "P29_009": null }, "geometry": { "type": "Point", "coordinates": [ 139.515352997452737, 35.887103998887341 ] } },
{ "type": "Feature", "properties": { "P29_001": "11245", "P29_002": "A211324500020", "P29_003": "16013", "P29_004": "子どものその幼保連携型認定こども園", "P29_005": "埼玉県ふじみ野市中福岡79-1", "P29_006": "4", "P29_007": "0", "P29_008": "00", "P29_009": null }, "geometry": { "type": "Point", "coordinates": [ 139.5391833860769, 35.877938344302926 ] } },
{ "type": "Feature", "properties": { "P29_001": "11324", "P29_002": "A211332400015", "P29_003": "16013", "P29_004": "幼保連携型認定こども園こすず幼稚園", "P29_005": "埼玉県入間郡三芳町大字北永井字宮前72-1", "P29_006": "4", "P29_007": "0", "P29_008": "00", "P29_009": null }, "geometry": { "type": "Point", "coordinates": [ 139.508593590909129, 35.842783800847691 ] } },
{ "type": "Feature", "properties": { "P29_001": "11326", "P29_002": "A211332600013", "P29_003": "16013", "P29_004": "ときわぎこども園", "P29_005": "埼玉県入間郡毛呂山町平山2-11-1", "P29_006": "4", "P29_007": "0", "P29_008": "00", "P29_009": null }, "geometry": { "type": "Point", "coordinates": [ 139.311641998415524, 35.949006999851086 ] } },
{ "type": "Feature", "properties": { "P29_001": "11341", "P29_002": "A211334100014", "P29_003": "16013", "P29_004": "ハルムこどもえん", "P29_005": "埼玉県比企郡滑川町大字羽尾1830", "P29_006": "4", "P29_007": "0", "P29_008": "00", "P29_009": null }, "geometry": { "type": "Point", "coordinates": [ 139.354947999324708, 36.052009997557697 ] } },
{ "type": "Feature", "properties": { "P29_001": "11361", "P29_002": "A211336100019", "P29_003": "16013", "P29_004": "認定こども園秩父ほうしょう幼稚園", "P29_005": "埼玉県秩父郡横瀬町大字横瀬6208-1", "P29_006": "4", "P29_007": "0", "P29_008": "00", "P29_009": null }, "geometry": { "type": "Point", "coordinates": [ 139.104163343151612, 35.997598851256562 ] } },
{ "type": "Feature", "properties": { "P29_001": "11381", "P29_002": "A211338100015", "P29_003": "16013", "P29_004": "幼保連携型認定こども園美里さくら幼稚園", "P29_005": "埼玉県児玉郡美里町大字阿那志字川原273-1", "P29_006": "4", "P29_007": "0", "P29_008": "00", "P29_009": null }, "geometry": { "type": "Point", "coordinates": [ 139.184488880175252, 36.203605235242563 ] } },
{ "type": "Feature", "properties": { "P29_001": "11385", "P29_002": "A211338500011", "P29_003": "16013", "P29_004": "萌美チェリッシュこども園", "P29_005": "埼玉県児玉郡上里町大字金久保1560", "P29_006": "4", "P29_007": "0", "P29_008": "00", "P29_009": null }, "geometry": { "type": "Point", "coordinates": [ 139.139536999814624, 36.267252001030037 ] } },
{ "type": "Feature", "properties": { "P29_001": "11465", "P29_002": "A211346500014", "P29_003": "16013", "P29_004": "みどりの丘こども園", "P29_005": "埼玉県北葛飾郡松伏町大川戸2174", "P29_006": "4", "P29_007": "0", "P29_008": "00", "P29_009": null }, "geometry": { "type": "Point", "coordinates": [ 139.810290991034549, 35.941540703487483 ] } },
{ "type": "Feature", "properties": { "P29_001": "11465", "P29_002": "A211346500023", "P29_003": "16013", "P29_004": "こどものもり", "P29_005": "埼玉県北葛飾郡松伏町田中1-7-31", "P29_006": "4", "P29_007": "0", "P29_008": "00", "P29_009": null }, "geometry": { "type": "Point", "coordinates": [ 139.813016997980412, 35.924665001029759 ] } },
{ "type": "Feature", "properties": { "P29_001": "11217", "P29_002": "A211346500032", "P29_003": "16013", "P29_004": "鴻巣英和こども園", "P29_005": "埼玉県鴻巣市東1-1-27", "P29_006": "4", "P29_007": "0", "P29_008": "00", "P29_009": null }, "geometry": { "type": "Point", "coordinates": [ 139.515643739362844, 36.06219412181165 ] } },
{ "type": "Feature", "properties": { "P29_001": "11202", "P29_002": "A211320200058", "P29_003": "16013", "P29_004": "幼保連携型認定こども園篭原さみどり認定こども園", "P29_005": "埼玉県新堀字寺前546", "P29_006": "4", "P29_007": "0", "P29_008": "00", "P29_009": null }, "geometry": { "type": "Point", "coordinates": [ 139.333649219173537, 36.172268781513395 ] } }
]
}
