{
"type": "FeatureCollection",
"name": "geo_11_夜間対応型訪問介護",
"crs": { "type": "name", "properties": { "name": "urn:ogc:def:crs:OGC:1.3:CRS84" } },
"features": [
{ "type": "Feature", "properties": { "内容": "ケアセンターかがやき【夜間対応型訪問介護】埼玉県川口市西青木5-1-40", "url": "https://www.kaigokensaku.mhlw.go.jp/11/index.php?action_kouhyou_detail_004_kani=true&JigyosyoCd=1190200707-00&ServiceCd=710&Type=search", "url2": "https://www.mcp-saitama.or.jp/" }, "geometry": { "type": "Point", "coordinates": [ 139.716072571072033, 35.820930278243566 ] } },
{ "type": "Feature", "properties": { "内容": "エイプレイス川口【夜間対応型訪問介護】埼玉県川口市幸町2‐15‐8第Ⅱ福富ビル", "url": "https://www.kaigokensaku.mhlw.go.jp/11/index.php?action_kouhyou_detail_004_kani=true&JigyosyoCd=1190201028-00&ServiceCd=710&Type=search", "url2": "https://www.a-place.co.jp" }, "geometry": { "type": "Point", "coordinates": [ 139.720080200000012, 35.8065386 ] } },
{ "type": "Feature", "properties": { "内容": "定期巡回・随時対応サービス　ひのき和光ステーション【夜間対応型訪問介護】埼玉県和光市南1-11-76第二福寿ビル101", "url": "https://www.kaigokensaku.mhlw.go.jp/11/index.php?action_kouhyou_detail_004_kani=true&JigyosyoCd=1192300299-00&ServiceCd=710&Type=search", "url2": null }, "geometry": { "type": "Point", "coordinates": [ 139.6140221, 35.7718624 ] } },
{ "type": "Feature", "properties": { "内容": "夜間対応型訪問介護　　ケアナイト【夜間対応型訪問介護】埼玉県久喜市青葉４－２４－１８", "url": "https://www.kaigokensaku.mhlw.go.jp/11/index.php?action_kouhyou_detail_004_kani=true&JigyosyoCd=1190900025-00&ServiceCd=710&Type=search", "url2": "npo-ikiiki-seikatsu-.com" }, "geometry": { "type": "Point", "coordinates": [ 139.701265599999942, 36.0688309 ] } }
]
}
