{
"type": "FeatureCollection",
"name": "geo_11_地域密着型特定施設入居者生活介護（軽費老人ホーム）",
"crs": { "type": "name", "properties": { "name": "urn:ogc:def:crs:OGC:1.3:CRS84" } },
"features": [
{ "type": "Feature", "properties": { "内容": "地域密着型ケアハウス　飛鳥野の森【地域密着型特定施設入居者生活介護（軽費老人ホーム）】所沢市神米金５０５－１地域密着型高齢者施設　飛鳥野の森", "url": "https://www.kaigokensaku.mhlw.go.jp/11/index.php?action_kouhyou_detail_004_kani=true&JigyosyoCd=1192500013-00&ServiceCd=362&Type=search", "url2": "http://care-net.biz/11/asukano/" }, "geometry": { "type": "Point", "coordinates": [ 139.453530199999932, 35.8218544 ] } },
{ "type": "Feature", "properties": { "内容": "ケアハウスみずほの里【地域密着型特定施設入居者生活介護（軽費老人ホーム）】埼玉県加須市平永142", "url": "https://www.kaigokensaku.mhlw.go.jp/11/index.php?action_kouhyou_detail_004_kani=true&JigyosyoCd=1193800149-00&ServiceCd=362&Type=search", "url2": "http://www.sakitamakai.jp" }, "geometry": { "type": "Point", "coordinates": [ 139.569259, 36.1259257 ] } },
{ "type": "Feature", "properties": { "内容": "グリーンピース【地域密着型特定施設入居者生活介護（軽費老人ホーム）】埼玉県本庄市栗崎１０５－１", "url": "https://www.kaigokensaku.mhlw.go.jp/11/index.php?action_kouhyou_detail_004_kani=true&JigyosyoCd=1194300149-00&ServiceCd=362&Type=search", "url2": "yuwa.or.jp" }, "geometry": { "type": "Point", "coordinates": [ 139.187481968894957, 36.216310142828526 ] } },
{ "type": "Feature", "properties": { "内容": "地域密着型特定施設入居者生活介護ケアハウス桜の里【地域密着型特定施設入居者生活介護（軽費老人ホーム）】和光市新倉８－２３－２", "url": "https://www.kaigokensaku.mhlw.go.jp/11/index.php?action_kouhyou_detail_004_kani=true&JigyosyoCd=1192300075-00&ServiceCd=362&Type=search", "url2": "http://www.fukusi.or.jp/" }, "geometry": { "type": "Point", "coordinates": [ 139.631379700000025, 35.8019945 ] } },
{ "type": "Feature", "properties": { "内容": "地域密着型軽費老人ホームみゆきの里【地域密着型特定施設入居者生活介護（軽費老人ホーム）】埼玉県幸手市松石東220番2", "url": "https://www.kaigokensaku.mhlw.go.jp/11/index.php?action_kouhyou_detail_004_kani=true&JigyosyoCd=1196100026-00&ServiceCd=362&Type=search", "url2": "http://miyukinosato.on.omisenomikata.jp/" }, "geometry": { "type": "Point", "coordinates": [ 139.715021900000011, 36.0904204 ] } }
]
}
