{
"type": "FeatureCollection",
"name": "geo_11_高校",
"crs": { "type": "name", "properties": { "name": "urn:ogc:def:crs:EPSG::6668" } },
"features": [
{ "type": "Feature", "properties": { "P29_001": "11239", "P29_002": "D111110000014", "P29_003": "16004", "P29_004": "筑波大学附属坂戸高等学校", "P29_005": "埼玉県坂戸市千代田1-24-1", "P29_006": "1", "P29_007": "0", "P29_008": "00", "P29_009": null }, "geometry": { "type": "Point", "coordinates": [ 139.4054356416936, 35.952756487225692 ] } },
{ "type": "Feature", "properties": { "P29_001": "11107", "P29_002": "D111210000012", "P29_003": "16004", "P29_004": "埼玉県立浦和高等学校", "P29_005": "埼玉県さいたま市浦和区領家5-3-3", "P29_006": "2", "P29_007": "0", "P29_008": "00", "P29_009": null }, "geometry": { "type": "Point", "coordinates": [ 139.651738741052668, 35.878238212533944 ] } },
{ "type": "Feature", "properties": { "P29_001": "11202", "P29_002": "D111210000021", "P29_003": "16004", "P29_004": "埼玉県立熊谷高等学校", "P29_005": "埼玉県熊谷市大原1-9-1", "P29_006": "2", "P29_007": "0", "P29_008": "00", "P29_009": null }, "geometry": { "type": "Point", "coordinates": [ 139.379536005976945, 36.154249996202914 ] } },
{ "type": "Feature", "properties": { "P29_001": "11201", "P29_002": "D111210000030", "P29_003": "16004", "P29_004": "埼玉県立川越高等学校", "P29_005": "埼玉県川越市郭町2-6", "P29_006": "2", "P29_007": "0", "P29_008": "00", "P29_009": null }, "geometry": { "type": "Point", "coordinates": [ 139.489725996103715, 35.923812000035966 ] } },
{ "type": "Feature", "properties": { "P29_001": "11214", "P29_002": "D111210000049", "P29_003": "16004", "P29_004": "埼玉県立春日部高等学校", "P29_005": "埼玉県春日部市粕壁5539", "P29_006": "2", "P29_007": "0", "P29_008": "00", "P29_009": null }, "geometry": { "type": "Point", "coordinates": [ 139.741469612580232, 35.979234104298705 ] } },
{ "type": "Feature", "properties": { "P29_001": "11107", "P29_002": "D111210000058", "P29_003": "16004", "P29_004": "埼玉県立浦和第一女子高等学校", "P29_005": "埼玉県さいたま市浦和区岸町3-8-45", "P29_006": "2", "P29_007": "0", "P29_008": "00", "P29_009": null }, "geometry": { "type": "Point", "coordinates": [ 139.658185903956337, 35.852739589357853 ] } },
{ "type": "Feature", "properties": { "P29_001": "11202", "P29_002": "D111210000067", "P29_003": "16004", "P29_004": "埼玉県立熊谷農業高等学校", "P29_005": "埼玉県熊谷市大原3-3-1", "P29_006": "2", "P29_007": "0", "P29_008": "00", "P29_009": null }, "geometry": { "type": "Point", "coordinates": [ 139.378117036560525, 36.153822252731963 ] } },
{ "type": "Feature", "properties": { "P29_001": "11202", "P29_002": "D111210000076", "P29_003": "16004", "P29_004": "埼玉県立熊谷女子高等学校", "P29_005": "埼玉県熊谷市末広2-131", "P29_006": "2", "P29_007": "0", "P29_008": "00", "P29_009": null }, "geometry": { "type": "Point", "coordinates": [ 139.391922786942985, 36.144743136785621 ] } },
{ "type": "Feature", "properties": { "P29_001": "11201", "P29_002": "D111210000085", "P29_003": "16004", "P29_004": "埼玉県立川越女子高等学校", "P29_005": "埼玉県川越市六軒町1-23", "P29_006": "2", "P29_007": "0", "P29_008": "00", "P29_009": null }, "geometry": { "type": "Point", "coordinates": [ 139.478865997408008, 35.915590001250308 ] } },
{ "type": "Feature", "properties": { "P29_001": "11201", "P29_002": "D111210000094", "P29_003": "16004", "P29_004": "埼玉県立川越工業高等学校", "P29_005": "埼玉県川越市西小仙波町2-28-1", "P29_006": "2", "P29_007": "0", "P29_008": "00", "P29_009": null }, "geometry": { "type": "Point", "coordinates": [ 139.487503999065524, 35.913396004309732 ] } },
{ "type": "Feature", "properties": { "P29_001": "11201", "P29_002": "D111210000101", "P29_003": "16004", "P29_004": "埼玉県立川越総合高等学校", "P29_005": "埼玉県川越市小仙波町5-14", "P29_006": "2", "P29_007": "0", "P29_008": "00", "P29_009": null }, "geometry": { "type": "Point", "coordinates": [ 139.491975995097107, 35.915479998120141 ] } },
{ "type": "Feature", "properties": { "P29_001": "11232", "P29_002": "D111210000110", "P29_003": "16004", "P29_004": "埼玉県立久喜高等学校", "P29_005": "埼玉県久喜市本町3-12-1", "P29_006": "2", "P29_007": "0", "P29_008": "00", "P29_009": null }, "geometry": { "type": "Point", "coordinates": [ 139.668040440245647, 36.06654233800284 ] } },
{ "type": "Feature", "properties": { "P29_001": "11210", "P29_002": "D111210000129", "P29_003": "16004", "P29_004": "埼玉県立不動岡高等学校", "P29_005": "埼玉県加須市不動岡1-7-45", "P29_006": "2", "P29_007": "0", "P29_008": "00", "P29_009": null }, "geometry": { "type": "Point", "coordinates": [ 139.591436848296468, 36.133668131813096 ] } },
{ "type": "Feature", "properties": { "P29_001": "11207", "P29_002": "D111210000138", "P29_003": "16004", "P29_004": "埼玉県立秩父農工科学高等学校", "P29_005": "埼玉県秩父市大野原2000", "P29_006": "2", "P29_007": "0", "P29_008": "00", "P29_009": null }, "geometry": { "type": "Point", "coordinates": [ 139.091415984256429, 36.022341181233031 ] } },
{ "type": "Feature", "properties": { "P29_001": "11211", "P29_002": "D111210000147", "P29_003": "16004", "P29_004": "埼玉県立本庄高等学校", "P29_005": "埼玉県本庄市柏1-4-1", "P29_006": "2", "P29_007": "0", "P29_008": "00", "P29_009": null }, "geometry": { "type": "Point", "coordinates": [ 139.175939004590816, 36.234069998342257 ] } },
{ "type": "Feature", "properties": { "P29_001": "11212", "P29_002": "D111210000156", "P29_003": "16004", "P29_004": "埼玉県立松山高等学校", "P29_005": "埼玉県東松山市松山町1-6-10", "P29_006": "2", "P29_007": "0", "P29_008": "00", "P29_009": null }, "geometry": { "type": "Point", "coordinates": [ 139.396622000997525, 36.045403996262166 ] } },
{ "type": "Feature", "properties": { "P29_001": "11218", "P29_002": "D111210000165", "P29_003": "16004", "P29_004": "埼玉県立深谷商業高等学校", "P29_005": "埼玉県深谷市原郷80", "P29_006": "2", "P29_007": "0", "P29_008": "00", "P29_009": null }, "geometry": { "type": "Point", "coordinates": [ 139.292179001527927, 36.197605000695937 ] } },
{ "type": "Feature", "properties": { "P29_001": "11464", "P29_002": "D111210000174", "P29_003": "16004", "P29_004": "埼玉県立杉戸農業高等学校", "P29_005": "埼玉県北葛飾郡杉戸町堤根1684-1", "P29_006": "2", "P29_007": "0", "P29_008": "00", "P29_009": null }, "geometry": { "type": "Point", "coordinates": [ 139.749239856702559, 36.024109531927614 ] } },
{ "type": "Feature", "properties": { "P29_001": "11206", "P29_002": "D111210000183", "P29_003": "16004", "P29_004": "埼玉県立進修館高等学校", "P29_005": "埼玉県行田市長野1320", "P29_006": "2", "P29_007": "0", "P29_008": "00", "P29_009": null }, "geometry": { "type": "Point", "coordinates": [ 139.466077339193248, 36.151736573251711 ] } },
{ "type": "Feature", "properties": { "P29_001": "11343", "P29_002": "D111210000192", "P29_003": "16004", "P29_004": "埼玉県立小川高等学校", "P29_005": "埼玉県比企郡小川町大塚1105", "P29_006": "2", "P29_007": "0", "P29_008": "00", "P29_009": null }, "geometry": { "type": "Point", "coordinates": [ 139.261758884926735, 36.059495632591023 ] } },
{ "type": "Feature", "properties": { "P29_001": "11207", "P29_002": "D111210000209", "P29_003": "16004", "P29_004": "埼玉県立秩父高等学校", "P29_005": "埼玉県秩父市上町2-23-45", "P29_006": "2", "P29_007": "0", "P29_008": "00", "P29_009": null }, "geometry": { "type": "Point", "coordinates": [ 139.074986999683603, 35.992349000467165 ] } },
{ "type": "Feature", "properties": { "P29_001": "11214", "P29_002": "D111210000218", "P29_003": "16004", "P29_004": "埼玉県立春日部女子高等学校", "P29_005": "埼玉県春日部市粕壁東6-1-1", "P29_006": "2", "P29_007": "0", "P29_008": "00", "P29_009": null }, "geometry": { "type": "Point", "coordinates": [ 139.767173352970048, 35.979826754953379 ] } },
{ "type": "Feature", "properties": { "P29_001": "11211", "P29_002": "D111210000227", "P29_003": "16004", "P29_004": "埼玉県立児玉高等学校", "P29_005": "埼玉県本庄市児玉町金屋980", "P29_006": "2", "P29_007": "0", "P29_008": "00", "P29_009": null }, "geometry": { "type": "Point", "coordinates": [ 139.119534906526468, 36.18813576526891 ] } },
{ "type": "Feature", "properties": { "P29_001": "11209", "P29_002": "D111210000236", "P29_003": "16004", "P29_004": "埼玉県立飯能高等学校", "P29_005": "埼玉県飯能市本町17-13", "P29_006": "2", "P29_007": "0", "P29_008": "00", "P29_009": null }, "geometry": { "type": "Point", "coordinates": [ 139.318343438231068, 35.858073968920131 ] } },
{ "type": "Feature", "properties": { "P29_001": "11222", "P29_002": "D111210000245", "P29_003": "16004", "P29_004": "埼玉県立越ヶ谷高等学校", "P29_005": "埼玉県越谷市越ヶ谷2788-1", "P29_006": "2", "P29_007": "0", "P29_008": "00", "P29_009": null }, "geometry": { "type": "Point", "coordinates": [ 139.791454758079567, 35.898885258738346 ] } },
{ "type": "Feature", "properties": { "P29_001": "11107", "P29_002": "D111210000254", "P29_003": "16004", "P29_004": "埼玉県立浦和西高等学校", "P29_005": "埼玉県さいたま市浦和区木崎3-1-1", "P29_006": "2", "P29_007": "0", "P29_008": "00", "P29_009": null }, "geometry": { "type": "Point", "coordinates": [ 139.654248841807686, 35.889380367061889 ] } },
{ "type": "Feature", "properties": { "P29_001": "11203", "P29_002": "D111210000263", "P29_003": "16004", "P29_004": "埼玉県立川口工業高等学校", "P29_005": "埼玉県川口市南前川1-10-1", "P29_006": "2", "P29_007": "0", "P29_008": "00", "P29_009": null }, "geometry": { "type": "Point", "coordinates": [ 139.708063714659062, 35.827785665880242 ] } },
{ "type": "Feature", "properties": { "P29_001": "11240", "P29_002": "D111210000272", "P29_003": "16004", "P29_004": "埼玉県立幸手桜高等学校", "P29_005": "埼玉県幸手市北1-17-59", "P29_006": "2", "P29_007": "0", "P29_008": "00", "P29_009": null }, "geometry": { "type": "Point", "coordinates": [ 139.719559000120881, 36.086056996076955 ] } },
{ "type": "Feature", "properties": { "P29_001": "11225", "P29_002": "D111210000281", "P29_003": "16004", "P29_004": "埼玉県立豊岡高等学校", "P29_005": "埼玉県入間市豊岡1-15-1", "P29_006": "2", "P29_007": "0", "P29_008": "00", "P29_009": null }, "geometry": { "type": "Point", "coordinates": [ 139.390541832724494, 35.83804024077606 ] } },
{ "type": "Feature", "properties": { "P29_001": "11216", "P29_002": "D111210000290", "P29_003": "16004", "P29_004": "埼玉県立羽生実業高等学校", "P29_005": "埼玉県羽生市大字羽生323", "P29_006": "2", "P29_007": "0", "P29_008": "00", "P29_009": null }, "geometry": { "type": "Point", "coordinates": [ 139.527909109764209, 36.178094254353802 ] } },
{ "type": "Feature", "properties": { "P29_001": "11212", "P29_002": "D111210000307", "P29_003": "16004", "P29_004": "埼玉県立松山女子高等学校", "P29_005": "埼玉県東松山市和泉町2-22", "P29_006": "2", "P29_007": "0", "P29_008": "00", "P29_009": null }, "geometry": { "type": "Point", "coordinates": [ 139.3950625750565, 36.032670970372287 ] } },
{ "type": "Feature", "properties": { "P29_001": "11217", "P29_002": "D111210000316", "P29_003": "16004", "P29_004": "埼玉県立鴻巣高等学校", "P29_005": "埼玉県鴻巣市大間1020", "P29_006": "2", "P29_007": "0", "P29_008": "00", "P29_009": null }, "geometry": { "type": "Point", "coordinates": [ 139.500760614310281, 36.059826766194881 ] } },
{ "type": "Feature", "properties": { "P29_001": "11218", "P29_002": "D111210000325", "P29_003": "16004", "P29_004": "埼玉県立深谷第一高等学校", "P29_005": "埼玉県深谷市常盤町21-1", "P29_006": "2", "P29_007": "0", "P29_008": "00", "P29_009": null }, "geometry": { "type": "Point", "coordinates": [ 139.296944721656985, 36.195469712184703 ] } },
{ "type": "Feature", "properties": { "P29_001": "11103", "P29_002": "D111210000334", "P29_003": "16004", "P29_004": "埼玉県立大宮高等学校", "P29_005": "埼玉県さいたま市大宮区天沼町2-323", "P29_006": "2", "P29_007": "0", "P29_008": "00", "P29_009": null }, "geometry": { "type": "Point", "coordinates": [ 139.636616787010212, 35.900060838344508 ] } },
{ "type": "Feature", "properties": { "P29_001": "11203", "P29_002": "D111210000343", "P29_003": "16004", "P29_004": "埼玉県立川口高等学校", "P29_005": "埼玉県川口市新井宿諏訪山963", "P29_006": "2", "P29_007": "0", "P29_008": "00", "P29_009": null }, "geometry": { "type": "Point", "coordinates": [ 139.731056745413326, 35.839617715119374 ] } },
{ "type": "Feature", "properties": { "P29_001": "11110", "P29_002": "D111210000352", "P29_003": "16004", "P29_004": "埼玉県立岩槻商業高等学校", "P29_005": "埼玉県さいたま市岩槻区太田1-4-1", "P29_006": "2", "P29_007": "0", "P29_008": "00", "P29_009": null }, "geometry": { "type": "Point", "coordinates": [ 139.704685098311899, 35.950324794945551 ] } },
{ "type": "Feature", "properties": { "P29_001": "11208", "P29_002": "D111210000361", "P29_003": "16004", "P29_004": "埼玉県立所沢高等学校", "P29_005": "埼玉県所沢市久米1234", "P29_006": "2", "P29_007": "0", "P29_008": "00", "P29_009": null }, "geometry": { "type": "Point", "coordinates": [ 139.46070499587799, 35.784884000342032 ] } },
{ "type": "Feature", "properties": { "P29_001": "11365", "P29_002": "D111210000370", "P29_003": "16004", "P29_004": "埼玉県立小鹿野高等学校", "P29_005": "埼玉県秩父郡小鹿野町小鹿野962-1", "P29_006": "2", "P29_007": "0", "P29_008": "00", "P29_009": null }, "geometry": { "type": "Point", "coordinates": [ 138.997504648046061, 36.024883392463721 ] } },
{ "type": "Feature", "properties": { "P29_001": "11105", "P29_002": "D111210000389", "P29_003": "16004", "P29_004": "埼玉県立与野高等学校", "P29_005": "埼玉県さいたま市中央区本町西2-8-1", "P29_006": "2", "P29_007": "0", "P29_008": "00", "P29_009": null }, "geometry": { "type": "Point", "coordinates": [ 139.618724287920799, 35.884498982346742 ] } },
{ "type": "Feature", "properties": { "P29_001": "11108", "P29_002": "D111210000398", "P29_003": "16004", "P29_004": "埼玉県立浦和商業高等学校", "P29_005": "埼玉県さいたま市南区白幡2-19-39", "P29_006": "2", "P29_007": "0", "P29_008": "00", "P29_009": null }, "geometry": { "type": "Point", "coordinates": [ 139.651743000438415, 35.849712999184746 ] } },
{ "type": "Feature", "properties": { "P29_001": "11104", "P29_002": "D111210000405", "P29_003": "16004", "P29_004": "埼玉県立大宮商業高等学校", "P29_005": "埼玉県さいたま市見沼区大和田町1-356", "P29_006": "2", "P29_007": "0", "P29_008": "00", "P29_009": null }, "geometry": { "type": "Point", "coordinates": [ 139.645355250770251, 35.927437875540008 ] } },
{ "type": "Feature", "properties": { "P29_001": "11202", "P29_002": "D111210000414", "P29_003": "16004", "P29_004": "埼玉県立熊谷商業高等学校", "P29_005": "埼玉県熊谷市広瀬800", "P29_006": "2", "P29_007": "0", "P29_008": "00", "P29_009": null }, "geometry": { "type": "Point", "coordinates": [ 139.356127786174682, 36.149004214099875 ] } },
{ "type": "Feature", "properties": { "P29_001": "11202", "P29_002": "D111210000423", "P29_003": "16004", "P29_004": "埼玉県立熊谷工業高等学校", "P29_005": "埼玉県熊谷市小島820", "P29_006": "2", "P29_007": "0", "P29_008": "00", "P29_009": null }, "geometry": { "type": "Point", "coordinates": [ 139.355263798406639, 36.156695016208971 ] } },
{ "type": "Feature", "properties": { "P29_001": "11223", "P29_002": "D111210000432", "P29_003": "16004", "P29_004": "埼玉県立蕨高等学校", "P29_005": "埼玉県蕨市北町5-3-8", "P29_006": "2", "P29_007": "0", "P29_008": "00", "P29_009": null }, "geometry": { "type": "Point", "coordinates": [ 139.674303251514516, 35.832914929936408 ] } },
{ "type": "Feature", "properties": { "P29_001": "11219", "P29_002": "D111210000441", "P29_003": "16004", "P29_004": "埼玉県立上尾高等学校", "P29_005": "埼玉県上尾市浅間台1-6-1", "P29_006": "2", "P29_007": "0", "P29_008": "00", "P29_009": null }, "geometry": { "type": "Point", "coordinates": [ 139.57613766727232, 35.984472253624297 ] } },
{ "type": "Feature", "properties": { "P29_001": "11106", "P29_002": "D111210000450", "P29_003": "16004", "P29_004": "埼玉県立浦和工業高等学校", "P29_005": "埼玉県さいたま市桜区西堀5-1-1", "P29_006": "2", "P29_007": "0", "P29_008": "00", "P29_009": null }, "geometry": { "type": "Point", "coordinates": [ 139.627130575768604, 35.853372908172673 ] } },
{ "type": "Feature", "properties": { "P29_001": "11221", "P29_002": "D111210000469", "P29_003": "16004", "P29_004": "埼玉県立草加高等学校", "P29_005": "埼玉県草加市青柳5-3-1", "P29_006": "2", "P29_007": "0", "P29_008": "00", "P29_009": null }, "geometry": { "type": "Point", "coordinates": [ 139.812848027980152, 35.853054600113026 ] } },
{ "type": "Feature", "properties": { "P29_001": "11105", "P29_002": "D111210000478", "P29_003": "16004", "P29_004": "埼玉県立いずみ高等学校", "P29_005": "埼玉県さいたま市中央区円阿弥7-4-1", "P29_006": "2", "P29_007": "0", "P29_008": "00", "P29_009": null }, "geometry": { "type": "Point", "coordinates": [ 139.611196417608568, 35.894243296626634 ] } },
{ "type": "Feature", "properties": { "P29_001": "11215", "P29_002": "D111210000487", "P29_003": "16004", "P29_004": "埼玉県立狭山工業高等学校", "P29_005": "埼玉県狭山市富士見2-5-1", "P29_006": "2", "P29_007": "0", "P29_008": "00", "P29_009": null }, "geometry": { "type": "Point", "coordinates": [ 139.419692117461665, 35.848599612906369 ] } },
{ "type": "Feature", "properties": { "P29_001": "11408", "P29_002": "D111210000496", "P29_003": "16004", "P29_004": "埼玉県立寄居城北高等学校", "P29_005": "埼玉県大里郡寄居町桜沢2601", "P29_006": "2", "P29_007": "0", "P29_008": "00", "P29_009": null }, "geometry": { "type": "Point", "coordinates": [ 139.208336469763594, 36.131411999254638 ] } },
{ "type": "Feature", "properties": { "P29_001": "11102", "P29_002": "D111210000502", "P29_003": "16004", "P29_004": "埼玉県立大宮工業高等学校", "P29_005": "埼玉県さいたま市北区本郷町1970", "P29_006": "2", "P29_007": "0", "P29_008": "00", "P29_009": null }, "geometry": { "type": "Point", "coordinates": [ 139.627949819928347, 35.948230045708179 ] } },
{ "type": "Feature", "properties": { "P29_001": "11227", "P29_002": "D111210000511", "P29_003": "16004", "P29_004": "埼玉県立朝霞高等学校", "P29_005": "埼玉県朝霞市幸町3-13-65", "P29_006": "2", "P29_007": "0", "P29_008": "00", "P29_009": null }, "geometry": { "type": "Point", "coordinates": [ 139.589527999940941, 35.787831003676587 ] } },
{ "type": "Feature", "properties": { "P29_001": "11232", "P29_002": "D111210000520", "P29_003": "16004", "P29_004": "埼玉県立久喜工業高等学校", "P29_005": "埼玉県久喜市野久喜474", "P29_006": "2", "P29_007": "0", "P29_008": "00", "P29_009": null }, "geometry": { "type": "Point", "coordinates": [ 139.685813997428596, 36.071852004387061 ] } },
{ "type": "Feature", "properties": { "P29_001": "11224", "P29_002": "D111210000539", "P29_003": "16004", "P29_004": "埼玉県立戸田翔陽高等学校", "P29_005": "埼玉県戸田市新曽1093-1", "P29_006": "2", "P29_007": "0", "P29_008": "00", "P29_009": null }, "geometry": { "type": "Point", "coordinates": [ 139.664949741208829, 35.819018340721875 ] } },
{ "type": "Feature", "properties": { "P29_001": "11214", "P29_002": "D111210000548", "P29_003": "16004", "P29_004": "埼玉県立春日部工業高等学校", "P29_005": "埼玉県春日部市梅田本町1-1-1", "P29_006": "2", "P29_007": "0", "P29_008": "00", "P29_009": null }, "geometry": { "type": "Point", "coordinates": [ 139.745951003278662, 35.99005700422078 ] } },
{ "type": "Feature", "properties": { "P29_001": "11215", "P29_002": "D111210000557", "P29_003": "16004", "P29_004": "埼玉県立狭山緑陽高等学校", "P29_005": "埼玉県狭山市広瀬東4-3-1", "P29_006": "2", "P29_007": "0", "P29_008": "00", "P29_009": null }, "geometry": { "type": "Point", "coordinates": [ 139.396570000754934, 35.864622997487132 ] } },
{ "type": "Feature", "properties": { "P29_001": "11217", "P29_002": "D111210000566", "P29_003": "16004", "P29_004": "埼玉県立鴻巣女子高等学校", "P29_005": "埼玉県鴻巣市天神1-1-72", "P29_006": "2", "P29_007": "0", "P29_008": "00", "P29_009": null }, "geometry": { "type": "Point", "coordinates": [ 139.517968999129323, 36.060155998397903 ] } },
{ "type": "Feature", "properties": { "P29_001": "11110", "P29_002": "D111210000575", "P29_003": "16004", "P29_004": "埼玉県立岩槻高等学校", "P29_005": "埼玉県さいたま市岩槻区城南1-3-38", "P29_006": "2", "P29_007": "0", "P29_008": "00", "P29_009": null }, "geometry": { "type": "Point", "coordinates": [ 139.704068004621774, 35.941814995198754 ] } },
{ "type": "Feature", "properties": { "P29_001": "11362", "P29_002": "D111210000584", "P29_003": "16004", "P29_004": "埼玉県立皆野高等学校", "P29_005": "埼玉県秩父郡皆野町大渕19-1", "P29_006": "2", "P29_007": "0", "P29_008": "00", "P29_009": null }, "geometry": { "type": "Point", "coordinates": [ 139.088999938370563, 36.077342161620855 ] } },
{ "type": "Feature", "properties": { "P29_001": "11222", "P29_002": "D111210000593", "P29_003": "16004", "P29_004": "埼玉県立越谷北高等学校", "P29_005": "埼玉県越谷市大泊500-1", "P29_006": "2", "P29_007": "0", "P29_008": "00", "P29_009": null }, "geometry": { "type": "Point", "coordinates": [ 139.787392750633273, 35.937314998246734 ] } },
{ "type": "Feature", "properties": { "P29_001": "11208", "P29_002": "D111210000600", "P29_003": "16004", "P29_004": "埼玉県立所沢商業高等学校", "P29_005": "埼玉県所沢市林2-88", "P29_006": "2", "P29_007": "0", "P29_008": "00", "P29_009": null }, "geometry": { "type": "Point", "coordinates": [ 139.401214948118621, 35.801970357300249 ] } },
{ "type": "Feature", "properties": { "P29_001": "11216", "P29_002": "D111210000619", "P29_003": "16004", "P29_004": "埼玉県立誠和福祉高等学校", "P29_005": "埼玉県羽生市神戸706", "P29_006": "2", "P29_007": "0", "P29_008": "00", "P29_009": null }, "geometry": { "type": "Point", "coordinates": [ 139.561895072373488, 36.137501988734286 ] } },
{ "type": "Feature", "properties": { "P29_001": "11106", "P29_002": "D111210000628", "P29_003": "16004", "P29_004": "埼玉県立常盤高等学校", "P29_005": "埼玉県さいたま市桜区上大久保519-1", "P29_006": "2", "P29_007": "0", "P29_008": "00", "P29_009": null }, "geometry": { "type": "Point", "coordinates": [ 139.612921356462635, 35.870710517464758 ] } },
{ "type": "Feature", "properties": { "P29_001": "11239", "P29_002": "D111210000637", "P29_003": "16004", "P29_004": "埼玉県立坂戸高等学校", "P29_005": "埼玉県坂戸市上吉田586", "P29_006": "2", "P29_007": "0", "P29_008": "00", "P29_009": null }, "geometry": { "type": "Point", "coordinates": [ 139.401542002323112, 35.982270999034235 ] } },
{ "type": "Feature", "properties": { "P29_001": "11243", "P29_002": "D111210000646", "P29_003": "16004", "P29_004": "埼玉県立吉川美南高等学校", "P29_005": "埼玉県吉川市高久600", "P29_006": "2", "P29_007": "0", "P29_008": "00", "P29_009": null }, "geometry": { "type": "Point", "coordinates": [ 139.86518453164814, 35.873980993314404 ] } },
{ "type": "Feature", "properties": { "P29_001": "11229", "P29_002": "D111210000655", "P29_003": "16004", "P29_004": "埼玉県立和光高等学校", "P29_005": "埼玉県和光市新倉3-22-1", "P29_006": "2", "P29_007": "0", "P29_008": "00", "P29_009": null }, "geometry": { "type": "Point", "coordinates": [ 139.628048579464547, 35.797212197932453 ] } },
{ "type": "Feature", "properties": { "P29_001": "11231", "P29_002": "D111210000664", "P29_003": "16004", "P29_004": "埼玉県立桶川高等学校", "P29_005": "埼玉県桶川市大字坂田945", "P29_006": "2", "P29_007": "0", "P29_008": "00", "P29_009": null }, "geometry": { "type": "Point", "coordinates": [ 139.575076005039307, 36.019801996713333 ] } },
{ "type": "Feature", "properties": { "P29_001": "11327", "P29_002": "D111210000673", "P29_003": "16004", "P29_004": "埼玉県立越生高等学校", "P29_005": "埼玉県入間郡越生町西和田600", "P29_006": "2", "P29_007": "0", "P29_008": "00", "P29_009": null }, "geometry": { "type": "Point", "coordinates": [ 139.301550186682334, 35.972647969220745 ] } },
{ "type": "Feature", "properties": { "P29_001": "11230", "P29_002": "D111210000691", "P29_003": "16004", "P29_004": "埼玉県立新座高等学校", "P29_005": "埼玉県新座市池田1-1-2", "P29_006": "2", "P29_007": "0", "P29_008": "00", "P29_009": null }, "geometry": { "type": "Point", "coordinates": [ 139.573845625708969, 35.775470250405505 ] } },
{ "type": "Feature", "properties": { "P29_001": "11245", "P29_002": "D111210000708", "P29_003": "16004", "P29_004": "埼玉県立ふじみ野高等学校", "P29_005": "埼玉県ふじみ野市大井1158-1", "P29_006": "2", "P29_007": "0", "P29_008": "00", "P29_009": null }, "geometry": { "type": "Point", "coordinates": [ 139.510628001809607, 35.849653002546923 ] } },
{ "type": "Feature", "properties": { "P29_001": "11234", "P29_002": "D111210000717", "P29_003": "16004", "P29_004": "埼玉県立八潮高等学校", "P29_005": "埼玉県八潮市鶴ヶ曽根650", "P29_006": "2", "P29_007": "0", "P29_008": "00", "P29_009": null }, "geometry": { "type": "Point", "coordinates": [ 139.834803805779956, 35.830652897717911 ] } },
{ "type": "Feature", "properties": { "P29_001": "11246", "P29_002": "D111210000726", "P29_003": "16004", "P29_004": "埼玉県立蓮田松韻高等学校", "P29_005": "埼玉県蓮田市黒浜4088", "P29_006": "2", "P29_007": "0", "P29_008": "00", "P29_009": null }, "geometry": { "type": "Point", "coordinates": [ 139.674611162791592, 36.000624573326718 ] } },
{ "type": "Feature", "properties": { "P29_001": "11203", "P29_002": "D111210000735", "P29_003": "16004", "P29_004": "埼玉県立川口北高等学校", "P29_005": "埼玉県川口市木曽呂1477", "P29_006": "2", "P29_007": "0", "P29_008": "00", "P29_009": null }, "geometry": { "type": "Point", "coordinates": [ 139.71423699423184, 35.859490996849708 ] } },
{ "type": "Feature", "properties": { "P29_001": "11228", "P29_002": "D111210000744", "P29_003": "16004", "P29_004": "埼玉県立志木高等学校", "P29_005": "埼玉県志木市上宗岡1-1-1", "P29_006": "2", "P29_007": "0", "P29_008": "00", "P29_009": null }, "geometry": { "type": "Point", "coordinates": [ 139.580709793020247, 35.84108228416671 ] } },
{ "type": "Feature", "properties": { "P29_001": "11208", "P29_002": "D111210000753", "P29_003": "16004", "P29_004": "埼玉県立所沢北高等学校", "P29_005": "埼玉県所沢市並木5-4", "P29_006": "2", "P29_007": "0", "P29_008": "00", "P29_009": null }, "geometry": { "type": "Point", "coordinates": [ 139.462902277674317, 35.811263324356553 ] } },
{ "type": "Feature", "properties": { "P29_001": "11242", "P29_002": "D111210000762", "P29_003": "16004", "P29_004": "埼玉県立日高高等学校", "P29_005": "埼玉県日高市旭ヶ丘806", "P29_006": "2", "P29_007": "0", "P29_008": "00", "P29_009": null }, "geometry": { "type": "Point", "coordinates": [ 139.368404003423478, 35.908366003193187 ] } },
{ "type": "Feature", "properties": { "P29_001": "11218", "P29_002": "D111210000771", "P29_003": "16004", "P29_004": "埼玉県立深谷高等学校", "P29_005": "埼玉県深谷市宿根315", "P29_006": "2", "P29_007": "0", "P29_008": "00", "P29_009": null }, "geometry": { "type": "Point", "coordinates": [ 139.266319004311015, 36.202547997076074 ] } },
{ "type": "Feature", "properties": { "P29_001": "11222", "P29_002": "D111210000780", "P29_003": "16004", "P29_004": "埼玉県立越谷南高等学校", "P29_005": "埼玉県越谷市レイクタウン7-9", "P29_006": "2", "P29_007": "0", "P29_008": "00", "P29_009": null }, "geometry": { "type": "Point", "coordinates": [ 139.82020200293357, 35.873537000997175 ] } },
{ "type": "Feature", "properties": { "P29_001": "11233", "P29_002": "D111210000799", "P29_003": "16004", "P29_004": "埼玉県立北本高等学校", "P29_005": "埼玉県北本市古市場1-152", "P29_006": "2", "P29_007": "0", "P29_008": "00", "P29_009": null }, "geometry": { "type": "Point", "coordinates": [ 139.547769654180456, 36.044261207802535 ] } },
{ "type": "Feature", "properties": { "P29_001": "11201", "P29_002": "D111210000806", "P29_003": "16004", "P29_004": "埼玉県立川越南高等学校", "P29_005": "埼玉県川越市南大塚1-21-1", "P29_006": "2", "P29_007": "0", "P29_008": "00", "P29_009": null }, "geometry": { "type": "Point", "coordinates": [ 139.452600289100985, 35.898131019748966 ] } },
{ "type": "Feature", "properties": { "P29_001": "11202", "P29_002": "D111210000815", "P29_003": "16004", "P29_004": "埼玉県立熊谷西高等学校", "P29_005": "埼玉県熊谷市三ヶ尻2066", "P29_006": "2", "P29_007": "0", "P29_008": "00", "P29_009": null }, "geometry": { "type": "Point", "coordinates": [ 139.331678001857853, 36.16455300286092 ] } },
{ "type": "Feature", "properties": { "P29_001": "11237", "P29_002": "D111210000824", "P29_003": "16004", "P29_004": "埼玉県立三郷高等学校", "P29_005": "埼玉県三郷市花和田620-1", "P29_006": "2", "P29_007": "0", "P29_008": "00", "P29_009": null }, "geometry": { "type": "Point", "coordinates": [ 139.870050968173274, 35.829745132833196 ] } },
{ "type": "Feature", "properties": { "P29_001": "11232", "P29_002": "D111210000833", "P29_003": "16004", "P29_004": "埼玉県立栗橋北彩高等学校", "P29_005": "埼玉県久喜市伊坂南2-16", "P29_006": "2", "P29_007": "0", "P29_008": "00", "P29_009": null }, "geometry": { "type": "Point", "coordinates": [ 139.687394997244041, 36.131844996178273 ] } },
{ "type": "Feature", "properties": { "P29_001": "11221", "P29_002": "D111210000842", "P29_003": "16004", "P29_004": "埼玉県立草加南高等学校", "P29_005": "埼玉県草加市柳島町66", "P29_006": "2", "P29_007": "0", "P29_008": "00", "P29_009": null }, "geometry": { "type": "Point", "coordinates": [ 139.788231002361073, 35.818554999450896 ] } },
{ "type": "Feature", "properties": { "P29_001": "11101", "P29_002": "D111210000851", "P29_003": "16004", "P29_004": "埼玉県立大宮武蔵野高等学校", "P29_005": "埼玉県さいたま市西区西遊馬1601", "P29_006": "2", "P29_007": "0", "P29_008": "00", "P29_009": null }, "geometry": { "type": "Point", "coordinates": [ 139.560526001759285, 35.909454000472884 ] } },
{ "type": "Feature", "properties": { "P29_001": "11235", "P29_002": "D111210000860", "P29_003": "16004", "P29_004": "埼玉県立富士見高等学校", "P29_005": "埼玉県富士見市上南畑950", "P29_006": "2", "P29_007": "0", "P29_008": "00", "P29_009": null }, "geometry": { "type": "Point", "coordinates": [ 139.562239616752919, 35.86397616561058 ] } },
{ "type": "Feature", "properties": { "P29_001": "11341", "P29_002": "D111210000879", "P29_003": "16004", "P29_004": "埼玉県立滑川総合高等学校", "P29_005": "埼玉県比企郡滑川町月の輪4-18-26", "P29_006": "2", "P29_007": "0", "P29_008": "00", "P29_009": null }, "geometry": { "type": "Point", "coordinates": [ 139.339974677908288, 36.04284353708119 ] } },
{ "type": "Feature", "properties": { "P29_001": "11216", "P29_002": "D111210000888", "P29_003": "16004", "P29_004": "埼玉県立羽生第一高等学校", "P29_005": "埼玉県羽生市下岩瀬153", "P29_006": "2", "P29_007": "0", "P29_008": "00", "P29_009": null }, "geometry": { "type": "Point", "coordinates": [ 139.532949824168895, 36.160513560742906 ] } },
{ "type": "Feature", "properties": { "P29_001": "11219", "P29_002": "D111210000897", "P29_003": "16004", "P29_004": "埼玉県立上尾南高等学校", "P29_005": "埼玉県上尾市中新井585", "P29_006": "2", "P29_007": "0", "P29_008": "00", "P29_009": null }, "geometry": { "type": "Point", "coordinates": [ 139.585466709515543, 35.946676731390419 ] } },
{ "type": "Feature", "properties": { "P29_001": "11214", "P29_002": "D111210000904", "P29_003": "16004", "P29_004": "埼玉県立春日部東高等学校", "P29_005": "埼玉県春日部市樋籠363", "P29_006": "2", "P29_007": "0", "P29_008": "00", "P29_009": null }, "geometry": { "type": "Point", "coordinates": [ 139.768534411691633, 35.988513877404863 ] } },
{ "type": "Feature", "properties": { "P29_001": "11246", "P29_002": "D111210000913", "P29_003": "16004", "P29_004": "埼玉県立白岡高等学校", "P29_005": "埼玉県白岡市高岩275-1", "P29_006": "2", "P29_007": "0", "P29_008": "00", "P29_009": null }, "geometry": { "type": "Point", "coordinates": [ 139.676425709829687, 36.03217167529786 ] } },
{ "type": "Feature", "properties": { "P29_001": "11464", "P29_002": "D111210000922", "P29_003": "16004", "P29_004": "埼玉県立杉戸高等学校", "P29_005": "埼玉県北葛飾郡杉戸町清地1-1-36", "P29_006": "2", "P29_007": "0", "P29_008": "00", "P29_009": null }, "geometry": { "type": "Point", "coordinates": [ 139.732340847749072, 36.028304648881075 ] } },
{ "type": "Feature", "properties": { "P29_001": "11203", "P29_002": "D111210000931", "P29_003": "16004", "P29_004": "埼玉県立川口東高等学校", "P29_005": "埼玉県川口市長蔵3-1-1", "P29_006": "2", "P29_007": "0", "P29_008": "00", "P29_009": null }, "geometry": { "type": "Point", "coordinates": [ 139.761398997515784, 35.862046999112636 ] } },
{ "type": "Feature", "properties": { "P29_001": "11106", "P29_002": "D111210000940", "P29_003": "16004", "P29_004": "埼玉県立浦和北高等学校", "P29_005": "埼玉県さいたま市桜区五関595", "P29_006": "2", "P29_007": "0", "P29_008": "00", "P29_009": null }, "geometry": { "type": "Point", "coordinates": [ 139.594413994713932, 35.867238003927589 ] } },
{ "type": "Feature", "properties": { "P29_001": "11232", "P29_002": "D111210000968", "P29_003": "16004", "P29_004": "埼玉県立鷲宮高等学校", "P29_005": "埼玉県久喜市中妻1020", "P29_006": "2", "P29_007": "0", "P29_008": "00", "P29_009": null }, "geometry": { "type": "Point", "coordinates": [ 139.64675270936857, 36.090080013423069 ] } },
{ "type": "Feature", "properties": { "P29_001": "11219", "P29_002": "D111210000977", "P29_003": "16004", "P29_004": "埼玉県立上尾鷹の台高等学校", "P29_005": "埼玉県上尾市原市2800", "P29_006": "2", "P29_007": "0", "P29_008": "00", "P29_009": null }, "geometry": { "type": "Point", "coordinates": [ 139.631867307387409, 35.971527066305363 ] } },
{ "type": "Feature", "properties": { "P29_001": "11227", "P29_002": "D111210000986", "P29_003": "16004", "P29_004": "埼玉県立朝霞西高等学校", "P29_005": "埼玉県朝霞市膝折2-17", "P29_006": "2", "P29_007": "0", "P29_008": "00", "P29_009": null }, "geometry": { "type": "Point", "coordinates": [ 139.589551377313114, 35.791677358734049 ] } },
{ "type": "Feature", "properties": { "P29_001": "11230", "P29_002": "D111210000995", "P29_003": "16004", "P29_004": "埼玉県立新座柳瀬高等学校", "P29_005": "埼玉県新座市大和田4-12-1", "P29_006": "2", "P29_007": "0", "P29_008": "00", "P29_009": null }, "geometry": { "type": "Point", "coordinates": [ 139.551447004367418, 35.815744000743926 ] } },
{ "type": "Feature", "properties": { "P29_001": "11201", "P29_002": "D111210001002", "P29_003": "16004", "P29_004": "埼玉県立川越西高等学校", "P29_005": "埼玉県川越市笠幡2488-1", "P29_006": "2", "P29_007": "0", "P29_008": "00", "P29_009": null }, "geometry": { "type": "Point", "coordinates": [ 139.395622999928719, 35.911117004705375 ] } },
{ "type": "Feature", "properties": { "P29_001": "11208", "P29_002": "D111210001011", "P29_003": "16004", "P29_004": "埼玉県立所沢西高等学校", "P29_005": "埼玉県所沢市北野新町2-5-11", "P29_006": "2", "P29_007": "0", "P29_008": "00", "P29_009": null }, "geometry": { "type": "Point", "coordinates": [ 139.427401810058882, 35.801569305042555 ] } },
{ "type": "Feature", "properties": { "P29_001": "11239", "P29_002": "D111210001020", "P29_003": "16004", "P29_004": "埼玉県立坂戸西高等学校", "P29_005": "埼玉県坂戸市四日市場101", "P29_006": "2", "P29_007": "0", "P29_008": "00", "P29_009": null }, "geometry": { "type": "Point", "coordinates": [ 139.352962663143416, 35.934064767020999 ] } },
{ "type": "Feature", "properties": { "P29_001": "11202", "P29_002": "D111210001039", "P29_003": "16004", "P29_004": "埼玉県立妻沼高等学校", "P29_005": "埼玉県熊谷市弥藤吾480", "P29_006": "2", "P29_007": "0", "P29_008": "00", "P29_009": null }, "geometry": { "type": "Point", "coordinates": [ 139.382199139689078, 36.215960339114424 ] } },
{ "type": "Feature", "properties": { "P29_001": "11222", "P29_002": "D111210001048", "P29_003": "16004", "P29_004": "埼玉県立越谷西高等学校", "P29_005": "埼玉県越谷市野島460-1", "P29_006": "2", "P29_007": "0", "P29_008": "00", "P29_009": null }, "geometry": { "type": "Point", "coordinates": [ 139.748699003379244, 35.916651002477934 ] } },
{ "type": "Feature", "properties": { "P29_001": "11104", "P29_002": "D111210001057", "P29_003": "16004", "P29_004": "埼玉県立大宮東高等学校", "P29_005": "埼玉県さいたま市見沼区膝子567", "P29_006": "2", "P29_007": "0", "P29_008": "00", "P29_009": null }, "geometry": { "type": "Point", "coordinates": [ 139.684993577549108, 35.926786032825895 ] } },
{ "type": "Feature", "properties": { "P29_001": "11224", "P29_002": "D111210001066", "P29_003": "16004", "P29_004": "埼玉県立南稜高等学校", "P29_005": "埼玉県戸田市美女木4-23-4", "P29_006": "2", "P29_007": "0", "P29_008": "00", "P29_009": null }, "geometry": { "type": "Point", "coordinates": [ 139.649216005714919, 35.824299002254428 ] } },
{ "type": "Feature", "properties": { "P29_001": "11231", "P29_002": "D111210001075", "P29_003": "16004", "P29_004": "埼玉県立桶川西高等学校", "P29_005": "埼玉県桶川市川田谷1531-2", "P29_006": "2", "P29_007": "0", "P29_008": "00", "P29_009": null }, "geometry": { "type": "Point", "coordinates": [ 139.531444002621555, 35.984108998207134 ] } },
{ "type": "Feature", "properties": { "P29_001": "11217", "P29_002": "D111210001084", "P29_003": "16004", "P29_004": "埼玉県立吹上秋桜高等学校", "P29_005": "埼玉県鴻巣市前砂907-1", "P29_006": "2", "P29_007": "0", "P29_008": "00", "P29_009": null }, "geometry": { "type": "Point", "coordinates": [ 139.467502002716344, 36.086844002430979 ] } },
{ "type": "Feature", "properties": { "P29_001": "11208", "P29_002": "D111210001093", "P29_003": "16004", "P29_004": "埼玉県立所沢中央高等学校", "P29_005": "埼玉県所沢市並木8-2", "P29_006": "2", "P29_007": "0", "P29_008": "00", "P29_009": null }, "geometry": { "type": "Point", "coordinates": [ 139.475057008361688, 35.810993683748535 ] } },
{ "type": "Feature", "properties": { "P29_001": "11221", "P29_002": "D111210001100", "P29_003": "16004", "P29_004": "埼玉県立草加東高等学校", "P29_005": "埼玉県草加市柿木町1110-1", "P29_006": "2", "P29_007": "0", "P29_008": "00", "P29_009": null }, "geometry": { "type": "Point", "coordinates": [ 139.826255004145224, 35.865409996169333 ] } },
{ "type": "Feature", "properties": { "P29_001": "11237", "P29_002": "D111210001119", "P29_003": "16004", "P29_004": "埼玉県立三郷北高等学校", "P29_005": "埼玉県三郷市大広戸808", "P29_006": "2", "P29_007": "0", "P29_008": "00", "P29_009": null }, "geometry": { "type": "Point", "coordinates": [ 139.875334994995882, 35.843385996722411 ] } },
{ "type": "Feature", "properties": { "P29_001": "11214", "P29_002": "D111210001128", "P29_003": "16004", "P29_004": "埼玉県立庄和高等学校", "P29_005": "埼玉県春日部市金崎583", "P29_006": "2", "P29_007": "0", "P29_008": "00", "P29_009": null }, "geometry": { "type": "Point", "coordinates": [ 139.805241469306424, 35.991876352206255 ] } },
{ "type": "Feature", "properties": { "P29_001": "11465", "P29_002": "D111210001137", "P29_003": "16004", "P29_004": "埼玉県立松伏高等学校", "P29_005": "埼玉県北葛飾郡松伏町ゆめみ野東2-7-1", "P29_006": "2", "P29_007": "0", "P29_008": "00", "P29_009": null }, "geometry": { "type": "Point", "coordinates": [ 139.829751994085399, 35.92448500241693 ] } },
{ "type": "Feature", "properties": { "P29_001": "11110", "P29_002": "D111210001146", "P29_003": "16004", "P29_004": "埼玉県立岩槻北陵高等学校", "P29_005": "埼玉県さいたま市岩槻区慈恩寺117-2", "P29_006": "2", "P29_007": "0", "P29_008": "00", "P29_009": null }, "geometry": { "type": "Point", "coordinates": [ 139.714067027702612, 35.977699333049209 ] } },
{ "type": "Feature", "properties": { "P29_001": "11101", "P29_002": "D111210001155", "P29_003": "16004", "P29_004": "埼玉県立大宮南高等学校", "P29_005": "埼玉県さいたま市西区植田谷本793", "P29_006": "2", "P29_007": "0", "P29_008": "00", "P29_009": null }, "geometry": { "type": "Point", "coordinates": [ 139.589723597847751, 35.888244566147499 ] } },
{ "type": "Feature", "properties": { "P29_001": "11215", "P29_002": "D111210001164", "P29_003": "16004", "P29_004": "埼玉県立狭山清陵高等学校", "P29_005": "埼玉県狭山市上奥富34-3", "P29_006": "2", "P29_007": "0", "P29_008": "00", "P29_009": null }, "geometry": { "type": "Point", "coordinates": [ 139.424526421267046, 35.873842834261936 ] } },
{ "type": "Feature", "properties": { "P29_001": "11241", "P29_002": "D111210001173", "P29_003": "16004", "P29_004": "埼玉県立鶴ヶ島清風高等学校", "P29_005": "埼玉県鶴ヶ島市高倉946-1", "P29_006": "2", "P29_007": "0", "P29_008": "00", "P29_009": null }, "geometry": { "type": "Point", "coordinates": [ 139.379174641116379, 35.932035214036141 ] } },
{ "type": "Feature", "properties": { "P29_001": "11222", "P29_002": "D111210001182", "P29_003": "16004", "P29_004": "埼玉県立越谷東高等学校", "P29_005": "埼玉県越谷市増林荒川堤外5670-1", "P29_006": "2", "P29_007": "0", "P29_008": "00", "P29_009": null }, "geometry": { "type": "Point", "coordinates": [ 139.812700928803366, 35.893803719638214 ] } },
{ "type": "Feature", "properties": { "P29_001": "11442", "P29_002": "D111210001191", "P29_003": "16004", "P29_004": "埼玉県立宮代高等学校", "P29_005": "埼玉県南埼玉郡宮代町東611", "P29_006": "2", "P29_007": "0", "P29_008": "00", "P29_009": null }, "geometry": { "type": "Point", "coordinates": [ 139.732450999776546, 36.005582999120875 ] } },
{ "type": "Feature", "properties": { "P29_001": "11109", "P29_002": "D111210001208", "P29_003": "16004", "P29_004": "埼玉県立浦和東高等学校", "P29_005": "埼玉県さいたま市緑区寺山365", "P29_006": "2", "P29_007": "0", "P29_008": "00", "P29_009": null }, "geometry": { "type": "Point", "coordinates": [ 139.706790996801175, 35.908929995928915 ] } },
{ "type": "Feature", "properties": { "P29_001": "11219", "P29_002": "D111210001217", "P29_003": "16004", "P29_004": "埼玉県立上尾橘高等学校", "P29_005": "埼玉県上尾市平方2187-1", "P29_006": "2", "P29_007": "0", "P29_008": "00", "P29_009": null }, "geometry": { "type": "Point", "coordinates": [ 139.548869142807916, 35.94695335532758 ] } },
{ "type": "Feature", "properties": { "P29_001": "11230", "P29_002": "D111210001226", "P29_003": "16004", "P29_004": "埼玉県立新座総合技術高等学校", "P29_005": "埼玉県新座市新塚1-3-1", "P29_006": "2", "P29_007": "0", "P29_008": "00", "P29_009": null }, "geometry": { "type": "Point", "coordinates": [ 139.584984889494365, 35.779003268486839 ] } },
{ "type": "Feature", "properties": { "P29_001": "11201", "P29_002": "D111210001235", "P29_003": "16004", "P29_004": "埼玉県立川越初雁高等学校", "P29_005": "埼玉県川越市砂新田2564", "P29_006": "2", "P29_007": "0", "P29_008": "00", "P29_009": null }, "geometry": { "type": "Point", "coordinates": [ 139.488745288450701, 35.877890257840725 ] } },
{ "type": "Feature", "properties": { "P29_001": "11225", "P29_002": "D111210001244", "P29_003": "16004", "P29_004": "埼玉県立入間向陽高等学校", "P29_005": "埼玉県入間市向陽台1-1-1", "P29_006": "2", "P29_007": "0", "P29_008": "00", "P29_009": null }, "geometry": { "type": "Point", "coordinates": [ 139.39573319846582, 35.838060905459848 ] } },
{ "type": "Feature", "properties": { "P29_001": "11348", "P29_002": "D111210001253", "P29_003": "16004", "P29_004": "埼玉県立鳩山高等学校", "P29_005": "埼玉県比企郡鳩山町松ヶ丘4-1-2", "P29_006": "2", "P29_007": "0", "P29_008": "00", "P29_009": null }, "geometry": { "type": "Point", "coordinates": [ 139.349332994241934, 35.992235070267903 ] } },
{ "type": "Feature", "properties": { "P29_001": "11221", "P29_002": "D111210001262", "P29_003": "16004", "P29_004": "埼玉県立草加西高等学校", "P29_005": "埼玉県草加市原町2-7-1", "P29_006": "2", "P29_007": "0", "P29_008": "00", "P29_009": null }, "geometry": { "type": "Point", "coordinates": [ 139.773731377760527, 35.846924286351971 ] } },
{ "type": "Feature", "properties": { "P29_001": "11203", "P29_002": "D111210001271", "P29_003": "16004", "P29_004": "埼玉県立川口青陵高等学校", "P29_005": "埼玉県川口市神戸東520-1", "P29_006": "2", "P29_007": "0", "P29_008": "00", "P29_009": null }, "geometry": { "type": "Point", "coordinates": [ 139.730603388228786, 35.854199904815992 ] } },
{ "type": "Feature", "properties": { "P29_001": "11301", "P29_002": "D111210001280", "P29_003": "16004", "P29_004": "埼玉県立伊奈学園総合高等学校", "P29_005": "埼玉県北足立郡伊奈町学園4-1-1", "P29_006": "2", "P29_007": "0", "P29_008": "00", "P29_009": null }, "geometry": { "type": "Point", "coordinates": [ 139.612761255207971, 36.013517753669731 ] } },
{ "type": "Feature", "properties": { "P29_001": "11208", "P29_002": "D111210001299", "P29_003": "16004", "P29_004": "埼玉県立芸術総合高等学校", "P29_005": "埼玉県所沢市三ヶ島2-695-1", "P29_006": "2", "P29_007": "0", "P29_008": "00", "P29_009": null }, "geometry": { "type": "Point", "coordinates": [ 139.405098996194766, 35.786826999366824 ] } },
{ "type": "Feature", "properties": { "P29_001": "11234", "P29_002": "D111210001306", "P29_003": "16004", "P29_004": "埼玉県立八潮南高等学校", "P29_005": "埼玉県八潮市南川崎根通519-1", "P29_006": "2", "P29_007": "0", "P29_008": "00", "P29_009": null }, "geometry": { "type": "Point", "coordinates": [ 139.858194545882071, 35.814398381634909 ] } },
{ "type": "Feature", "properties": { "P29_001": "11237", "P29_002": "D111210001315", "P29_003": "16004", "P29_004": "埼玉県立三郷工業技術高等学校", "P29_005": "埼玉県三郷市彦成3-325", "P29_006": "2", "P29_007": "0", "P29_008": "00", "P29_009": null }, "geometry": { "type": "Point", "coordinates": [ 139.858891002324754, 35.852717998520895 ] } },
{ "type": "Feature", "properties": { "P29_001": "11215", "P29_002": "D111210001324", "P29_003": "16004", "P29_004": "埼玉県立狭山経済高等学校", "P29_005": "埼玉県狭山市稲荷山2-6-1", "P29_006": "2", "P29_007": "0", "P29_008": "00", "P29_009": null }, "geometry": { "type": "Point", "coordinates": [ 139.395435680688252, 35.842096859429546 ] } },
{ "type": "Feature", "properties": { "P29_001": "11101", "P29_002": "D111210001333", "P29_003": "16004", "P29_004": "埼玉県立大宮光陵高等学校", "P29_005": "埼玉県さいたま市西区中野林145", "P29_006": "2", "P29_007": "0", "P29_008": "00", "P29_009": null }, "geometry": { "type": "Point", "coordinates": [ 139.589964694782026, 35.894368506718294 ] } },
{ "type": "Feature", "properties": { "P29_001": "11222", "P29_002": "D111210001342", "P29_003": "16004", "P29_004": "埼玉県立越谷総合技術高等学校", "P29_005": "埼玉県越谷市谷中町3-100-1", "P29_006": "2", "P29_007": "0", "P29_008": "00", "P29_009": null }, "geometry": { "type": "Point", "coordinates": [ 139.769092002189979, 35.884155998528314 ] } },
{ "type": "Feature", "properties": { "P29_001": "11229", "P29_002": "D111210001351", "P29_003": "16004", "P29_004": "埼玉県立和光国際高等学校", "P29_005": "埼玉県和光市広沢4-1", "P29_006": "2", "P29_007": "0", "P29_008": "00", "P29_009": null }, "geometry": { "type": "Point", "coordinates": [ 139.603443005672716, 35.778387999780563 ] } },
{ "type": "Feature", "properties": { "P29_001": "11232", "P29_002": "D111210001360", "P29_003": "16004", "P29_004": "埼玉県立久喜北陽高等学校", "P29_005": "埼玉県久喜市久喜本837-1", "P29_006": "2", "P29_007": "0", "P29_008": "00", "P29_009": null }, "geometry": { "type": "Point", "coordinates": [ 139.663155914042136, 36.077310643086733 ] } },
{ "type": "Feature", "properties": { "P29_001": "11203", "P29_002": "D111210001379", "P29_003": "16004", "P29_004": "埼玉県立鳩ヶ谷高等学校", "P29_005": "埼玉県川口市里225-1", "P29_006": "2", "P29_007": "0", "P29_008": "00", "P29_009": null }, "geometry": { "type": "Point", "coordinates": [ 139.726812841050247, 35.837363937195754 ] } },
{ "type": "Feature", "properties": { "P29_001": "11102", "P29_002": "D111210001388", "P29_003": "16004", "P29_004": "埼玉県立大宮中央高等学校", "P29_005": "埼玉県さいたま市北区櫛引町2-499-1", "P29_006": "2", "P29_007": "0", "P29_008": "00", "P29_009": null }, "geometry": { "type": "Point", "coordinates": [ 139.609982463249821, 35.920100607489502 ] } },
{ "type": "Feature", "properties": { "P29_001": "11216", "P29_002": "D111210001397", "P29_003": "16004", "P29_004": "埼玉県立羽生高等学校", "P29_005": "埼玉県羽生市加羽ヶ崎303-1", "P29_006": "2", "P29_007": "0", "P29_008": "00", "P29_009": null }, "geometry": { "type": "Point", "coordinates": [ 139.542482770953711, 36.161673850113353 ] } },
{ "type": "Feature", "properties": { "P29_001": "11107", "P29_002": "D111220000011", "P29_003": "16004", "P29_004": "さいたま市立浦和高等学校", "P29_005": "埼玉県さいたま市浦和区元町1-28-17", "P29_006": "3", "P29_007": "0", "P29_008": "00", "P29_009": null }, "geometry": { "type": "Point", "coordinates": [ 139.657247010753991, 35.871466493083773 ] } },
{ "type": "Feature", "properties": { "P29_001": "11201", "P29_002": "D111220000020", "P29_003": "16004", "P29_004": "川越市立川越高等学校", "P29_005": "埼玉県川越市旭町2-3-7", "P29_006": "3", "P29_007": "0", "P29_008": "00", "P29_009": null }, "geometry": { "type": "Point", "coordinates": [ 139.474528508866854, 35.899161956978176 ] } },
{ "type": "Feature", "properties": { "P29_001": "11102", "P29_002": "D111220000039", "P29_003": "16004", "P29_004": "さいたま市立大宮北高等学校", "P29_005": "埼玉県さいたま市北区奈良町91-1", "P29_006": "3", "P29_007": "0", "P29_008": "00", "P29_009": null }, "geometry": { "type": "Point", "coordinates": [ 139.60059807110548, 35.945975071861724 ] } },
{ "type": "Feature", "properties": { "P29_001": "11108", "P29_002": "D111220000048", "P29_003": "16004", "P29_004": "さいたま市立浦和南高等学校", "P29_005": "埼玉県さいたま市南区辻6-5-31", "P29_006": "3", "P29_007": "0", "P29_008": "00", "P29_009": null }, "geometry": { "type": "Point", "coordinates": [ 139.657409910184754, 35.832707965213771 ] } },
{ "type": "Feature", "properties": { "P29_001": "11203", "P29_002": "D111220000057", "P29_003": "16004", "P29_004": "川口市立高等学校", "P29_005": "埼玉県川口市上青木3-1-40", "P29_006": "3", "P29_007": "0", "P29_008": "00", "P29_009": null }, "geometry": { "type": "Point", "coordinates": [ 139.719661692653119, 35.826551186448555 ] } },
{ "type": "Feature", "properties": { "P29_001": "11101", "P29_002": "D111310100019", "P29_003": "16004", "P29_004": "埼玉栄高等学校", "P29_005": "埼玉県さいたま市西区西大宮3-11-1", "P29_006": "4", "P29_007": "0", "P29_008": "00", "P29_009": null }, "geometry": { "type": "Point", "coordinates": [ 139.579338000470813, 35.926395997857895 ] } },
{ "type": "Feature", "properties": { "P29_001": "11103", "P29_002": "D111310300017", "P29_003": "16004", "P29_004": "大宮開成高等学校", "P29_005": "埼玉県さいたま市大宮区堀の内町1-615", "P29_006": "4", "P29_007": "0", "P29_008": "00", "P29_009": null }, "geometry": { "type": "Point", "coordinates": [ 139.645068900860252, 35.91213503514453 ] } },
{ "type": "Feature", "properties": { "P29_001": "11103", "P29_002": "D111310300026", "P29_003": "16004", "P29_004": "松栄学園高等学校大宮分校", "P29_005": "埼玉県さいたま市大宮区下町1-35", "P29_006": "4", "P29_007": "0", "P29_008": "00", "P29_009": null }, "geometry": { "type": "Point", "coordinates": [ 139.627387003944705, 35.903696999093924 ] } },
{ "type": "Feature", "properties": { "P29_001": "11104", "P29_002": "D111310400016", "P29_003": "16004", "P29_004": "栄東高等学校", "P29_005": "埼玉県さいたま市見沼区砂町2-77", "P29_006": "4", "P29_007": "0", "P29_008": "00", "P29_009": null }, "geometry": { "type": "Point", "coordinates": [ 139.634140320126249, 35.945988500615805 ] } },
{ "type": "Feature", "properties": { "P29_001": "11105", "P29_002": "D111310500015", "P29_003": "16004", "P29_004": "淑徳与野高等学校", "P29_005": "埼玉県さいたま市中央区上落合5-19-18", "P29_006": "4", "P29_007": "0", "P29_008": "00", "P29_009": null }, "geometry": { "type": "Point", "coordinates": [ 139.627767995042689, 35.897031002271561 ] } },
{ "type": "Feature", "properties": { "P29_001": "11107", "P29_002": "D111310700013", "P29_003": "16004", "P29_004": "浦和麗明高等学校", "P29_005": "埼玉県さいたま市浦和区東岸町10-36", "P29_006": "4", "P29_007": "0", "P29_008": "00", "P29_009": null }, "geometry": { "type": "Point", "coordinates": [ 139.663386071926936, 35.854015199021312 ] } },
{ "type": "Feature", "properties": { "P29_001": "11203", "P29_002": "D111310800012", "P29_003": "16004", "P29_004": "浦和実業学園高等学校", "P29_005": "埼玉県さいたま市南区文蔵3-9-1", "P29_006": "4", "P29_007": "0", "P29_008": "00", "P29_009": null }, "geometry": { "type": "Point", "coordinates": [ 139.677136489164724, 35.839434504978527 ] } },
{ "type": "Feature", "properties": { "P29_001": "11109", "P29_002": "D111310900011", "P29_003": "16004", "P29_004": "浦和明の星女子高等学校", "P29_005": "埼玉県さいたま市緑区東浦和6-4-19", "P29_006": "4", "P29_007": "0", "P29_008": "00", "P29_009": null }, "geometry": { "type": "Point", "coordinates": [ 139.708391496188568, 35.869411011449102 ] } },
{ "type": "Feature", "properties": { "P29_001": "11109", "P29_002": "D111310900020", "P29_003": "16004", "P29_004": "浦和学院高等学校", "P29_005": "埼玉県さいたま市緑区代山172", "P29_006": "4", "P29_007": "0", "P29_008": "00", "P29_009": null }, "geometry": { "type": "Point", "coordinates": [ 139.706568995577243, 35.901902998067982 ] } },
{ "type": "Feature", "properties": { "P29_001": "11109", "P29_002": "D111310900039", "P29_003": "16004", "P29_004": "青山学院大学系属浦和ルーテル学院高等学校", "P29_005": "埼玉県さいたま市緑区大崎3642", "P29_006": "4", "P29_007": "0", "P29_008": "00", "P29_009": null }, "geometry": { "type": "Point", "coordinates": [ 139.716614995113531, 35.887935998803677 ] } },
{ "type": "Feature", "properties": { "P29_001": "11110", "P29_002": "D111311000018", "P29_003": "16004", "P29_004": "開智高等学校", "P29_005": "埼玉県さいたま市岩槻区徳力186", "P29_006": "4", "P29_007": "0", "P29_008": "00", "P29_009": null }, "geometry": { "type": "Point", "coordinates": [ 139.713159004885455, 35.972227997230775 ] } },
{ "type": "Feature", "properties": { "P29_001": "11201", "P29_002": "D111320100018", "P29_003": "16004", "P29_004": "山村学園高等学校", "P29_005": "埼玉県川越市田町16-2", "P29_006": "4", "P29_007": "0", "P29_008": "00", "P29_009": null }, "geometry": { "type": "Point", "coordinates": [ 139.474931040558488, 35.916539414602298 ] } },
{ "type": "Feature", "properties": { "P29_001": "11201", "P29_002": "D111320100027", "P29_003": "16004", "P29_004": "東邦音楽大学附属東邦第二高等学校", "P29_005": "埼玉県川越市今泉84", "P29_006": "4", "P29_007": "0", "P29_008": "00", "P29_009": null }, "geometry": { "type": "Point", "coordinates": [ 139.522806444498229, 35.896662928247878 ] } },
{ "type": "Feature", "properties": { "P29_001": "11201", "P29_002": "D111320100036", "P29_003": "16004", "P29_004": "星野高等学校", "P29_005": "埼玉県川越市末広町3-9-1", "P29_006": "4", "P29_007": "0", "P29_008": "00", "P29_009": null }, "geometry": { "type": "Point", "coordinates": [ 139.476229805394581, 35.921595423354965 ] } },
{ "type": "Feature", "properties": { "P29_001": "11201", "P29_002": "D111320100045", "P29_003": "16004", "P29_004": "城西大学付属川越高等学校", "P29_005": "埼玉県川越市山田東町1042", "P29_006": "4", "P29_007": "0", "P29_008": "00", "P29_009": null }, "geometry": { "type": "Point", "coordinates": [ 139.47847600419658, 35.954612000361323 ] } },
{ "type": "Feature", "properties": { "P29_001": "11201", "P29_002": "D111320100054", "P29_003": "16004", "P29_004": "秀明高等学校", "P29_005": "埼玉県川越市笠幡4792", "P29_006": "4", "P29_007": "0", "P29_008": "00", "P29_009": null }, "geometry": { "type": "Point", "coordinates": [ 139.412076109098564, 35.907330940193916 ] } },
{ "type": "Feature", "properties": { "P29_001": "11201", "P29_002": "D111320100063", "P29_003": "16004", "P29_004": "城北埼玉高等学校", "P29_005": "埼玉県川越市古市場585-1", "P29_006": "4", "P29_007": "0", "P29_008": "00", "P29_009": null }, "geometry": { "type": "Point", "coordinates": [ 139.530000997434172, 35.885789996104322 ] } },
{ "type": "Feature", "properties": { "P29_001": "11201", "P29_002": "D111320100072", "P29_003": "16004", "P29_004": "川越東高等学校", "P29_005": "埼玉県川越市久下戸6060", "P29_006": "4", "P29_007": "0", "P29_008": "00", "P29_009": null }, "geometry": { "type": "Point", "coordinates": [ 139.551146146431847, 35.894199923283331 ] } },
{ "type": "Feature", "properties": { "P29_001": "11201", "P29_002": "D111320100081", "P29_003": "16004", "P29_004": "霞ヶ関高等学校", "P29_005": "埼玉県川越市的場2797-24", "P29_006": "4", "P29_007": "0", "P29_008": "00", "P29_009": null }, "geometry": { "type": "Point", "coordinates": [ 139.44634445658798, 35.925054848236265 ] } },
{ "type": "Feature", "properties": { "P29_001": "11209", "P29_002": "D111320900010", "P29_003": "16004", "P29_004": "聖望学園高等学校", "P29_005": "埼玉県飯能市中山292", "P29_006": "4", "P29_007": "0", "P29_008": "00", "P29_009": null }, "geometry": { "type": "Point", "coordinates": [ 139.324659005790096, 35.859983003503579 ] } },
{ "type": "Feature", "properties": { "P29_001": "11209", "P29_002": "D111320900029", "P29_003": "16004", "P29_004": "自由の森学園高等学校", "P29_005": "埼玉県飯能市小岩井613", "P29_006": "4", "P29_007": "0", "P29_008": "00", "P29_009": null }, "geometry": { "type": "Point", "coordinates": [ 139.269320602027591, 35.861066235557992 ] } },
{ "type": "Feature", "properties": { "P29_001": "11209", "P29_002": "D111320900038", "P29_003": "16004", "P29_004": "大川学園高等学校", "P29_005": "埼玉県飯能市仲町16-8", "P29_006": "4", "P29_007": "0", "P29_008": "00", "P29_009": null }, "geometry": { "type": "Point", "coordinates": [ 139.316777457422944, 35.852317122484585 ] } },
{ "type": "Feature", "properties": { "P29_001": "11209", "P29_002": "D111320900047", "P29_003": "16004", "P29_004": "わせがく夢育高等学校", "P29_005": "埼玉県飯能市大字平戸130-2", "P29_006": "4", "P29_007": "0", "P29_008": "00", "P29_009": null }, "geometry": { "type": "Point", "coordinates": [ 139.25828584296795, 35.890916401948964 ] } },
{ "type": "Feature", "properties": { "P29_001": "11210", "P29_002": "D111321000017", "P29_003": "16004", "P29_004": "花咲徳栄高等学校", "P29_005": "埼玉県加須市花崎519", "P29_006": "4", "P29_007": "0", "P29_008": "00", "P29_009": null }, "geometry": { "type": "Point", "coordinates": [ 139.628112958401431, 36.106158259839496 ] } },
{ "type": "Feature", "properties": { "P29_001": "11210", "P29_002": "D111321000026", "P29_003": "16004", "P29_004": "開智未来高等学校", "P29_005": "埼玉県加須市麦倉1238", "P29_006": "4", "P29_007": "0", "P29_008": "00", "P29_009": null }, "geometry": { "type": "Point", "coordinates": [ 139.653932000465431, 36.193370998936985 ] } },
{ "type": "Feature", "properties": { "P29_001": "11211", "P29_002": "D111321100016", "P29_003": "16004", "P29_004": "本庄第一高等学校", "P29_005": "埼玉県本庄市仁手1789", "P29_006": "4", "P29_007": "0", "P29_008": "00", "P29_009": null }, "geometry": { "type": "Point", "coordinates": [ 139.211545002603714, 36.250764996092315 ] } },
{ "type": "Feature", "properties": { "P29_001": "11211", "P29_002": "D111321100025", "P29_003": "16004", "P29_004": "本庄東高等学校", "P29_005": "埼玉県本庄市日の出1-4-5", "P29_006": "4", "P29_007": "0", "P29_008": "00", "P29_009": null }, "geometry": { "type": "Point", "coordinates": [ 139.199964000781875, 36.232071996975577 ] } },
{ "type": "Feature", "properties": { "P29_001": "11211", "P29_002": "D111321100034", "P29_003": "16004", "P29_004": "早稲田大学本庄高等学院", "P29_005": "埼玉県本庄市栗崎239-3", "P29_006": "4", "P29_007": "0", "P29_008": "00", "P29_009": null }, "geometry": { "type": "Point", "coordinates": [ 139.175885434900891, 36.212015781408098 ] } },
{ "type": "Feature", "properties": { "P29_001": "11212", "P29_002": "D111321200015", "P29_003": "16004", "P29_004": "東京農業大学第三高等学校", "P29_005": "埼玉県東松山市松山1400-1", "P29_006": "4", "P29_007": "0", "P29_008": "00", "P29_009": null }, "geometry": { "type": "Point", "coordinates": [ 139.416186129968992, 36.050763001026915 ] } },
{ "type": "Feature", "properties": { "P29_001": "11214", "P29_002": "D111321400013", "P29_003": "16004", "P29_004": "春日部共栄高等学校", "P29_005": "埼玉県春日部市上大増新田213", "P29_006": "4", "P29_007": "0", "P29_008": "00", "P29_009": null }, "geometry": { "type": "Point", "coordinates": [ 139.741562996895681, 35.959978003742648 ] } },
{ "type": "Feature", "properties": { "P29_001": "11214", "P29_002": "D111321400022", "P29_003": "16004", "P29_004": "松栄学園高等学校", "P29_005": "埼玉県春日部市大沼2-40", "P29_006": "4", "P29_007": "0", "P29_008": "00", "P29_009": null }, "geometry": { "type": "Point", "coordinates": [ 139.748915901798142, 35.968120179205023 ] } },
{ "type": "Feature", "properties": { "P29_001": "11215", "P29_002": "D111321500012", "P29_003": "16004", "P29_004": "西武学園文理高等学校", "P29_005": "埼玉県狭山市柏原新田311-1", "P29_006": "4", "P29_007": "0", "P29_008": "00", "P29_009": null }, "geometry": { "type": "Point", "coordinates": [ 139.418155493073385, 35.891011710889977 ] } },
{ "type": "Feature", "properties": { "P29_001": "11215", "P29_002": "D111321500021", "P29_003": "16004", "P29_004": "秋草学園高等学校", "P29_005": "埼玉県狭山市堀兼2404", "P29_006": "4", "P29_007": "0", "P29_008": "00", "P29_009": null }, "geometry": { "type": "Point", "coordinates": [ 139.456315001223032, 35.839960002806194 ] } },
{ "type": "Feature", "properties": { "P29_001": "11218", "P29_002": "D111321800019", "P29_003": "16004", "P29_004": "正智深谷高等学校", "P29_005": "埼玉県深谷市上野台369", "P29_006": "4", "P29_007": "0", "P29_008": "00", "P29_009": null }, "geometry": { "type": "Point", "coordinates": [ 139.277625825709777, 36.18974439491793 ] } },
{ "type": "Feature", "properties": { "P29_001": "11218", "P29_002": "D111321800028", "P29_003": "16004", "P29_004": "東京成徳大学深谷高等学校", "P29_005": "埼玉県深谷市宿根559", "P29_006": "4", "P29_007": "0", "P29_008": "00", "P29_009": null }, "geometry": { "type": "Point", "coordinates": [ 139.260133015626792, 36.19354394323932 ] } },
{ "type": "Feature", "properties": { "P29_001": "11218", "P29_002": "D111321800037", "P29_003": "16004", "P29_004": "創学舎高等学校", "P29_005": "埼玉県深谷市血洗島244-4", "P29_006": "4", "P29_007": "0", "P29_008": "00", "P29_009": null }, "geometry": { "type": "Point", "coordinates": [ 139.25512523555301, 36.233825335323807 ] } },
{ "type": "Feature", "properties": { "P29_001": "11219", "P29_002": "D111321900018", "P29_003": "16004", "P29_004": "秀明英光高等学校", "P29_005": "埼玉県上尾市上野1012", "P29_006": "4", "P29_007": "0", "P29_008": "00", "P29_009": null }, "geometry": { "type": "Point", "coordinates": [ 139.554858997070511, 35.940754999935606 ] } },
{ "type": "Feature", "properties": { "P29_001": "11222", "P29_002": "D111322200013", "P29_003": "16004", "P29_004": "獨協埼玉高等学校", "P29_005": "埼玉県越谷市恩間新田寺前316", "P29_006": "4", "P29_007": "0", "P29_008": "00", "P29_009": null }, "geometry": { "type": "Point", "coordinates": [ 139.758635999806899, 35.939242001073254 ] } },
{ "type": "Feature", "properties": { "P29_001": "11222", "P29_002": "D111322200022", "P29_003": "16004", "P29_004": "武蔵野星城高等学校", "P29_005": "埼玉県越谷市新越谷2-18-6", "P29_006": "4", "P29_007": "0", "P29_008": "00", "P29_009": null }, "geometry": { "type": "Point", "coordinates": [ 139.779544996993678, 35.869726001955826 ] } },
{ "type": "Feature", "properties": { "P29_001": "11222", "P29_002": "D111322200031", "P29_003": "16004", "P29_004": "松栄学園高等学校越谷レイクタウン分校", "P29_005": "埼玉県越谷市レイクタウン6-18-1", "P29_006": "4", "P29_007": "0", "P29_008": "00", "P29_009": null }, "geometry": { "type": "Point", "coordinates": [ 139.82808238105406, 35.873644823202362 ] } },
{ "type": "Feature", "properties": { "P29_001": "11222", "P29_002": "D111322200040", "P29_003": "16004", "P29_004": "叡明高等学校", "P29_005": "埼玉県越谷市レイクタウン7-2-1", "P29_006": "4", "P29_007": "0", "P29_008": "00", "P29_009": null }, "geometry": { "type": "Point", "coordinates": [ 139.816667002210977, 35.875063996149272 ] } },
{ "type": "Feature", "properties": { "P29_001": "11223", "P29_002": "D111322300012", "P29_003": "16004", "P29_004": "武南高等学校", "P29_005": "埼玉県蕨市塚越5-10-21", "P29_006": "4", "P29_007": "0", "P29_008": "00", "P29_009": null }, "geometry": { "type": "Point", "coordinates": [ 139.704627994179276, 35.822883998554715 ] } },
{ "type": "Feature", "properties": { "P29_001": "11225", "P29_002": "D111322500010", "P29_003": "16004", "P29_004": "狭山ヶ丘高等学校", "P29_005": "埼玉県入間市下藤沢981", "P29_006": "4", "P29_007": "0", "P29_008": "00", "P29_009": null }, "geometry": { "type": "Point", "coordinates": [ 139.402181001519494, 35.817823002438594 ] } },
{ "type": "Feature", "properties": { "P29_001": "11225", "P29_002": "D111322500029", "P29_003": "16004", "P29_004": "武蔵野音楽大学附属高等学校", "P29_005": "埼玉県入間市中神728", "P29_006": "4", "P29_007": "0", "P29_008": "00", "P29_009": null }, "geometry": { "type": "Point", "coordinates": [ 139.355817299495726, 35.830002232301418 ] } },
{ "type": "Feature", "properties": { "P29_001": "11225", "P29_002": "D111322500038", "P29_003": "16004", "P29_004": "東野高等学校", "P29_005": "埼玉県入間市二本木112-1", "P29_006": "4", "P29_007": "0", "P29_008": "00", "P29_009": null }, "geometry": { "type": "Point", "coordinates": [ 139.364436607353696, 35.800892363602976 ] } },
{ "type": "Feature", "properties": { "P29_001": "11228", "P29_002": "D111322800017", "P29_003": "16004", "P29_004": "細田学園高等学校", "P29_005": "埼玉県志木市本町2-7-1", "P29_006": "4", "P29_007": "0", "P29_008": "00", "P29_009": null }, "geometry": { "type": "Point", "coordinates": [ 139.58180499456364, 35.831826004904016 ] } },
{ "type": "Feature", "properties": { "P29_001": "11228", "P29_002": "D111322800026", "P29_003": "16004", "P29_004": "慶應義塾志木高等学校", "P29_005": "埼玉県志木市本町4-14-1", "P29_006": "4", "P29_007": "0", "P29_008": "00", "P29_009": null }, "geometry": { "type": "Point", "coordinates": [ 139.578149443538621, 35.824833552671507 ] } },
{ "type": "Feature", "properties": { "P29_001": "11230", "P29_002": "D111323000013", "P29_003": "16004", "P29_004": "立教新座高等学校", "P29_005": "埼玉県新座市北野1-2-25", "P29_006": "4", "P29_007": "0", "P29_008": "00", "P29_009": null }, "geometry": { "type": "Point", "coordinates": [ 139.566341457890047, 35.81527522417165 ] } },
{ "type": "Feature", "properties": { "P29_001": "11230", "P29_002": "D111323000022", "P29_003": "16004", "P29_004": "西武台高等学校", "P29_005": "埼玉県新座市中野2-9-1", "P29_006": "4", "P29_007": "0", "P29_008": "00", "P29_009": null }, "geometry": { "type": "Point", "coordinates": [ 139.547323066584283, 35.818763729452314 ] } },
{ "type": "Feature", "properties": { "P29_001": "11239", "P29_002": "D111323900014", "P29_003": "16004", "P29_004": "山村国際高等学校", "P29_005": "埼玉県坂戸市千代田1-2-23", "P29_006": "4", "P29_007": "0", "P29_008": "00", "P29_009": null }, "geometry": { "type": "Point", "coordinates": [ 139.401709000387001, 35.956135998928488 ] } },
{ "type": "Feature", "properties": { "P29_001": "11301", "P29_002": "D111330100017", "P29_003": "16004", "P29_004": "国際学院高等学校", "P29_005": "埼玉県北足立郡伊奈町小室10474", "P29_006": "4", "P29_007": "0", "P29_008": "00", "P29_009": null }, "geometry": { "type": "Point", "coordinates": [ 139.613367835910509, 35.990591629058834 ] } },
{ "type": "Feature", "properties": { "P29_001": "11301", "P29_002": "D111330100026", "P29_003": "16004", "P29_004": "栄北高等学校", "P29_005": "埼玉県北足立郡伊奈町小室1123", "P29_006": "4", "P29_007": "0", "P29_008": "00", "P29_009": null }, "geometry": { "type": "Point", "coordinates": [ 139.624043453830296, 35.983289408376137 ] } },
{ "type": "Feature", "properties": { "P29_001": "11326", "P29_002": "D111332600018", "P29_003": "16004", "P29_004": "埼玉平成高等学校", "P29_005": "埼玉県入間郡毛呂山町市場333-1", "P29_006": "4", "P29_007": "0", "P29_008": "00", "P29_009": null }, "geometry": { "type": "Point", "coordinates": [ 139.342968389643772, 35.938966877960318 ] } },
{ "type": "Feature", "properties": { "P29_001": "11327", "P29_002": "D111332700017", "P29_003": "16004", "P29_004": "武蔵越生高等学校", "P29_005": "埼玉県入間郡越生町上野東1-3-10", "P29_006": "4", "P29_007": "0", "P29_008": "00", "P29_009": null }, "geometry": { "type": "Point", "coordinates": [ 139.311727333228646, 35.952197980384831 ] } },
{ "type": "Feature", "properties": { "P29_001": "11327", "P29_002": "D111332700026", "P29_003": "16004", "P29_004": "清和学園高等学校", "P29_005": "埼玉県入間郡越生町上野東1-3-2", "P29_006": "4", "P29_007": "0", "P29_008": "00", "P29_009": null }, "geometry": { "type": "Point", "coordinates": [ 139.310894800250566, 35.9531322637378 ] } },
{ "type": "Feature", "properties": { "P29_001": "11342", "P29_002": "D111334200018", "P29_003": "16004", "P29_004": "大妻嵐山高等学校", "P29_005": "埼玉県比企郡嵐山町菅谷558", "P29_006": "4", "P29_007": "0", "P29_008": "00", "P29_009": null }, "geometry": { "type": "Point", "coordinates": [ 139.319880001583158, 36.037542004314474 ] } },
{ "type": "Feature", "properties": { "P29_001": "11464", "P29_002": "D111346400010", "P29_003": "16004", "P29_004": "昌平高等学校", "P29_005": "埼玉県北葛飾郡杉戸町下野851", "P29_006": "4", "P29_007": "0", "P29_008": "00", "P29_009": null }, "geometry": { "type": "Point", "coordinates": [ 139.70064599667171, 36.057186998984683 ] } },
{ "type": "Feature", "properties": { "P29_001": "11464", "P29_002": "D111346400029", "P29_003": "16004", "P29_004": "志学会高等学校", "P29_005": "埼玉県北葛飾郡杉戸町並塚1643", "P29_006": "4", "P29_007": "0", "P29_008": "00", "P29_009": null }, "geometry": { "type": "Point", "coordinates": [ 139.770421001014398, 36.042056002983998 ] } }
]
}
