{
"type": "FeatureCollection",
"name": "geo_11_専修学校",
"crs": { "type": "name", "properties": { "name": "urn:ogc:def:crs:EPSG::6668" } },
"features": [
{ "type": "Feature", "properties": { "P29_001": "11208", "P29_002": "H111110000015", "P29_003": "16016", "P29_004": "国立障害者リハビリテーションセンター", "P29_005": "埼玉県所沢市並木4-1", "P29_006": "1", "P29_007": "0", "P29_008": "00", "P29_009": null }, "geometry": { "type": "Point", "coordinates": [ 139.462262342016771, 35.806523137841381 ] } },
{ "type": "Feature", "properties": { "P29_001": "11208", "P29_002": "H111110000024", "P29_003": "16016", "P29_004": "国立障害者リハビリテーションセンター学院", "P29_005": "埼玉県所沢市並木4-1", "P29_006": "1", "P29_007": "0", "P29_008": "00", "P29_009": null }, "geometry": { "type": "Point", "coordinates": [ 139.462178153288676, 35.806591500037946 ] } },
{ "type": "Feature", "properties": { "P29_001": "11109", "P29_002": "H111210900014", "P29_003": "16016", "P29_004": "さいたま市立高等看護学院", "P29_005": "埼玉県さいたま市緑区三室2460", "P29_006": "3", "P29_007": "0", "P29_008": "00", "P29_009": null }, "geometry": { "type": "Point", "coordinates": [ 139.678662997092374, 35.891736001843526 ] } },
{ "type": "Feature", "properties": { "P29_001": "11202", "P29_002": "H111220200010", "P29_003": "16016", "P29_004": "埼玉県立高等看護学院", "P29_005": "埼玉県熊谷市板井1696-5", "P29_006": "2", "P29_007": "0", "P29_008": "00", "P29_009": null }, "geometry": { "type": "Point", "coordinates": [ 139.306613775081843, 36.110980624964903 ] } },
{ "type": "Feature", "properties": { "P29_001": "11202", "P29_002": "H111220200029", "P29_003": "16016", "P29_004": "埼玉県農業大学校", "P29_005": "埼玉県熊谷市樋春2010", "P29_006": "2", "P29_007": "0", "P29_008": "00", "P29_009": null }, "geometry": { "type": "Point", "coordinates": [ 139.355964997706451, 36.111745996744254 ] } },
{ "type": "Feature", "properties": { "P29_001": "11203", "P29_002": "H111220300019", "P29_003": "16016", "P29_004": "川口市立看護専門学校", "P29_005": "埼玉県川口市大字新井宿802-3", "P29_006": "3", "P29_007": "0", "P29_008": "00", "P29_009": null }, "geometry": { "type": "Point", "coordinates": [ 139.728933000914282, 35.841993001604941 ] } },
{ "type": "Feature", "properties": { "P29_001": "11214", "P29_002": "H111221400016", "P29_003": "16016", "P29_004": "春日部市立看護専門学校", "P29_005": "埼玉県春日部市粕壁6686", "P29_006": "3", "P29_007": "0", "P29_008": "00", "P29_009": null }, "geometry": { "type": "Point", "coordinates": [ 139.74571200299809, 35.981819001395692 ] } },
{ "type": "Feature", "properties": { "P29_001": "11103", "P29_002": "H111310300018", "P29_003": "16016", "P29_004": "埼玉動物海洋専門学校", "P29_005": "埼玉県さいたま市大宮区三橋2-153", "P29_006": "4", "P29_007": "0", "P29_008": "00", "P29_009": null }, "geometry": { "type": "Point", "coordinates": [ 139.602495004605458, 35.902969996407982 ] } },
{ "type": "Feature", "properties": { "P29_001": "11103", "P29_002": "H111310300027", "P29_003": "16016", "P29_004": "埼玉コンピュータ＆医療事務専門学校", "P29_005": "埼玉県さいたま市大宮区上小町1450-3", "P29_006": "4", "P29_007": "0", "P29_008": "00", "P29_009": null }, "geometry": { "type": "Point", "coordinates": [ 139.615771998372708, 35.895402001468483 ] } },
{ "type": "Feature", "properties": { "P29_001": "11103", "P29_002": "H111310300036", "P29_003": "16016", "P29_004": "駿台予備学校大宮校", "P29_005": "埼玉県さいたま市大宮区桜木町1-235-3", "P29_006": "4", "P29_007": "0", "P29_008": "00", "P29_009": null }, "geometry": { "type": "Point", "coordinates": [ 139.623438004666497, 35.902789997036464 ] } },
{ "type": "Feature", "properties": { "P29_001": "11103", "P29_002": "H111310300045", "P29_003": "16016", "P29_004": "大宮歯科衛生士専門学校", "P29_005": "埼玉県さいたま市大宮区下町3-47", "P29_006": "4", "P29_007": "0", "P29_008": "00", "P29_009": null }, "geometry": { "type": "Point", "coordinates": [ 139.630774085980676, 35.903372988980152 ] } },
{ "type": "Feature", "properties": { "P29_001": "11103", "P29_002": "H111310300054", "P29_003": "16016", "P29_004": "大宮医師会看護専門学校", "P29_005": "埼玉県さいたま市大宮区浅間町2-140", "P29_006": "4", "P29_007": "0", "P29_008": "00", "P29_009": null }, "geometry": { "type": "Point", "coordinates": [ 139.634300997344866, 35.902081996559779 ] } },
{ "type": "Feature", "properties": { "P29_001": "11103", "P29_002": "H111310300063", "P29_003": "16016", "P29_004": "大原簿記情報ビジネス専門学校大宮校", "P29_005": "埼玉県さいたま市大宮区宮町4-13-2", "P29_006": "4", "P29_007": "0", "P29_008": "00", "P29_009": null }, "geometry": { "type": "Point", "coordinates": [ 139.624668001358145, 35.909663999414271 ] } },
{ "type": "Feature", "properties": { "P29_001": "11103", "P29_002": "H111310300072", "P29_003": "16016", "P29_004": "専修学校河合塾大宮校", "P29_005": "埼玉県さいたま市大宮区大門町3-67-2", "P29_006": "4", "P29_007": "0", "P29_008": "00", "P29_009": null }, "geometry": { "type": "Point", "coordinates": [ 139.629635002754441, 35.907530998859507 ] } },
{ "type": "Feature", "properties": { "P29_001": "11103", "P29_002": "H111310300081", "P29_003": "16016", "P29_004": "埼玉福祉保育医療製菓調理専門学校", "P29_005": "埼玉県さいたま市大宮区仲町3-88-2", "P29_006": "4", "P29_007": "0", "P29_008": "00", "P29_009": null }, "geometry": { "type": "Point", "coordinates": [ 139.629471003982729, 35.905542003385207 ] } },
{ "type": "Feature", "properties": { "P29_001": "11103", "P29_002": "H111310300090", "P29_003": "16016", "P29_004": "大原法律公務員専門学校大宮校", "P29_005": "埼玉県さいたま市大宮区宮町4-111-1", "P29_006": "4", "P29_007": "0", "P29_008": "00", "P29_009": null }, "geometry": { "type": "Point", "coordinates": [ 139.625042998910658, 35.910118995711748 ] } },
{ "type": "Feature", "properties": { "P29_001": "11103", "P29_002": "H111310300107", "P29_003": "16016", "P29_004": "大宮国際動物専門学校", "P29_005": "埼玉県さいたま市大宮区桜木町2-289-2", "P29_006": "4", "P29_007": "0", "P29_008": "00", "P29_009": null }, "geometry": { "type": "Point", "coordinates": [ 139.617432997356133, 35.906563999122348 ] } },
{ "type": "Feature", "properties": { "P29_001": "11103", "P29_002": "H111310300116", "P29_003": "16016", "P29_004": "東京ＩＴ会計法律専門学校大宮校", "P29_005": "埼玉県さいたま市大宮区桜木町1-152-1", "P29_006": "4", "P29_007": "0", "P29_008": "00", "P29_009": null }, "geometry": { "type": "Point", "coordinates": [ 139.623784995905368, 35.903830997781981 ] } },
{ "type": "Feature", "properties": { "P29_001": "11103", "P29_002": "H111310300125", "P29_003": "16016", "P29_004": "大宮理容美容専門学校", "P29_005": "埼玉県さいたま市大宮区桜木町4-92", "P29_006": "4", "P29_007": "0", "P29_008": "00", "P29_009": null }, "geometry": { "type": "Point", "coordinates": [ 139.616457999666125, 35.906533002890832 ] } },
{ "type": "Feature", "properties": { "P29_001": "11103", "P29_002": "H111310300134", "P29_003": "16016", "P29_004": "大原医療秘書福祉専門学校大宮校", "P29_005": "埼玉県さいたま市大宮区宮町2-61-1", "P29_006": "4", "P29_007": "0", "P29_008": "00", "P29_009": null }, "geometry": { "type": "Point", "coordinates": [ 139.627144598605042, 35.910029159505704 ] } },
{ "type": "Feature", "properties": { "P29_001": "11103", "P29_002": "H111310300143", "P29_003": "16016", "P29_004": "呉竹医療専門学校", "P29_005": "埼玉県さいたま市大宮区桜木町1-185-1", "P29_006": "4", "P29_007": "0", "P29_008": "00", "P29_009": null }, "geometry": { "type": "Point", "coordinates": [ 139.622106997928512, 35.90317700467201 ] } },
{ "type": "Feature", "properties": { "P29_001": "11103", "P29_002": "H111310300152", "P29_003": "16016", "P29_004": "さいたまＩＴ・ＷＥＢ専門学校", "P29_005": "埼玉県さいたま市大宮区仲町3-25", "P29_006": "4", "P29_007": "0", "P29_008": "00", "P29_009": null }, "geometry": { "type": "Point", "coordinates": [ 139.628956995956997, 35.90523399933361 ] } },
{ "type": "Feature", "properties": { "P29_001": "11103", "P29_002": "H111310300161", "P29_003": "16016", "P29_004": "大宮スイーツアンドカフェ専門学校", "P29_005": "埼玉県さいたま市大宮区桜木町1-389-3", "P29_006": "4", "P29_007": "0", "P29_008": "00", "P29_009": null }, "geometry": { "type": "Point", "coordinates": [ 139.620243001716887, 35.903799004797158 ] } },
{ "type": "Feature", "properties": { "P29_001": "11103", "P29_002": "H111310300170", "P29_003": "16016", "P29_004": "大宮ビューティーアンドブライダル専門学校", "P29_005": "埼玉県さいたま市大宮区桜木町1-389-3", "P29_006": "4", "P29_007": "0", "P29_008": "00", "P29_009": null }, "geometry": { "type": "Point", "coordinates": [ 139.620260000960883, 35.903664997217888 ] } },
{ "type": "Feature", "properties": { "P29_001": "11103", "P29_002": "H111310300189", "P29_003": "16016", "P29_004": "大宮医療秘書専門学校", "P29_005": "埼玉県さいたま市大宮区桜木町1-197-1", "P29_006": "4", "P29_007": "0", "P29_008": "00", "P29_009": null }, "geometry": { "type": "Point", "coordinates": [ 139.621761005303057, 35.903996999388738 ] } },
{ "type": "Feature", "properties": { "P29_001": "11103", "P29_002": "H111310300198", "P29_003": "16016", "P29_004": "ミス・パリ・ビューティ専門学校大宮校", "P29_005": "埼玉県さいたま市大宮区高鼻町1-46", "P29_006": "4", "P29_007": "0", "P29_008": "00", "P29_009": null }, "geometry": { "type": "Point", "coordinates": [ 139.629195996132779, 35.90980299878467 ] } },
{ "type": "Feature", "properties": { "P29_001": "11103", "P29_002": "H111310300205", "P29_003": "16016", "P29_004": "大宮こども専門学校", "P29_005": "埼玉県さいたま市大宮区桜木町1-197-1", "P29_006": "4", "P29_007": "0", "P29_008": "00", "P29_009": null }, "geometry": { "type": "Point", "coordinates": [ 139.621828996772592, 35.904092002841615 ] } },
{ "type": "Feature", "properties": { "P29_001": "11103", "P29_002": "H111310300214", "P29_003": "16016", "P29_004": "大原こども専門学校", "P29_005": "埼玉県さいたま市大宮区宮町4-6", "P29_006": "4", "P29_007": "0", "P29_008": "00", "P29_009": null }, "geometry": { "type": "Point", "coordinates": [ 139.624449001012522, 35.90970800042404 ] } },
{ "type": "Feature", "properties": { "P29_001": "11104", "P29_002": "H111310400017", "P29_003": "16016", "P29_004": "埼玉歯科技工士専門学校", "P29_005": "埼玉県さいたま市見沼区東大宮1-12-35", "P29_006": "4", "P29_007": "0", "P29_008": "00", "P29_009": null }, "geometry": { "type": "Point", "coordinates": [ 139.640747004296799, 35.944389996063627 ] } },
{ "type": "Feature", "properties": { "P29_001": "11104", "P29_002": "H111310400026", "P29_003": "16016", "P29_004": "新洋国際専門学校", "P29_005": "埼玉県さいたま市見沼区東大宮4-25-10", "P29_006": "4", "P29_007": "0", "P29_008": "00", "P29_009": null }, "geometry": { "type": "Point", "coordinates": [ 139.640160004808763, 35.950054995073977 ] } },
{ "type": "Feature", "properties": { "P29_001": "11106", "P29_002": "H111310600015", "P29_003": "16016", "P29_004": "国際医療専門学校", "P29_005": "埼玉県さいたま市桜区田島9-4-10", "P29_006": "4", "P29_007": "0", "P29_008": "00", "P29_009": null }, "geometry": { "type": "Point", "coordinates": [ 139.625353995010528, 35.846690998447954 ] } },
{ "type": "Feature", "properties": { "P29_001": "11107", "P29_002": "H111310700014", "P29_003": "16016", "P29_004": "さいたま柔整専門学校", "P29_005": "埼玉県さいたま市浦和区針ヶ谷2-6-16", "P29_006": "4", "P29_007": "0", "P29_008": "00", "P29_009": null }, "geometry": { "type": "Point", "coordinates": [ 139.642642001055833, 35.880950999936651 ] } },
{ "type": "Feature", "properties": { "P29_001": "11107", "P29_002": "H111310700023", "P29_003": "16016", "P29_004": "内外家政専門学校", "P29_005": "埼玉県さいたま市浦和区東仲町1-18", "P29_006": "4", "P29_007": "0", "P29_008": "00", "P29_009": null }, "geometry": { "type": "Point", "coordinates": [ 139.657435996788791, 35.859436996273047 ] } },
{ "type": "Feature", "properties": { "P29_001": "11107", "P29_002": "H111310700032", "P29_003": "16016", "P29_004": "埼玉県理容美容専門学校", "P29_005": "埼玉県さいたま市浦和区北浦和5-4-24", "P29_006": "4", "P29_007": "0", "P29_008": "00", "P29_009": null }, "geometry": { "type": "Point", "coordinates": [ 139.641993000132544, 35.873187999265888 ] } },
{ "type": "Feature", "properties": { "P29_001": "11107", "P29_002": "H111310700041", "P29_003": "16016", "P29_004": "浦和専門学校", "P29_005": "埼玉県さいたま市浦和区東高砂町30-8", "P29_006": "4", "P29_007": "0", "P29_008": "00", "P29_009": null }, "geometry": { "type": "Point", "coordinates": [ 139.662065997254359, 35.860320999181347 ] } },
{ "type": "Feature", "properties": { "P29_001": "11109", "P29_002": "H111310900012", "P29_003": "16016", "P29_004": "浦和美術専門学校・高等専修学校", "P29_005": "埼玉県さいたま市緑区大間木3-39-8", "P29_006": "4", "P29_007": "0", "P29_008": "00", "P29_009": null }, "geometry": { "type": "Point", "coordinates": [ 139.690094057353463, 35.879121834755473 ] } },
{ "type": "Feature", "properties": { "P29_001": "11109", "P29_002": "H111310900021", "P29_003": "16016", "P29_004": "さいたま看護専門学校", "P29_005": "埼玉県さいたま市緑区三室1261-1", "P29_006": "4", "P29_007": "0", "P29_008": "00", "P29_009": null }, "geometry": { "type": "Point", "coordinates": [ 139.675794994071538, 35.878515996065566 ] } },
{ "type": "Feature", "properties": { "P29_001": "11110", "P29_002": "H111311000028", "P29_003": "16016", "P29_004": "早稲田医療技術専門学校", "P29_005": "埼玉県さいたま市岩槻区太田字新正寺曲輪354-3", "P29_006": "4", "P29_007": "0", "P29_008": "00", "P29_009": null }, "geometry": { "type": "Point", "coordinates": [ 139.698390003170147, 35.959927004298656 ] } },
{ "type": "Feature", "properties": { "P29_001": "11201", "P29_002": "H111320100019", "P29_003": "16016", "P29_004": "専門学校トータルビューティカレッジ川越", "P29_005": "埼玉県川越市新宿町1-20-9", "P29_006": "4", "P29_007": "0", "P29_008": "00", "P29_009": null }, "geometry": { "type": "Point", "coordinates": [ 139.478283001939928, 35.903683998591745 ] } },
{ "type": "Feature", "properties": { "P29_001": "11201", "P29_002": "H111320100028", "P29_003": "16016", "P29_004": "埼玉医科大学附属総合医療センター看護専門学校", "P29_005": "埼玉県川越市鴨田1940-1", "P29_006": "4", "P29_007": "0", "P29_008": "00", "P29_009": null }, "geometry": { "type": "Point", "coordinates": [ 139.521566999288126, 35.934988999334706 ] } },
{ "type": "Feature", "properties": { "P29_001": "11201", "P29_002": "H111320100037", "P29_003": "16016", "P29_004": "国際情報経済専門学校", "P29_005": "埼玉県川越市的場2797-30", "P29_006": "4", "P29_007": "0", "P29_008": "00", "P29_009": null }, "geometry": { "type": "Point", "coordinates": [ 139.446639117136556, 35.924986486039671 ] } },
{ "type": "Feature", "properties": { "P29_001": "11201", "P29_002": "H111320100046", "P29_003": "16016", "P29_004": "川越市医師会川越看護専門学校", "P29_005": "埼玉県川越市小仙波町2-53-1", "P29_006": "4", "P29_007": "0", "P29_008": "00", "P29_009": null }, "geometry": { "type": "Point", "coordinates": [ 139.496238995030069, 35.920162001926684 ] } },
{ "type": "Feature", "properties": { "P29_001": "11201", "P29_002": "H111320100055", "P29_003": "16016", "P29_004": "医学アカデミー", "P29_005": "埼玉県川越市中台元町1-18-1", "P29_006": "4", "P29_007": "0", "P29_008": "00", "P29_009": null }, "geometry": { "type": "Point", "coordinates": [ 139.480491998722897, 35.890785001926865 ] } },
{ "type": "Feature", "properties": { "P29_001": "11201", "P29_002": "H111320100064", "P29_003": "16016", "P29_004": "東京国際学園外語専門学校", "P29_005": "埼玉県川越市大字砂1071-5", "P29_006": "4", "P29_007": "0", "P29_008": "00", "P29_009": null }, "geometry": { "type": "Point", "coordinates": [ 139.499250999809391, 35.889049999600815 ] } },
{ "type": "Feature", "properties": { "P29_001": "11202", "P29_002": "H111320200018", "P29_003": "16016", "P29_004": "埼玉県栄養専門学校", "P29_005": "埼玉県熊谷市籠原南2-149", "P29_006": "4", "P29_007": "0", "P29_008": "00", "P29_009": null }, "geometry": { "type": "Point", "coordinates": [ 139.329068996436348, 36.169733003057139 ] } },
{ "type": "Feature", "properties": { "P29_001": "11202", "P29_002": "H111320200027", "P29_003": "16016", "P29_004": "熊谷文化服装専門学校", "P29_005": "埼玉県熊谷市久下1701", "P29_006": "4", "P29_007": "0", "P29_008": "00", "P29_009": null }, "geometry": { "type": "Point", "coordinates": [ 139.402880338730654, 36.126233860743199 ] } },
{ "type": "Feature", "properties": { "P29_001": "11202", "P29_002": "H111320200036", "P29_003": "16016", "P29_004": "熊谷外国語専門学校", "P29_005": "埼玉県熊谷市籠原南1-134", "P29_006": "4", "P29_007": "0", "P29_008": "00", "P29_009": null }, "geometry": { "type": "Point", "coordinates": [ 139.333396004711432, 36.172598000901552 ] } },
{ "type": "Feature", "properties": { "P29_001": "11202", "P29_002": "H111320200045", "P29_003": "16016", "P29_004": "熊谷市医師会看護専門学校", "P29_005": "埼玉県熊谷市大原1-5-28", "P29_006": "4", "P29_007": "0", "P29_008": "00", "P29_009": null }, "geometry": { "type": "Point", "coordinates": [ 139.380672362312538, 36.152892540060122 ] } },
{ "type": "Feature", "properties": { "P29_001": "11202", "P29_002": "H111320200054", "P29_003": "16016", "P29_004": "埼玉県調理師専門学校", "P29_005": "埼玉県熊谷市籠原南2-149", "P29_006": "4", "P29_007": "0", "P29_008": "00", "P29_009": null }, "geometry": { "type": "Point", "coordinates": [ 139.329168994058762, 36.169733000567 ] } },
{ "type": "Feature", "properties": { "P29_001": "11202", "P29_002": "H111320200063", "P29_003": "16016", "P29_004": "アルスコンピュータ専門学校", "P29_005": "埼玉県熊谷市鎌倉町124", "P29_006": "4", "P29_007": "0", "P29_008": "00", "P29_009": null }, "geometry": { "type": "Point", "coordinates": [ 139.38243300081615, 36.144364996210854 ] } },
{ "type": "Feature", "properties": { "P29_001": "11202", "P29_002": "H111320200072", "P29_003": "16016", "P29_004": "埼玉県製菓専門学校", "P29_005": "埼玉県熊谷市籠原南2-160", "P29_006": "4", "P29_007": "0", "P29_008": "00", "P29_009": null }, "geometry": { "type": "Point", "coordinates": [ 139.329124999138486, 36.170269000313326 ] } },
{ "type": "Feature", "properties": { "P29_001": "11203", "P29_002": "H111320300017", "P29_003": "16016", "P29_004": "日本産業専門学校", "P29_005": "埼玉県川口市飯塚1-9-18", "P29_006": "4", "P29_007": "0", "P29_008": "00", "P29_009": null }, "geometry": { "type": "Point", "coordinates": [ 139.713728000809255, 35.798248997991685 ] } },
{ "type": "Feature", "properties": { "P29_001": "11203", "P29_002": "H111320300026", "P29_003": "16016", "P29_004": "川口文化服装専門学校", "P29_005": "埼玉県川口市幸町3-5-33", "P29_006": "4", "P29_007": "0", "P29_008": "00", "P29_009": null }, "geometry": { "type": "Point", "coordinates": [ 139.715703996973559, 35.806233997072525 ] } },
{ "type": "Feature", "properties": { "P29_001": "11203", "P29_002": "H111320300035", "P29_003": "16016", "P29_004": "済生会川口看護専門学校", "P29_005": "埼玉県川口市西川口6-9-7", "P29_006": "4", "P29_007": "0", "P29_008": "00", "P29_009": null }, "geometry": { "type": "Point", "coordinates": [ 139.701184004635564, 35.807262003453275 ] } },
{ "type": "Feature", "properties": { "P29_001": "11203", "P29_002": "H111320300044", "P29_003": "16016", "P29_004": "大橋医療高等専修学校", "P29_005": "埼玉県川口市栄町2-7-16", "P29_006": "4", "P29_007": "0", "P29_008": "00", "P29_009": null }, "geometry": { "type": "Point", "coordinates": [ 139.722870998022046, 35.8027819986808 ] } },
{ "type": "Feature", "properties": { "P29_001": "11206", "P29_002": "H111320600014", "P29_003": "16016", "P29_004": "テクノ・ホルティ園芸専門学校", "P29_005": "埼玉県行田市大字埼玉4758-1", "P29_006": "4", "P29_007": "0", "P29_008": "00", "P29_009": null }, "geometry": { "type": "Point", "coordinates": [ 139.486066001370489, 36.120457995906904 ] } },
{ "type": "Feature", "properties": { "P29_001": "11207", "P29_002": "H111320700013", "P29_003": "16016", "P29_004": "秩父家政専門学校", "P29_005": "埼玉県秩父市熊木町1-6", "P29_006": "4", "P29_007": "0", "P29_008": "00", "P29_009": null }, "geometry": { "type": "Point", "coordinates": [ 139.084461222287359, 35.993419377214465 ] } },
{ "type": "Feature", "properties": { "P29_001": "11207", "P29_002": "H111320700022", "P29_003": "16016", "P29_004": "秩父看護専門学校", "P29_005": "埼玉県秩父市熊木町3-9", "P29_006": "4", "P29_007": "0", "P29_008": "00", "P29_009": null }, "geometry": { "type": "Point", "coordinates": [ 139.085341002550052, 35.992652004133014 ] } },
{ "type": "Feature", "properties": { "P29_001": "11208", "P29_002": "H111320800012", "P29_003": "16016", "P29_004": "専門学校浜西ファッションアカデミー", "P29_005": "埼玉県所沢市緑町1-19-15", "P29_006": "4", "P29_007": "0", "P29_008": "00", "P29_009": null }, "geometry": { "type": "Point", "coordinates": [ 139.454574998132216, 35.806739996499005 ] } },
{ "type": "Feature", "properties": { "P29_001": "11208", "P29_002": "H111320800021", "P29_003": "16016", "P29_004": "西武学園医学技術専門学校", "P29_005": "埼玉県所沢市泉町1806", "P29_006": "4", "P29_007": "0", "P29_008": "00", "P29_009": null }, "geometry": { "type": "Point", "coordinates": [ 139.461892115082549, 35.801225435252441 ] } },
{ "type": "Feature", "properties": { "P29_001": "11208", "P29_002": "H111320800030", "P29_003": "16016", "P29_004": "国際航空専門学校", "P29_005": "埼玉県所沢市久米354", "P29_006": "4", "P29_007": "0", "P29_008": "00", "P29_009": null }, "geometry": { "type": "Point", "coordinates": [ 139.472385004677733, 35.776636001728619 ] } },
{ "type": "Feature", "properties": { "P29_001": "11208", "P29_002": "H111320800049", "P29_003": "16016", "P29_004": "早稲田ゼミナール所沢校", "P29_005": "埼玉県所沢市喜多町16-12", "P29_006": "4", "P29_007": "0", "P29_008": "00", "P29_009": null }, "geometry": { "type": "Point", "coordinates": [ 139.4647990028474, 35.798648998741854 ] } },
{ "type": "Feature", "properties": { "P29_001": "11208", "P29_002": "H111320800058", "P29_003": "16016", "P29_004": "秋草学園福祉教育専門学校", "P29_005": "埼玉県所沢市東所沢1-11-11", "P29_006": "4", "P29_007": "0", "P29_008": "00", "P29_009": null }, "geometry": { "type": "Point", "coordinates": [ 139.514764997141981, 35.795453999619461 ] } },
{ "type": "Feature", "properties": { "P29_001": "11208", "P29_002": "H111320800067", "P29_003": "16016", "P29_004": "所沢看護専門学校", "P29_005": "埼玉県所沢市上安松1224-7", "P29_006": "4", "P29_007": "0", "P29_008": "00", "P29_009": null }, "geometry": { "type": "Point", "coordinates": [ 139.48022599736035, 35.792441996029588 ] } },
{ "type": "Feature", "properties": { "P29_001": "11208", "P29_002": "H111320800076", "P29_003": "16016", "P29_004": "国立病院機構西埼玉中央病院附属看護学校", "P29_005": "埼玉県所沢市若狭2-1671", "P29_006": "4", "P29_007": "0", "P29_008": "00", "P29_009": null }, "geometry": { "type": "Point", "coordinates": [ 139.425528997303928, 35.804029001757151 ] } },
{ "type": "Feature", "properties": { "P29_001": "11208", "P29_002": "H111320800085", "P29_003": "16016", "P29_004": "コロンビアインターナショナルスクール", "P29_005": "埼玉県所沢市松郷153-1", "P29_006": "4", "P29_007": "0", "P29_008": "00", "P29_009": null }, "geometry": { "type": "Point", "coordinates": [ 139.508393004352001, 35.800034003066301 ] } },
{ "type": "Feature", "properties": { "P29_001": "11208", "P29_002": "H111320800094", "P29_003": "16016", "P29_004": "西武調理師アート専門学校", "P29_005": "埼玉県所沢市松葉町4-23", "P29_006": "4", "P29_007": "0", "P29_008": "00", "P29_009": null }, "geometry": { "type": "Point", "coordinates": [ 139.457659661550821, 35.80571453080497 ] } },
{ "type": "Feature", "properties": { "P29_001": "11209", "P29_002": "H111320900011", "P29_003": "16016", "P29_004": "大川学園高等専修学校", "P29_005": "埼玉県飯能市下加治345", "P29_006": "4", "P29_007": "0", "P29_008": "00", "P29_009": null }, "geometry": { "type": "Point", "coordinates": [ 139.335910002253542, 35.860780002893392 ] } },
{ "type": "Feature", "properties": { "P29_001": "11209", "P29_002": "H111320900020", "P29_003": "16016", "P29_004": "飯能看護専門学校", "P29_005": "埼玉県飯能市下加治359", "P29_006": "4", "P29_007": "0", "P29_008": "00", "P29_009": null }, "geometry": { "type": "Point", "coordinates": [ 139.335610588959213, 35.86000470121899 ] } },
{ "type": "Feature", "properties": { "P29_001": "11209", "P29_002": "H111320900039", "P29_003": "16016", "P29_004": "大川学園医療福祉専門学校", "P29_005": "埼玉県飯能市大字下加治345", "P29_006": "4", "P29_007": "0", "P29_008": "00", "P29_009": null }, "geometry": { "type": "Point", "coordinates": [ 139.336102000028916, 35.861332999965697 ] } },
{ "type": "Feature", "properties": { "P29_001": "11211", "P29_002": "H111321100017", "P29_003": "16016", "P29_004": "本庄情報ビジネス専門学校", "P29_005": "埼玉県本庄市駅南2-3-5", "P29_006": "4", "P29_007": "0", "P29_008": "00", "P29_009": null }, "geometry": { "type": "Point", "coordinates": [ 139.189529001122935, 36.23497399591691 ] } },
{ "type": "Feature", "properties": { "P29_001": "11217", "P29_002": "H111321700011", "P29_003": "16016", "P29_004": "専門学校関東工業自動車大学校", "P29_005": "埼玉県鴻巣市糠田2618-8", "P29_006": "4", "P29_007": "0", "P29_008": "00", "P29_009": null }, "geometry": { "type": "Point", "coordinates": [ 139.483781998881, 36.072709000087031 ] } },
{ "type": "Feature", "properties": { "P29_001": "11217", "P29_002": "H111321700020", "P29_003": "16016", "P29_004": "関東福祉専門学校", "P29_005": "埼玉県鴻巣市中央23-10", "P29_006": "4", "P29_007": "0", "P29_008": "00", "P29_009": null }, "geometry": { "type": "Point", "coordinates": [ 139.524004997710932, 36.062885995219879 ] } },
{ "type": "Feature", "properties": { "P29_001": "11218", "P29_002": "H111321800010", "P29_003": "16016", "P29_004": "深谷大里看護専門学校", "P29_005": "埼玉県深谷市新戒749-1", "P29_006": "4", "P29_007": "0", "P29_008": "00", "P29_009": null }, "geometry": { "type": "Point", "coordinates": [ 139.291830975787519, 36.227653591802024 ] } },
{ "type": "Feature", "properties": { "P29_001": "11218", "P29_002": "H111321800029", "P29_003": "16016", "P29_004": "葵メディカルアカデミー", "P29_005": "埼玉県深谷市西島町3-14-4", "P29_006": "4", "P29_007": "0", "P29_008": "00", "P29_009": null }, "geometry": { "type": "Point", "coordinates": [ 139.280631846015012, 36.193550125376248 ] } },
{ "type": "Feature", "properties": { "P29_001": "11219", "P29_002": "H111321900019", "P29_003": "16016", "P29_004": "上尾中央看護専門学校", "P29_005": "埼玉県上尾市平塚字八ツ山848-1", "P29_006": "4", "P29_007": "0", "P29_008": "00", "P29_009": null }, "geometry": { "type": "Point", "coordinates": [ 139.607711993993519, 35.982493002675653 ] } },
{ "type": "Feature", "properties": { "P29_001": "11219", "P29_002": "H111321900028", "P29_003": "16016", "P29_004": "埼玉歯科衛生専門学校", "P29_005": "埼玉県上尾市愛宕1-22-13", "P29_006": "4", "P29_007": "0", "P29_008": "00", "P29_009": null }, "geometry": { "type": "Point", "coordinates": [ 139.596814000328834, 35.968679999601356 ] } },
{ "type": "Feature", "properties": { "P29_001": "11219", "P29_002": "H111321900037", "P29_003": "16016", "P29_004": "上尾市医師会上尾看護専門学校", "P29_005": "埼玉県上尾市原市3494-4", "P29_006": "4", "P29_007": "0", "P29_008": "00", "P29_009": null }, "geometry": { "type": "Point", "coordinates": [ 139.62651905442425, 35.966880028208891 ] } },
{ "type": "Feature", "properties": { "P29_001": "11219", "P29_002": "H111321900046", "P29_003": "16016", "P29_004": "埼玉医療福祉専門学校", "P29_005": "埼玉県上尾市井戸木2-2-1", "P29_006": "4", "P29_007": "0", "P29_008": "00", "P29_009": null }, "geometry": { "type": "Point", "coordinates": [ 139.564842998760383, 35.992968999072673 ] } },
{ "type": "Feature", "properties": { "P29_001": "11219", "P29_002": "H111321900055", "P29_003": "16016", "P29_004": "上尾中央医療専門学校", "P29_005": "埼玉県上尾市大字平塚678-1", "P29_006": "4", "P29_007": "0", "P29_008": "00", "P29_009": null }, "geometry": { "type": "Point", "coordinates": [ 139.61429035450368, 35.983860934223543 ] } },
{ "type": "Feature", "properties": { "P29_001": "11222", "P29_002": "H111322200014", "P29_003": "16016", "P29_004": "越谷保育専門学校", "P29_005": "埼玉県越谷市東越谷3-10-2", "P29_006": "4", "P29_007": "0", "P29_008": "00", "P29_009": null }, "geometry": { "type": "Point", "coordinates": [ 139.796187000170619, 35.894105001525681 ] } },
{ "type": "Feature", "properties": { "P29_001": "11222", "P29_002": "H111322200023", "P29_003": "16016", "P29_004": "専門学校日本医科学大学校", "P29_005": "埼玉県越谷市七左町1-314-1", "P29_006": "4", "P29_007": "0", "P29_008": "00", "P29_009": null }, "geometry": { "type": "Point", "coordinates": [ 139.781831000368214, 35.869686001599696 ] } },
{ "type": "Feature", "properties": { "P29_001": "11222", "P29_002": "H111322200032", "P29_003": "16016", "P29_004": "ＣＡＤ製図専門学校", "P29_005": "埼玉県越谷市南越谷4-17-11", "P29_006": "4", "P29_007": "0", "P29_008": "00", "P29_009": null }, "geometry": { "type": "Point", "coordinates": [ 139.789935266544063, 35.872715061475262 ] } },
{ "type": "Feature", "properties": { "P29_001": "11222", "P29_002": "H111322200041", "P29_003": "16016", "P29_004": "埼玉東萌美容専門学校", "P29_005": "埼玉県越谷市七左町1-337-3", "P29_006": "4", "P29_007": "0", "P29_008": "00", "P29_009": null }, "geometry": { "type": "Point", "coordinates": [ 139.780405000203643, 35.869448995487346 ] } },
{ "type": "Feature", "properties": { "P29_001": "11224", "P29_002": "H111322400012", "P29_003": "16016", "P29_004": "戸田中央看護専門学校", "P29_005": "埼玉県戸田市本町1-8-16", "P29_006": "4", "P29_007": "0", "P29_008": "00", "P29_009": null }, "geometry": { "type": "Point", "coordinates": [ 139.681321065005108, 35.810741400900639 ] } },
{ "type": "Feature", "properties": { "P29_001": "11224", "P29_002": "H111322400021", "P29_003": "16016", "P29_004": "蕨戸田市医師会看護専門学校", "P29_005": "埼玉県戸田市大字新曽1295-3", "P29_006": "4", "P29_007": "0", "P29_008": "00", "P29_009": null }, "geometry": { "type": "Point", "coordinates": [ 139.665158996136086, 35.822847001558799 ] } },
{ "type": "Feature", "properties": { "P29_001": "11225", "P29_002": "H111322500011", "P29_003": "16016", "P29_004": "入間看護専門学校", "P29_005": "埼玉県入間市狭山台1-3-7", "P29_006": "4", "P29_007": "0", "P29_008": "00", "P29_009": null }, "geometry": { "type": "Point", "coordinates": [ 139.366150995872289, 35.806373996400382 ] } },
{ "type": "Feature", "properties": { "P29_001": "11229", "P29_002": "H111322900017", "P29_003": "16016", "P29_004": "朝霞地区看護専門学校", "P29_005": "埼玉県和光市諏訪2-4", "P29_006": "4", "P29_007": "0", "P29_008": "00", "P29_009": null }, "geometry": { "type": "Point", "coordinates": [ 139.619568733331477, 35.774526414976627 ] } },
{ "type": "Feature", "properties": { "P29_001": "11227", "P29_002": "H111323000014", "P29_003": "16016", "P29_004": "中央情報専門学校", "P29_005": "埼玉県新座市東北2-33-10", "P29_006": "4", "P29_007": "0", "P29_008": "00", "P29_009": null }, "geometry": { "type": "Point", "coordinates": [ 139.576920995583123, 35.820782996702185 ] } },
{ "type": "Feature", "properties": { "P29_001": "11232", "P29_002": "H111323200012", "P29_003": "16016", "P29_004": "南埼玉郡市医師会久喜看護専門学校", "P29_005": "埼玉県久喜市本町5-10-12", "P29_006": "4", "P29_007": "0", "P29_008": "00", "P29_009": null }, "geometry": { "type": "Point", "coordinates": [ 139.664914998920665, 36.070606996148598 ] } },
{ "type": "Feature", "properties": { "P29_001": "11233", "P29_002": "H111323300011", "P29_003": "16016", "P29_004": "北里大学看護専門学校", "P29_005": "埼玉県北本市荒井6-102", "P29_006": "4", "P29_007": "0", "P29_008": "00", "P29_009": null }, "geometry": { "type": "Point", "coordinates": [ 139.511556462397465, 36.010782799724694 ] } },
{ "type": "Feature", "properties": { "P29_001": "11237", "P29_002": "H111323700017", "P29_003": "16016", "P29_004": "獨協医科大学附属看護専門学校三郷校", "P29_005": "埼玉県三郷市彦成3-11-21", "P29_006": "4", "P29_007": "0", "P29_008": "00", "P29_009": null }, "geometry": { "type": "Point", "coordinates": [ 139.857847886565935, 35.862726021814979 ] } },
{ "type": "Feature", "properties": { "P29_001": "11239", "P29_002": "H111323900015", "P29_003": "16016", "P29_004": "坂戸鶴ヶ島医師会立看護専門学校", "P29_005": "埼玉県坂戸市大字石井2326-16", "P29_006": "4", "P29_007": "0", "P29_008": "00", "P29_009": null }, "geometry": { "type": "Point", "coordinates": [ 139.408565425650039, 35.968056478748856 ] } },
{ "type": "Feature", "properties": { "P29_001": "11239", "P29_002": "H111323900024", "P29_003": "16016", "P29_004": "日本グローバル専門学校", "P29_005": "埼玉県坂戸市本町2-9", "P29_006": "4", "P29_007": "0", "P29_008": "00", "P29_009": null }, "geometry": { "type": "Point", "coordinates": [ 139.393032000279845, 35.960944000856074 ] } },
{ "type": "Feature", "properties": { "P29_001": "11239", "P29_002": "H111323900033", "P29_003": "16016", "P29_004": "山手ビジネスカレッジ", "P29_005": "埼玉県坂戸市千代田4-10-8", "P29_006": "4", "P29_007": "0", "P29_008": "00", "P29_009": null }, "geometry": { "type": "Point", "coordinates": [ 139.410174996116211, 35.953707996047839 ] } },
{ "type": "Feature", "properties": { "P29_001": "11240", "P29_002": "H111324000012", "P29_003": "16016", "P29_004": "幸手看護専門学校", "P29_005": "埼玉県幸手市香日向4-5-1", "P29_006": "4", "P29_007": "0", "P29_008": "00", "P29_009": null }, "geometry": { "type": "Point", "coordinates": [ 139.701583998457153, 36.087527998402166 ] } },
{ "type": "Feature", "properties": { "P29_001": "11243", "P29_002": "H111324300019", "P29_003": "16016", "P29_004": "吉川福祉専門学校", "P29_005": "埼玉県吉川市保1-23-14", "P29_006": "4", "P29_007": "0", "P29_008": "00", "P29_009": null }, "geometry": { "type": "Point", "coordinates": [ 139.84534399883151, 35.879756002757233 ] } },
{ "type": "Feature", "properties": { "P29_001": "11245", "P29_002": "H111324500026", "P29_003": "16016", "P29_004": "ホンダテクニカルカレッジ関東", "P29_005": "埼玉県ふじみ野市鶴ヶ岡5-2-2", "P29_006": "4", "P29_007": "0", "P29_008": "00", "P29_009": null }, "geometry": { "type": "Point", "coordinates": [ 139.499449000118375, 35.86583899985677 ] } },
{ "type": "Feature", "properties": { "P29_001": "11245", "P29_002": "H111324500044", "P29_003": "16016", "P29_004": "上福岡高等看護学院", "P29_005": "埼玉県ふじみ野市福岡新田76-1", "P29_006": "4", "P29_007": "0", "P29_008": "00", "P29_009": null }, "geometry": { "type": "Point", "coordinates": [ 139.539164447772038, 35.875824670369546 ] } },
{ "type": "Feature", "properties": { "P29_001": "11301", "P29_002": "H111330100018", "P29_003": "16016", "P29_004": "専門学校埼玉自動車大学校", "P29_005": "埼玉県北足立郡伊奈町大字小室1123", "P29_006": "4", "P29_007": "0", "P29_008": "00", "P29_009": null }, "geometry": { "type": "Point", "coordinates": [ 139.622979004423712, 35.983225999685949 ] } },
{ "type": "Feature", "properties": { "P29_001": "11326", "P29_002": "H111332600019", "P29_003": "16016", "P29_004": "埼玉医療福祉会看護専門学校", "P29_005": "埼玉県入間郡毛呂山町毛呂本郷38", "P29_006": "4", "P29_007": "0", "P29_008": "00", "P29_009": null }, "geometry": { "type": "Point", "coordinates": [ 139.305167436957703, 35.938116193089371 ] } },
{ "type": "Feature", "properties": { "P29_001": "11327", "P29_002": "H111332700018", "P29_003": "16016", "P29_004": "専門学校越生自動車大学校", "P29_005": "埼玉県入間郡越生町上野東1-3-2", "P29_006": "4", "P29_007": "0", "P29_008": "00", "P29_009": null }, "geometry": { "type": "Point", "coordinates": [ 139.310478533761483, 35.952505610269313 ] } },
{ "type": "Feature", "properties": { "P29_001": "11383", "P29_002": "H111338300019", "P29_003": "16016", "P29_004": "グルノーブル美容専門学校", "P29_005": "埼玉県児玉郡神川町新里1368-13", "P29_006": "4", "P29_007": "0", "P29_008": "00", "P29_009": null }, "geometry": { "type": "Point", "coordinates": [ 139.104145002599267, 36.195136996920859 ] } },
{ "type": "Feature", "properties": { "P29_001": "11383", "P29_002": "H111338300028", "P29_003": "16016", "P29_004": "かんな福祉専門学校", "P29_005": "埼玉県児玉郡神川町新里2779-5", "P29_006": "4", "P29_007": "0", "P29_008": "00", "P29_009": null }, "geometry": { "type": "Point", "coordinates": [ 139.094060000278262, 36.196627996614922 ] } },
{ "type": "Feature", "properties": { "P29_001": "11385", "P29_002": "H111338500017", "P29_003": "16016", "P29_004": "本庄児玉看護専門学校", "P29_005": "埼玉県児玉郡上里町大字嘉美字立野南1600-51", "P29_006": "4", "P29_007": "0", "P29_008": "00", "P29_009": null }, "geometry": { "type": "Point", "coordinates": [ 139.138451999269392, 36.220929997591909 ] } }
]
}
