{
"type": "FeatureCollection",
"name": "geo_11_各種学校",
"crs": { "type": "name", "properties": { "name": "urn:ogc:def:crs:EPSG::6668" } },
"features": [
{ "type": "Feature", "properties": { "P29_001": "11102", "P29_002": "H211310200018", "P29_003": "16015", "P29_004": "大宮医師会立大宮准看護学校", "P29_005": "埼玉県さいたま市北区東大成町2-107", "P29_006": "4", "P29_007": "0", "P29_008": "00", "P29_009": null }, "geometry": { "type": "Point", "coordinates": [ 139.620821221664727, 35.92535871169747 ] } },
{ "type": "Feature", "properties": { "P29_001": "11102", "P29_002": "H211310200027", "P29_003": "16015", "P29_004": "埼玉県自動車学校", "P29_005": "埼玉県さいたま市北区植竹町2-2", "P29_006": "4", "P29_007": "0", "P29_008": "00", "P29_009": null }, "geometry": { "type": "Point", "coordinates": [ 139.624546437074514, 35.931089968768859 ] } },
{ "type": "Feature", "properties": { "P29_001": "11103", "P29_002": "H211310300017", "P29_003": "16015", "P29_004": "大宮珠算学校", "P29_005": "埼玉県さいたま市大宮区土手町3-92", "P29_006": "4", "P29_007": "0", "P29_008": "00", "P29_009": null }, "geometry": { "type": "Point", "coordinates": [ 139.626878324089631, 35.91596555860432 ] } },
{ "type": "Feature", "properties": { "P29_001": "11103", "P29_002": "H211310300035", "P29_003": "16015", "P29_004": "埼玉朝鮮初中級学校", "P29_005": "埼玉県さいたま市大宮区堀の内町1-501-1", "P29_006": "4", "P29_007": "0", "P29_008": "00", "P29_009": null }, "geometry": { "type": "Point", "coordinates": [ 139.643448029377623, 35.913471020584169 ] } },
{ "type": "Feature", "properties": { "P29_001": "11103", "P29_002": "H211310300053", "P29_003": "16015", "P29_004": "埼玉日本語学校", "P29_005": "埼玉県さいたま市大宮区土手町1-58-1", "P29_006": "4", "P29_007": "0", "P29_008": "00", "P29_009": null }, "geometry": { "type": "Point", "coordinates": [ 139.624217684118946, 35.915402576738025 ] } },
{ "type": "Feature", "properties": { "P29_001": "11107", "P29_002": "H211310700013", "P29_003": "16015", "P29_004": "新藤花道学院", "P29_005": "埼玉県さいたま市浦和区高砂1-2-1エイペックスタワー南館", "P29_006": "4", "P29_007": "0", "P29_008": "00", "P29_009": null }, "geometry": { "type": "Point", "coordinates": [ 139.657867647266755, 35.856959998476036 ] } },
{ "type": "Feature", "properties": { "P29_001": "11108", "P29_002": "H211310800012", "P29_003": "16015", "P29_004": "武蔵浦和日本語学院", "P29_005": "埼玉県さいたま市南区鹿手袋4-14-7", "P29_006": "4", "P29_007": "0", "P29_008": "00", "P29_009": null }, "geometry": { "type": "Point", "coordinates": [ 139.641959444873521, 35.84698076979155 ] } },
{ "type": "Feature", "properties": { "P29_001": "11201", "P29_002": "H211320100018", "P29_003": "16015", "P29_004": "山手日本語学校", "P29_005": "埼玉県川越市脇田本町11-10", "P29_006": "4", "P29_007": "0", "P29_008": "00", "P29_009": null }, "geometry": { "type": "Point", "coordinates": [ 139.480063706003619, 35.905908148049889 ] } },
{ "type": "Feature", "properties": { "P29_001": "11202", "P29_002": "H211320200017", "P29_003": "16015", "P29_004": "熊谷准看護学校", "P29_005": "埼玉県熊谷市石原529-17", "P29_006": "4", "P29_007": "0", "P29_008": "00", "P29_009": null }, "geometry": { "type": "Point", "coordinates": [ 139.370551897491907, 36.154524848830029 ] } },
{ "type": "Feature", "properties": { "P29_001": "11203", "P29_002": "H211320300016", "P29_003": "16015", "P29_004": "鳩ケ谷珠算学校", "P29_005": "埼玉県川口市桜町1-2-26", "P29_006": "4", "P29_007": "0", "P29_008": "00", "P29_009": null }, "geometry": { "type": "Point", "coordinates": [ 139.738734811094076, 35.835621249785405 ] } },
{ "type": "Feature", "properties": { "P29_001": "11208", "P29_002": "H211320800011", "P29_003": "16015", "P29_004": "所沢市医師会立所沢准看護学院", "P29_005": "埼玉県所沢市上安松1224-7", "P29_006": "4", "P29_007": "0", "P29_008": "00", "P29_009": null }, "geometry": { "type": "Point", "coordinates": [ 139.479831574967875, 35.792458326667344 ] } },
{ "type": "Feature", "properties": { "P29_001": "11209", "P29_002": "H211320900010", "P29_003": "16015", "P29_004": "飯能研修学院", "P29_005": "埼玉県飯能市八幡町7-6", "P29_006": "4", "P29_007": "0", "P29_008": "00", "P29_009": null }, "geometry": { "type": "Point", "coordinates": [ 139.318860031236596, 35.85456520381895 ] } },
{ "type": "Feature", "properties": { "P29_001": "11211", "P29_002": "H211321100016", "P29_003": "16015", "P29_004": "本庄准看護学校", "P29_005": "埼玉県本庄市小島6-8-8", "P29_006": "4", "P29_007": "0", "P29_008": "00", "P29_009": null }, "geometry": { "type": "Point", "coordinates": [ 139.175675898517625, 36.247900019179291 ] } },
{ "type": "Feature", "properties": { "P29_001": "11212", "P29_002": "H211321200015", "P29_003": "16015", "P29_004": "東松山自動車学校", "P29_005": "埼玉県東松山市箭弓町2-6-42", "P29_006": "4", "P29_007": "0", "P29_008": "00", "P29_009": null }, "geometry": { "type": "Point", "coordinates": [ 139.397188416279192, 36.035325467147942 ] } },
{ "type": "Feature", "properties": { "P29_001": "11212", "P29_002": "H211321200024", "P29_003": "16015", "P29_004": "比企准看護学校", "P29_005": "埼玉県東松山市材木町2-36", "P29_006": "4", "P29_007": "0", "P29_008": "00", "P29_009": null }, "geometry": { "type": "Point", "coordinates": [ 139.401545239871126, 36.041890245818671 ] } },
{ "type": "Feature", "properties": { "P29_001": "11215", "P29_002": "H211321500012", "P29_003": "16015", "P29_004": "狭山市医師会立狭山准看護学校", "P29_005": "埼玉県狭山市狭山台1-21", "P29_006": "4", "P29_007": "0", "P29_008": "00", "P29_009": null }, "geometry": { "type": "Point", "coordinates": [ 139.435149999790781, 35.862340003453617 ] } },
{ "type": "Feature", "properties": { "P29_001": "11216", "P29_002": "H211321600011", "P29_003": "16015", "P29_004": "羽生高等簿記珠算学校", "P29_005": "埼玉県羽生市中央5-2-10", "P29_006": "4", "P29_007": "0", "P29_008": "00", "P29_009": null }, "geometry": { "type": "Point", "coordinates": [ 139.541380371077565, 36.171302649098671 ] } },
{ "type": "Feature", "properties": { "P29_001": "11216", "P29_002": "H211321600020", "P29_003": "16015", "P29_004": "北埼玉医師会准看護学校", "P29_005": "埼玉県羽生市中央1-2-3", "P29_006": "4", "P29_007": "0", "P29_008": "00", "P29_009": null }, "geometry": { "type": "Point", "coordinates": [ 139.536034622627966, 36.170910629170635 ] } },
{ "type": "Feature", "properties": { "P29_001": "11217", "P29_002": "H211321700010", "P29_003": "16015", "P29_004": "鴻巣准看護学校", "P29_005": "埼玉県鴻巣市中央2-2", "P29_006": "4", "P29_007": "0", "P29_008": "00", "P29_009": null }, "geometry": { "type": "Point", "coordinates": [ 139.523358759973007, 36.065612505691519 ] } },
{ "type": "Feature", "properties": { "P29_001": "11221", "P29_002": "H211322100014", "P29_003": "16015", "P29_004": "草加八潮医師会准看護学校", "P29_005": "埼玉県草加市瀬崎5-34-5", "P29_006": "4", "P29_007": "0", "P29_008": "00", "P29_009": null }, "geometry": { "type": "Point", "coordinates": [ 139.813000191184301, 35.813566093975716 ] } },
{ "type": "Feature", "properties": { "P29_001": "11225", "P29_002": "H211322500010", "P29_003": "16015", "P29_004": "入間准看護学校", "P29_005": "埼玉県入間市宮寺528-2", "P29_006": "4", "P29_007": "0", "P29_008": "00", "P29_009": null }, "geometry": { "type": "Point", "coordinates": [ 139.381858486677999, 35.792506862230795 ] } },
{ "type": "Feature", "properties": { "P29_001": "11227", "P29_002": "H211322700018", "P29_003": "16015", "P29_004": "朝霞准看護学校", "P29_005": "埼玉県朝霞市本町1-7-3", "P29_006": "4", "P29_007": "0", "P29_008": "00", "P29_009": null }, "geometry": { "type": "Point", "coordinates": [ 139.593133131380029, 35.798404526506033 ] } },
{ "type": "Feature", "properties": { "P29_001": "11233", "P29_002": "H211323300010", "P29_003": "16015", "P29_004": "桶川北本伊奈地区医師会立准看護学校", "P29_005": "埼玉県北本市二ツ家3-183", "P29_006": "4", "P29_007": "0", "P29_008": "00", "P29_009": null }, "geometry": { "type": "Point", "coordinates": [ 139.554523162568756, 36.011513712215503 ] } },
{ "type": "Feature", "properties": { "P29_001": "11385", "P29_002": "H211338500016", "P29_003": "16015", "P29_004": "各種学校インスチトゥトエドゥカシオナルティーエスレクレアソン", "P29_005": "埼玉県児玉郡上里町七本木3706-22", "P29_006": "4", "P29_007": "0", "P29_008": "00", "P29_009": null }, "geometry": { "type": "Point", "coordinates": [ 139.156454122913203, 36.242259465292115 ] } }
]
}
