{
"type": "FeatureCollection",
"name": "geo_11_4",
"crs": { "type": "name", "properties": { "name": "urn:ogc:def:crs:OGC:1.3:CRS84" } },
"features": [
{ "type": "Feature", "properties": { "ID": 1141100000909, "正式名称": "ぬくもり助産院", "機関区分": 4, "都道府県コード": 11, "市区町村コード": 203, "所在地": "埼玉県川口市東川口２－４－７コンフォルタ１０２", "緯度": 35.877409, "経度": 139.746469, "url": "https://www.iryou.teikyouseido.mhlw.go.jp/znk-web/juminkanja/S2430/initialize?prefCd=11&kikanCd=1100000909&kikanKbn=4", "url2": null, "内容": "ぬくもり助産院【4:助産院】埼玉県川口市東川口２－４－７コンフォルタ１０２" }, "geometry": { "type": "Point", "coordinates": [ 139.746469, 35.877409 ] } },
{ "type": "Feature", "properties": { "ID": 1141100001605, "正式名称": "フローラ助産院", "機関区分": 4, "都道府県コード": 11, "市区町村コード": 201, "所在地": "埼玉県川越市小中居３８６番地２", "緯度": 35.907887, "経度": 139.524189, "url": "https://www.iryou.teikyouseido.mhlw.go.jp/znk-web/juminkanja/S2430/initialize?prefCd=11&kikanCd=1100001605&kikanKbn=4", "url2": null, "内容": "フローラ助産院【4:助産院】埼玉県川越市小中居３８６番地２" }, "geometry": { "type": "Point", "coordinates": [ 139.524189, 35.907887 ] } },
{ "type": "Feature", "properties": { "ID": 1141100002507, "正式名称": "とかど訪問助産院", "機関区分": 4, "都道府県コード": 11, "市区町村コード": 222, "所在地": "埼玉県越谷市蒲生２－１４－４８－５", "緯度": 35.8619, "経度": 139.801619, "url": "https://www.iryou.teikyouseido.mhlw.go.jp/znk-web/juminkanja/S2430/initialize?prefCd=11&kikanCd=1100002507&kikanKbn=4", "url2": null, "内容": "とかど訪問助産院【4:助産院】埼玉県越谷市蒲生２－１４－４８－５" }, "geometry": { "type": "Point", "coordinates": [ 139.801619, 35.8619 ] } },
{ "type": "Feature", "properties": { "ID": 1141100003807, "正式名称": "ゆう助産院", "機関区分": 4, "都道府県コード": 11, "市区町村コード": 222, "所在地": "埼玉県越谷市赤山町１－３１０－９", "緯度": 35.887725, "経度": 139.779875, "url": "https://www.iryou.teikyouseido.mhlw.go.jp/znk-web/juminkanja/S2430/initialize?prefCd=11&kikanCd=1100003807&kikanKbn=4", "url2": null, "内容": "ゆう助産院【4:助産院】埼玉県越谷市赤山町１－３１０－９" }, "geometry": { "type": "Point", "coordinates": [ 139.779875, 35.887725 ] } },
{ "type": "Feature", "properties": { "ID": 1141100003809, "正式名称": "医療法人社団紡世会マタニティケアホームつむぎ", "機関区分": 4, "都道府県コード": 11, "市区町村コード": 203, "所在地": "埼玉県川口市南前川２丁目５－５", "緯度": 35.83163, "経度": 139.707442, "url": "https://www.iryou.teikyouseido.mhlw.go.jp/znk-web/juminkanja/S2430/initialize?prefCd=11&kikanCd=1100003809&kikanKbn=4", "url2": null, "内容": "医療法人社団紡世会マタニティケアホームつむぎ【4:助産院】埼玉県川口市南前川２丁目５－５" }, "geometry": { "type": "Point", "coordinates": [ 139.707442, 35.83163 ] } },
{ "type": "Feature", "properties": { "ID": 1141100007303, "正式名称": "母と子ちゅうおう助産院", "機関区分": 4, "都道府県コード": 11, "市区町村コード": 105, "所在地": "埼玉県さいたま市中央区新中里４丁目１５番８", "緯度": 35.87863, "経度": 139.632703, "url": "https://www.iryou.teikyouseido.mhlw.go.jp/znk-web/juminkanja/S2430/initialize?prefCd=11&kikanCd=1100007303&kikanKbn=4", "url2": "https://mamatokochuo.com", "内容": "母と子ちゅうおう助産院【4:助産院】埼玉県さいたま市中央区新中里４丁目１５番８" }, "geometry": { "type": "Point", "coordinates": [ 139.632703, 35.87863 ] } },
{ "type": "Feature", "properties": { "ID": 1141100717600, "正式名称": "助産院「未来」", "機関区分": 4, "都道府県コード": 11, "市区町村コード": 224, "所在地": "埼玉県戸田市下前２－２－１２", "緯度": 35.806382, "経度": 139.686991, "url": "https://www.iryou.teikyouseido.mhlw.go.jp/znk-web/juminkanja/S2430/initialize?prefCd=11&kikanCd=1100717600&kikanKbn=4", "url2": "josaninmirai-1.jimdosite.com", "内容": "助産院「未来」【4:助産院】埼玉県戸田市下前２－２－１２" }, "geometry": { "type": "Point", "coordinates": [ 139.686991, 35.806382 ] } },
{ "type": "Feature", "properties": { "ID": 1141101099100, "正式名称": "めぐみ助産院　（旧　子待ち助産院）", "機関区分": 4, "都道府県コード": 11, "市区町村コード": 230, "所在地": "埼玉県新座市野火止６－１５－１０", "緯度": 35.804733, "経度": 139.563493, "url": "https://www.iryou.teikyouseido.mhlw.go.jp/znk-web/juminkanja/S2430/initialize?prefCd=11&kikanCd=1101099100&kikanKbn=4", "url2": "http://megumi-js.jp/index.html", "内容": "めぐみ助産院　（旧　子待ち助産院）【4:助産院】埼玉県新座市野火止６－１５－１０" }, "geometry": { "type": "Point", "coordinates": [ 139.563493, 35.804733 ] } },
{ "type": "Feature", "properties": { "ID": 1141101100900, "正式名称": "おいかわ助産院　志木母乳育児相談室", "機関区分": 4, "都道府県コード": 11, "市区町村コード": 230, "所在地": "埼玉県新座市東北二丁目七番二十五　一〇二号室", "緯度": 35.8155868, "経度": 139.5735179, "url": "https://www.iryou.teikyouseido.mhlw.go.jp/znk-web/juminkanja/S2430/initialize?prefCd=11&kikanCd=1101100900&kikanKbn=4", "url2": "http://www.oikawa-bonyuikuji.com/", "内容": "おいかわ助産院　志木母乳育児相談室【4:助産院】埼玉県新座市東北二丁目七番二十五　一〇二号室" }, "geometry": { "type": "Point", "coordinates": [ 139.573517900000013, 35.815586800000013 ] } },
{ "type": "Feature", "properties": { "ID": 1141102230200, "正式名称": "マリア助産院", "機関区分": 4, "都道府県コード": 11, "市区町村コード": 212, "所在地": "埼玉県東松山市西本宿１２６６番地５", "緯度": 36.014258, "経度": 139.387876, "url": "https://www.iryou.teikyouseido.mhlw.go.jp/znk-web/juminkanja/S2430/initialize?prefCd=11&kikanCd=1102230200&kikanKbn=4", "url2": null, "内容": "マリア助産院【4:助産院】埼玉県東松山市西本宿１２６６番地５" }, "geometry": { "type": "Point", "coordinates": [ 139.387876, 36.014258 ] } },
{ "type": "Feature", "properties": { "ID": 1141102817300, "正式名称": "中島助産院", "機関区分": 4, "都道府県コード": 11, "市区町村コード": 202, "所在地": "埼玉県熊谷市大麻生４２２－１", "緯度": 36.147692, "経度": 139.327827, "url": "https://www.iryou.teikyouseido.mhlw.go.jp/znk-web/juminkanja/S2430/initialize?prefCd=11&kikanCd=1102817300&kikanKbn=4", "url2": "http://www.nakajima-jo3in.com/", "内容": "中島助産院【4:助産院】埼玉県熊谷市大麻生４２２－１" }, "geometry": { "type": "Point", "coordinates": [ 139.327827, 36.147692 ] } },
{ "type": "Feature", "properties": { "ID": 1141102819000, "正式名称": "阿部助産院", "機関区分": 4, "都道府県コード": 11, "市区町村コード": 202, "所在地": "埼玉県熊谷市村岡３９９－５－３２０", "緯度": 36.123873, "経度": 139.372572, "url": "https://www.iryou.teikyouseido.mhlw.go.jp/znk-web/juminkanja/S2430/initialize?prefCd=11&kikanCd=1102819000&kikanKbn=4", "url2": null, "内容": "阿部助産院【4:助産院】埼玉県熊谷市村岡３９９－５－３２０" }, "geometry": { "type": "Point", "coordinates": [ 139.372572, 36.123873 ] } },
{ "type": "Feature", "properties": { "ID": 1141103062300, "正式名称": "そよかぜ母乳育児相談室（助産院）", "機関区分": 4, "都道府県コード": 11, "市区町村コード": 216, "所在地": "埼玉県羽生市南８丁目９３５－１メゾンドトーチ１０１", "緯度": 36.167061, "経度": 139.540553, "url": "https://www.iryou.teikyouseido.mhlw.go.jp/znk-web/juminkanja/S2430/initialize?prefCd=11&kikanCd=1103062300&kikanKbn=4", "url2": "soyokaze-oketani.crayonsite.com", "内容": "そよかぜ母乳育児相談室（助産院）【4:助産院】埼玉県羽生市南８丁目９３５－１メゾンドトーチ１０１" }, "geometry": { "type": "Point", "coordinates": [ 139.540553, 36.167061 ] } },
{ "type": "Feature", "properties": { "ID": 1141103375400, "正式名称": "宇田川久美子", "機関区分": 4, "都道府県コード": 11, "市区町村コード": 214, "所在地": "埼玉県春日部市大衾４９６－３６９", "緯度": 35.984032, "経度": 139.807434, "url": "https://www.iryou.teikyouseido.mhlw.go.jp/znk-web/juminkanja/S2430/initialize?prefCd=11&kikanCd=1103375400&kikanKbn=4", "url2": null, "内容": "宇田川久美子【4:助産院】埼玉県春日部市大衾４９６－３６９" }, "geometry": { "type": "Point", "coordinates": [ 139.807434, 35.984032 ] } },
{ "type": "Feature", "properties": { "ID": 1141103380000, "正式名称": "ごもん助産所", "機関区分": 4, "都道府県コード": 11, "市区町村コード": 234, "所在地": "埼玉県八潮市上馬場４－１", "緯度": 35.822029, "経度": 139.84186, "url": "https://www.iryou.teikyouseido.mhlw.go.jp/znk-web/juminkanja/S2430/initialize?prefCd=11&kikanCd=1103380000&kikanKbn=4", "url2": "www.midewifemap.com/gomon/mysite/", "内容": "ごもん助産所【4:助産院】埼玉県八潮市上馬場４－１" }, "geometry": { "type": "Point", "coordinates": [ 139.84186, 35.822029 ] } },
{ "type": "Feature", "properties": { "ID": 1141105351800, "正式名称": "さいたま助産院", "機関区分": 4, "都道府県コード": 11, "市区町村コード": 102, "所在地": "埼玉県さいたま市北区宮原町４－１３８－１１", "緯度": 35.950776, "経度": 139.601941, "url": "https://www.iryou.teikyouseido.mhlw.go.jp/znk-web/juminkanja/S2430/initialize?prefCd=11&kikanCd=1105351800&kikanKbn=4", "url2": "http://saitamajosanin.com", "内容": "さいたま助産院【4:助産院】埼玉県さいたま市北区宮原町４－１３８－１１" }, "geometry": { "type": "Point", "coordinates": [ 139.601941, 35.950776 ] } },
{ "type": "Feature", "properties": { "ID": 1141105353400, "正式名称": "笛木助産院　母乳育児相談室", "機関区分": 4, "都道府県コード": 11, "市区町村コード": 104, "所在地": "埼玉県さいたま市見沼区大和田町１－６３６　ベルパルクⅡ　２０２", "緯度": 35.92145, "経度": 139.64665, "url": "https://www.iryou.teikyouseido.mhlw.go.jp/znk-web/juminkanja/S2430/initialize?prefCd=11&kikanCd=1105353400&kikanKbn=4", "url2": "http://fueki-oketani.com/", "内容": "笛木助産院　母乳育児相談室【4:助産院】埼玉県さいたま市見沼区大和田町１－６３６　ベルパルクⅡ　２０２" }, "geometry": { "type": "Point", "coordinates": [ 139.64665, 35.92145 ] } },
{ "type": "Feature", "properties": { "ID": 1141105747500, "正式名称": "松永助産院", "機関区分": 4, "都道府県コード": 11, "市区町村コード": 201, "所在地": "埼玉県川越市川鶴", "緯度": 35.923118, "経度": 139.414714, "url": "https://www.iryou.teikyouseido.mhlw.go.jp/znk-web/juminkanja/S2430/initialize?prefCd=11&kikanCd=1105747500&kikanKbn=4", "url2": null, "内容": "松永助産院【4:助産院】埼玉県川越市川鶴" }, "geometry": { "type": "Point", "coordinates": [ 139.414714, 35.923118 ] } },
{ "type": "Feature", "properties": { "ID": 1141105751300, "正式名称": "相澤助産院", "機関区分": 4, "都道府県コード": 11, "市区町村コード": 201, "所在地": "埼玉県川越市霞ヶ関東３－１１－３", "緯度": 35.921999, "経度": 139.444597, "url": "https://www.iryou.teikyouseido.mhlw.go.jp/znk-web/juminkanja/S2430/initialize?prefCd=11&kikanCd=1105751300&kikanKbn=4", "url2": null, "内容": "相澤助産院【4:助産院】埼玉県川越市霞ヶ関東３－１１－３" }, "geometry": { "type": "Point", "coordinates": [ 139.444597, 35.921999 ] } },
{ "type": "Feature", "properties": { "ID": 1141108002401, "正式名称": "一般社団法人日本助産所会立　まつお助産所", "機関区分": 4, "都道府県コード": 11, "市区町村コード": 215, "所在地": "埼玉県狭山市入間川１丁目２３－９－９", "緯度": 35.852981, "経度": 139.413033, "url": "https://www.iryou.teikyouseido.mhlw.go.jp/znk-web/juminkanja/S2430/initialize?prefCd=11&kikanCd=1108002401&kikanKbn=4", "url2": null, "内容": "一般社団法人日本助産所会立　まつお助産所【4:助産院】埼玉県狭山市入間川１丁目２３－９－９" }, "geometry": { "type": "Point", "coordinates": [ 139.413033, 35.852981 ] } },
{ "type": "Feature", "properties": { "ID": 1141108143000, "正式名称": "はとがや助産所", "機関区分": 4, "都道府県コード": 11, "市区町村コード": 203, "所在地": "埼玉県川口市坂下町４－１８－３", "緯度": 35.825409, "経度": 139.739275, "url": "https://www.iryou.teikyouseido.mhlw.go.jp/znk-web/juminkanja/S2430/initialize?prefCd=11&kikanCd=1108143000&kikanKbn=4", "url2": "https://www.hatogaya-mw.com/", "内容": "はとがや助産所【4:助産院】埼玉県川口市坂下町４－１８－３" }, "geometry": { "type": "Point", "coordinates": [ 139.739275, 35.825409 ] } },
{ "type": "Feature", "properties": { "ID": 1141108645900, "正式名称": "吉川助産所", "機関区分": 4, "都道府県コード": 11, "市区町村コード": 219, "所在地": "埼玉県上尾市瓦葺２６７０－８", "緯度": 35.95836, "経度": 139.639366, "url": "https://www.iryou.teikyouseido.mhlw.go.jp/znk-web/juminkanja/S2430/initialize?prefCd=11&kikanCd=1108645900&kikanKbn=4", "url2": "http://bonyu-soudan.com/", "内容": "吉川助産所【4:助産院】埼玉県上尾市瓦葺２６７０－８" }, "geometry": { "type": "Point", "coordinates": [ 139.639366, 35.95836 ] } },
{ "type": "Feature", "properties": { "ID": 1141108652100, "正式名称": "宮内助産所", "機関区分": 4, "都道府県コード": 11, "市区町村コード": 217, "所在地": "埼玉県鴻巣市ひばり野２－１２－８", "緯度": 36.065457, "経度": 139.527781, "url": "https://www.iryou.teikyouseido.mhlw.go.jp/znk-web/juminkanja/S2430/initialize?prefCd=11&kikanCd=1108652100&kikanKbn=4", "url2": null, "内容": "宮内助産所【4:助産院】埼玉県鴻巣市ひばり野２－１２－８" }, "geometry": { "type": "Point", "coordinates": [ 139.527781, 36.065457 ] } },
{ "type": "Feature", "properties": { "ID": 1141108654800, "正式名称": "内田助産院", "機関区分": 4, "都道府県コード": 11, "市区町村コード": 231, "所在地": "埼玉県桶川市坂田２－１６", "緯度": 36.010178, "経度": 139.569725, "url": "https://www.iryou.teikyouseido.mhlw.go.jp/znk-web/juminkanja/S2430/initialize?prefCd=11&kikanCd=1108654800&kikanKbn=4", "url2": null, "内容": "内田助産院【4:助産院】埼玉県桶川市坂田２－１６" }, "geometry": { "type": "Point", "coordinates": [ 139.569725, 36.010178 ] } },
{ "type": "Feature", "properties": { "ID": 1141108659900, "正式名称": "飯島助産院", "機関区分": 4, "都道府県コード": 11, "市区町村コード": 233, "所在地": "埼玉県北本市中央２ー７３ー１ー３０１", "緯度": 36.030508, "経度": 139.532424, "url": "https://www.iryou.teikyouseido.mhlw.go.jp/znk-web/juminkanja/S2430/initialize?prefCd=11&kikanCd=1108659900&kikanKbn=4", "url2": "www7b.biglobe.ne.jp/~iijima-jyosanin/", "内容": "飯島助産院【4:助産院】埼玉県北本市中央２ー７３ー１ー３０１" }, "geometry": { "type": "Point", "coordinates": [ 139.532424, 36.030508 ] } },
{ "type": "Feature", "properties": { "ID": 1141108744700, "正式名称": "助産院もりあね", "機関区分": 4, "都道府県コード": 11, "市区町村コード": 208, "所在地": "埼玉県所沢市下富６１２−１０", "緯度": 35.827987, "経度": 139.468719, "url": "https://www.iryou.teikyouseido.mhlw.go.jp/znk-web/juminkanja/S2430/initialize?prefCd=11&kikanCd=1108744700&kikanKbn=4", "url2": "http://www.moriane.jp", "内容": "助産院もりあね【4:助産院】埼玉県所沢市下富６１２−１０" }, "geometry": { "type": "Point", "coordinates": [ 139.468719, 35.827987 ] } },
{ "type": "Feature", "properties": { "ID": 1141109815500, "正式名称": "たんぽぽ助産院", "機関区分": 4, "都道府県コード": 11, "市区町村コード": 221, "所在地": "埼玉県草加市八幡町８０７－４", "緯度": 35.854467, "経度": 139.802421, "url": "https://www.iryou.teikyouseido.mhlw.go.jp/znk-web/juminkanja/S2430/initialize?prefCd=11&kikanCd=1109815500&kikanKbn=4", "url2": "http://www.tanpopo.que.jp", "内容": "たんぽぽ助産院【4:助産院】埼玉県草加市八幡町８０７－４" }, "geometry": { "type": "Point", "coordinates": [ 139.802421, 35.854467 ] } },
{ "type": "Feature", "properties": { "ID": 1141109824400, "正式名称": "あごら助産院", "機関区分": 4, "都道府県コード": 11, "市区町村コード": 222, "所在地": "埼玉県越谷市瓦曽根１－１１－１３", "緯度": 35.886284, "経度": 139.794628, "url": "https://www.iryou.teikyouseido.mhlw.go.jp/znk-web/juminkanja/S2430/initialize?prefCd=11&kikanCd=1109824400&kikanKbn=4", "url2": "http://www.agora-jyosanin.jimdo.com", "内容": "あごら助産院【4:助産院】埼玉県越谷市瓦曽根１－１１－１３" }, "geometry": { "type": "Point", "coordinates": [ 139.794628, 35.886284 ] } },
{ "type": "Feature", "properties": { "ID": 1141110134200, "正式名称": "たかせ助産院", "機関区分": 4, "都道府県コード": 11, "市区町村コード": 227, "所在地": "埼玉県朝霞市三原３－１７－２０", "緯度": 35.817035, "経度": 139.583096, "url": "https://www.iryou.teikyouseido.mhlw.go.jp/znk-web/juminkanja/S2430/initialize?prefCd=11&kikanCd=1110134200&kikanKbn=4", "url2": null, "内容": "たかせ助産院【4:助産院】埼玉県朝霞市三原３－１７－２０" }, "geometry": { "type": "Point", "coordinates": [ 139.583096, 35.817035 ] } },
{ "type": "Feature", "properties": { "ID": 1141110135000, "正式名称": "ひまり助産院", "機関区分": 4, "都道府県コード": 11, "市区町村コード": 227, "所在地": "埼玉県朝霞市本町", "緯度": 35.800065, "経度": 139.595504, "url": "https://www.iryou.teikyouseido.mhlw.go.jp/znk-web/juminkanja/S2430/initialize?prefCd=11&kikanCd=1110135000&kikanKbn=4", "url2": null, "内容": "ひまり助産院【4:助産院】埼玉県朝霞市本町" }, "geometry": { "type": "Point", "coordinates": [ 139.595504, 35.800065 ] } },
{ "type": "Feature", "properties": { "ID": 1141111000201, "正式名称": "すずかけ助産院", "機関区分": 4, "都道府県コード": 11, "市区町村コード": 218, "所在地": "埼玉県深谷市東方３７６８－４", "緯度": 36.178706, "経度": 139.316192, "url": "https://www.iryou.teikyouseido.mhlw.go.jp/znk-web/juminkanja/S2430/initialize?prefCd=11&kikanCd=1111000201&kikanKbn=4", "url2": "https://suzukake.studio.site/", "内容": "すずかけ助産院【4:助産院】埼玉県深谷市東方３７６８－４" }, "geometry": { "type": "Point", "coordinates": [ 139.316192, 36.178706 ] } },
{ "type": "Feature", "properties": { "ID": 1141120025100, "正式名称": "牧岡マタニティハウス", "機関区分": 4, "都道府県コード": 11, "市区町村コード": 222, "所在地": "埼玉県越谷市大間野町", "緯度": 35.861395, "経度": 139.785755, "url": "https://www.iryou.teikyouseido.mhlw.go.jp/znk-web/juminkanja/S2430/initialize?prefCd=11&kikanCd=1120025100&kikanKbn=4", "url2": "http://www.makiokamaternity.com", "内容": "牧岡マタニティハウス【4:助産院】埼玉県越谷市大間野町" }, "geometry": { "type": "Point", "coordinates": [ 139.785755, 35.861395 ] } },
{ "type": "Feature", "properties": { "ID": 1141120423000, "正式名称": "エンジェル母乳相談室", "機関区分": 4, "都道府県コード": 11, "市区町村コード": 109, "所在地": "埼玉県さいたま市緑区原山", "緯度": 35.872436, "経度": 139.668456, "url": "https://www.iryou.teikyouseido.mhlw.go.jp/znk-web/juminkanja/S2430/initialize?prefCd=11&kikanCd=1120423000&kikanKbn=4", "url2": "http://angelbonyuu.net/", "内容": "エンジェル母乳相談室【4:助産院】埼玉県さいたま市緑区原山" }, "geometry": { "type": "Point", "coordinates": [ 139.668456, 35.872436 ] } },
{ "type": "Feature", "properties": { "ID": 1141120518000, "正式名称": "さら助産院", "機関区分": 4, "都道府県コード": 11, "市区町村コード": 234, "所在地": "埼玉県八潮市大瀬１－１０－１２大山ビル１０２", "緯度": 35.810179, "経度": 139.844417, "url": "https://www.iryou.teikyouseido.mhlw.go.jp/znk-web/juminkanja/S2430/initialize?prefCd=11&kikanCd=1120518000&kikanKbn=4", "url2": "http://www.sara-lovebaby.com/", "内容": "さら助産院【4:助産院】埼玉県八潮市大瀬１－１０－１２大山ビル１０２" }, "geometry": { "type": "Point", "coordinates": [ 139.844417, 35.810179 ] } },
{ "type": "Feature", "properties": { "ID": 1141120543100, "正式名称": "瀧田助産院", "機関区分": 4, "都道府県コード": 11, "市区町村コード": 222, "所在地": "埼玉県越谷市花田２－１７－４", "緯度": 35.911715, "経度": 139.800874, "url": "https://www.iryou.teikyouseido.mhlw.go.jp/znk-web/juminkanja/S2430/initialize?prefCd=11&kikanCd=1120543100&kikanKbn=4", "url2": "www.takita-jyosanin.com", "内容": "瀧田助産院【4:助産院】埼玉県越谷市花田２－１７－４" }, "geometry": { "type": "Point", "coordinates": [ 139.800874, 35.911715 ] } },
{ "type": "Feature", "properties": { "ID": 1141120573300, "正式名称": "パパティア８９助産所", "機関区分": 4, "都道府県コード": 11, "市区町村コード": 224, "所在地": "埼玉県戸田市上戸田２ー４２−１４ー１０２", "緯度": 35.812948, "経度": 139.678144, "url": "https://www.iryou.teikyouseido.mhlw.go.jp/znk-web/juminkanja/S2430/initialize?prefCd=11&kikanCd=1120573300&kikanKbn=4", "url2": "http://papatya89.chu.jp/", "内容": "パパティア８９助産所【4:助産院】埼玉県戸田市上戸田２ー４２−１４ー１０２" }, "geometry": { "type": "Point", "coordinates": [ 139.678144, 35.812948 ] } },
{ "type": "Feature", "properties": { "ID": 1141120764700, "正式名称": "さとう母乳育児相談室", "機関区分": 4, "都道府県コード": 11, "市区町村コード": 222, "所在地": "埼玉県越谷市南越谷２－２－１２－４０２", "緯度": 35.877015, "経度": 139.790215, "url": "https://www.iryou.teikyouseido.mhlw.go.jp/znk-web/juminkanja/S2430/initialize?prefCd=11&kikanCd=1120764700&kikanKbn=4", "url2": "www.sato-oketani.com", "内容": "さとう母乳育児相談室【4:助産院】埼玉県越谷市南越谷２－２－１２－４０２" }, "geometry": { "type": "Point", "coordinates": [ 139.790215, 35.877015 ] } },
{ "type": "Feature", "properties": { "ID": 1141120792200, "正式名称": "愛　助産院", "機関区分": 4, "都道府県コード": 11, "市区町村コード": 237, "所在地": "埼玉県三郷市戸ケ崎３－１７８ー７", "緯度": 35.803153, "経度": 139.871133, "url": "https://www.iryou.teikyouseido.mhlw.go.jp/znk-web/juminkanja/S2430/initialize?prefCd=11&kikanCd=1120792200&kikanKbn=4", "url2": "http://www.ai-jyosanin.com", "内容": "愛　助産院【4:助産院】埼玉県三郷市戸ケ崎３－１７８ー７" }, "geometry": { "type": "Point", "coordinates": [ 139.871133, 35.803153 ] } },
{ "type": "Feature", "properties": { "ID": 1141120865100, "正式名称": "助産院　ＭＯＮＣＡＮ　（もんきゃん）", "機関区分": 4, "都道府県コード": 11, "市区町村コード": 203, "所在地": "埼玉県川口市末広３－３－３５", "緯度": 35.807503, "経度": 139.741484, "url": "https://www.iryou.teikyouseido.mhlw.go.jp/znk-web/juminkanja/S2430/initialize?prefCd=11&kikanCd=1120865100&kikanKbn=4", "url2": "https://moncan.jp/", "内容": "助産院　ＭＯＮＣＡＮ　（もんきゃん）【4:助産院】埼玉県川口市末広３－３－３５" }, "geometry": { "type": "Point", "coordinates": [ 139.741484, 35.807503 ] } },
{ "type": "Feature", "properties": { "ID": 1141121074500, "正式名称": "つかもと母乳育児相談室", "機関区分": 4, "都道府県コード": 11, "市区町村コード": 212, "所在地": "埼玉県東松山市箭弓町", "緯度": 36.036994, "経度": 139.399474, "url": "https://www.iryou.teikyouseido.mhlw.go.jp/znk-web/juminkanja/S2430/initialize?prefCd=11&kikanCd=1121074500&kikanKbn=4", "url2": null, "内容": "つかもと母乳育児相談室【4:助産院】埼玉県東松山市箭弓町" }, "geometry": { "type": "Point", "coordinates": [ 139.399474, 36.036994 ] } },
{ "type": "Feature", "properties": { "ID": 1141121293400, "正式名称": "わこう助産院", "機関区分": 4, "都道府県コード": 11, "市区町村コード": 229, "所在地": "埼玉県和光市下新倉２－１－２５", "緯度": 35.787914, "経度": 139.616936, "url": "https://www.iryou.teikyouseido.mhlw.go.jp/znk-web/juminkanja/S2430/initialize?prefCd=11&kikanCd=1121293400&kikanKbn=4", "url2": "www.wako-josanin.jp", "内容": "わこう助産院【4:助産院】埼玉県和光市下新倉２－１－２５" }, "geometry": { "type": "Point", "coordinates": [ 139.616936, 35.787914 ] } },
{ "type": "Feature", "properties": { "ID": 1141121539900, "正式名称": "かまきた助産院　母乳育児相談室", "機関区分": 4, "都道府県コード": 11, "市区町村コード": 239, "所在地": "埼玉県坂戸市にっさい花みず木", "緯度": 35.970329, "経度": 139.372151, "url": "https://www.iryou.teikyouseido.mhlw.go.jp/znk-web/juminkanja/S2430/initialize?prefCd=11&kikanCd=1121539900&kikanKbn=4", "url2": "https://kamakitajyosanin.wixsite.com/kamakitajyosanin2005", "内容": "かまきた助産院　母乳育児相談室【4:助産院】埼玉県坂戸市にっさい花みず木" }, "geometry": { "type": "Point", "coordinates": [ 139.372151, 35.970329 ] } },
{ "type": "Feature", "properties": { "ID": 1141121541000, "正式名称": "あべ助産院", "機関区分": 4, "都道府県コード": 11, "市区町村コード": 241, "所在地": "埼玉県鶴ヶ島市南町", "緯度": 35.923845, "経度": 139.41065, "url": "https://www.iryou.teikyouseido.mhlw.go.jp/znk-web/juminkanja/S2430/initialize?prefCd=11&kikanCd=1121541000&kikanKbn=4", "url2": "https://abe-jyosanin.pleasure.jp", "内容": "あべ助産院【4:助産院】埼玉県鶴ヶ島市南町" }, "geometry": { "type": "Point", "coordinates": [ 139.41065, 35.923845 ] } },
{ "type": "Feature", "properties": { "ID": 1141121756100, "正式名称": "とも助産院", "機関区分": 4, "都道府県コード": 11, "市区町村コード": 231, "所在地": "埼玉県桶川市坂田西", "緯度": 36.01223, "経度": 139.569827, "url": "https://www.iryou.teikyouseido.mhlw.go.jp/znk-web/juminkanja/S2430/initialize?prefCd=11&kikanCd=1121756100&kikanKbn=4", "url2": "http://tomo-josanin.com/", "内容": "とも助産院【4:助産院】埼玉県桶川市坂田西" }, "geometry": { "type": "Point", "coordinates": [ 139.569827, 36.01223 ] } },
{ "type": "Feature", "properties": { "ID": 1141121854100, "正式名称": "よしはら助産院", "機関区分": 4, "都道府県コード": 11, "市区町村コード": 227, "所在地": "埼玉県朝霞市三原", "緯度": 35.816385, "経度": 139.583338, "url": "https://www.iryou.teikyouseido.mhlw.go.jp/znk-web/juminkanja/S2430/initialize?prefCd=11&kikanCd=1121854100&kikanKbn=4", "url2": "http://yoshiharamhouse.crayonsite.com", "内容": "よしはら助産院【4:助産院】埼玉県朝霞市三原" }, "geometry": { "type": "Point", "coordinates": [ 139.583338, 35.816385 ] } },
{ "type": "Feature", "properties": { "ID": 1141121910600, "正式名称": "原川助産院", "機関区分": 4, "都道府県コード": 11, "市区町村コード": 215, "所在地": "埼玉県狭山市柏原８－９", "緯度": 35.866382, "経度": 139.400429, "url": "https://www.iryou.teikyouseido.mhlw.go.jp/znk-web/juminkanja/S2430/initialize?prefCd=11&kikanCd=1121910600&kikanKbn=4", "url2": "http://harakawa-i.sakura.ne.jp/wp/", "内容": "原川助産院【4:助産院】埼玉県狭山市柏原８－９" }, "geometry": { "type": "Point", "coordinates": [ 139.400429, 35.866382 ] } },
{ "type": "Feature", "properties": { "ID": 1141122263800, "正式名称": "まちの助産婦", "機関区分": 4, "都道府県コード": 11, "市区町村コード": 222, "所在地": "埼玉県越谷市レイクタウン８－１１－１レイクタウンオークラビル４０１", "緯度": 35.876074, "経度": 139.82274, "url": "https://www.iryou.teikyouseido.mhlw.go.jp/znk-web/juminkanja/S2430/initialize?prefCd=11&kikanCd=1122263800&kikanKbn=4", "url2": "http://town-mw.jp/", "内容": "まちの助産婦【4:助産院】埼玉県越谷市レイクタウン８－１１－１レイクタウンオークラビル４０１" }, "geometry": { "type": "Point", "coordinates": [ 139.82274, 35.876074 ] } },
{ "type": "Feature", "properties": { "ID": 1141122438000, "正式名称": "陽だまり助産院", "機関区分": 4, "都道府県コード": 11, "市区町村コード": 104, "所在地": "埼玉県さいたま市見沼区東大宮１－７－７", "緯度": 35.943372, "経度": 139.638797, "url": "https://www.iryou.teikyouseido.mhlw.go.jp/znk-web/juminkanja/S2430/initialize?prefCd=11&kikanCd=1122438000&kikanKbn=4", "url2": "https://hidamar-mw.com/", "内容": "陽だまり助産院【4:助産院】埼玉県さいたま市見沼区東大宮１－７－７" }, "geometry": { "type": "Point", "coordinates": [ 139.638797, 35.943372 ] } },
{ "type": "Feature", "properties": { "ID": 1141122574200, "正式名称": "ミナハト助産院", "機関区分": 4, "都道府県コード": 11, "市区町村コード": 203, "所在地": "埼玉県川口市南鳩ヶ谷５－１８－１６", "緯度": 35.815377, "経度": 139.732662, "url": "https://www.iryou.teikyouseido.mhlw.go.jp/znk-web/juminkanja/S2430/initialize?prefCd=11&kikanCd=1122574200&kikanKbn=4", "url2": null, "内容": "ミナハト助産院【4:助産院】埼玉県川口市南鳩ヶ谷５－１８－１６" }, "geometry": { "type": "Point", "coordinates": [ 139.732662, 35.815377 ] } },
{ "type": "Feature", "properties": { "ID": 1141122728100, "正式名称": "片山助産所　母乳育児相談室", "機関区分": 4, "都道府県コード": 11, "市区町村コード": 230, "所在地": "埼玉県新座市片山１－１３－１２", "緯度": 35.769109, "経度": 139.56613, "url": "https://www.iryou.teikyouseido.mhlw.go.jp/znk-web/juminkanja/S2430/initialize?prefCd=11&kikanCd=1122728100&kikanKbn=4", "url2": null, "内容": "片山助産所　母乳育児相談室【4:助産院】埼玉県新座市片山１－１３－１２" }, "geometry": { "type": "Point", "coordinates": [ 139.56613, 35.769109 ] } },
{ "type": "Feature", "properties": { "ID": 1141123788000, "正式名称": "ひばりが丘助産院", "機関区分": 4, "都道府県コード": 11, "市区町村コード": 230, "所在地": "埼玉県新座市栗原５－１－３－５０１", "緯度": 35.757218, "経度": 139.549466, "url": "https://www.iryou.teikyouseido.mhlw.go.jp/znk-web/juminkanja/S2430/initialize?prefCd=11&kikanCd=1123788000&kikanKbn=4", "url2": "http://hibarinoko.com", "内容": "ひばりが丘助産院【4:助産院】埼玉県新座市栗原５－１－３－５０１" }, "geometry": { "type": "Point", "coordinates": [ 139.549466, 35.757218 ] } },
{ "type": "Feature", "properties": { "ID": 1141123803800, "正式名称": "桶谷式はるにれ母乳育児相談室", "機関区分": 4, "都道府県コード": 11, "市区町村コード": 201, "所在地": "埼玉県川越市上戸新町３６ー１", "緯度": 35.924593, "経度": 139.450355, "url": "https://www.iryou.teikyouseido.mhlw.go.jp/znk-web/juminkanja/S2430/initialize?prefCd=11&kikanCd=1123803800&kikanKbn=4", "url2": "https://harunire-oketani.com/", "内容": "桶谷式はるにれ母乳育児相談室【4:助産院】埼玉県川越市上戸新町３６ー１" }, "geometry": { "type": "Point", "coordinates": [ 139.450355, 35.924593 ] } },
{ "type": "Feature", "properties": { "ID": 1141123957300, "正式名称": "助産院ママハウス", "機関区分": 4, "都道府県コード": 11, "市区町村コード": 201, "所在地": "埼玉県川越市並木新町", "緯度": 35.900647, "経度": 139.51644, "url": "https://www.iryou.teikyouseido.mhlw.go.jp/znk-web/juminkanja/S2430/initialize?prefCd=11&kikanCd=1123957300&kikanKbn=4", "url2": null, "内容": "助産院ママハウス【4:助産院】埼玉県川越市並木新町" }, "geometry": { "type": "Point", "coordinates": [ 139.51644, 35.900647 ] } },
{ "type": "Feature", "properties": { "ID": 1141124091100, "正式名称": "母乳外来みなみ助産院", "機関区分": 4, "都道府県コード": 11, "市区町村コード": 465, "所在地": "埼玉県北葛飾郡松伏町下赤岩", "緯度": 35.90937, "経度": 139.83888, "url": "https://www.iryou.teikyouseido.mhlw.go.jp/znk-web/juminkanja/S2430/initialize?prefCd=11&kikanCd=1124091100&kikanKbn=4", "url2": "https://peraichi.com/landing_pages/view/minami-mw/", "内容": "母乳外来みなみ助産院【4:助産院】埼玉県北葛飾郡松伏町下赤岩" }, "geometry": { "type": "Point", "coordinates": [ 139.83888, 35.90937 ] } },
{ "type": "Feature", "properties": { "ID": 1141124128400, "正式名称": "産後ケアハウスわたなべ", "機関区分": 4, "都道府県コード": 11, "市区町村コード": 109, "所在地": "埼玉県さいたま市緑区大門９１１−１", "緯度": 35.878194, "経度": 139.733676, "url": "https://www.iryou.teikyouseido.mhlw.go.jp/znk-web/juminkanja/S2430/initialize?prefCd=11&kikanCd=1124128400&kikanKbn=4", "url2": "https://sangoohisama.jimdofree.com/", "内容": "産後ケアハウスわたなべ【4:助産院】埼玉県さいたま市緑区大門９１１−１" }, "geometry": { "type": "Point", "coordinates": [ 139.733676, 35.878194 ] } },
{ "type": "Feature", "properties": { "ID": 1141124234500, "正式名称": "まどろみ助産院", "機関区分": 4, "都道府県コード": 11, "市区町村コード": 208, "所在地": "埼玉県所沢市下富", "緯度": 35.828265, "経度": 139.467136, "url": "https://www.iryou.teikyouseido.mhlw.go.jp/znk-web/juminkanja/S2430/initialize?prefCd=11&kikanCd=1124234500&kikanKbn=4", "url2": null, "内容": "まどろみ助産院【4:助産院】埼玉県所沢市下富" }, "geometry": { "type": "Point", "coordinates": [ 139.467136, 35.828265 ] } },
{ "type": "Feature", "properties": { "ID": 1141124235300, "正式名称": "飯能母乳育児相談所", "機関区分": 4, "都道府県コード": 11, "市区町村コード": 209, "所在地": "埼玉県飯能市東町２５－１１　ラ・グランディール１０３", "緯度": 35.854451, "経度": 139.323974, "url": "https://www.iryou.teikyouseido.mhlw.go.jp/znk-web/juminkanja/S2430/initialize?prefCd=11&kikanCd=1124235300&kikanKbn=4", "url2": null, "内容": "飯能母乳育児相談所【4:助産院】埼玉県飯能市東町２５－１１　ラ・グランディール１０３" }, "geometry": { "type": "Point", "coordinates": [ 139.323974, 35.854451 ] } },
{ "type": "Feature", "properties": { "ID": 1141125095000, "正式名称": "おかのうえ助産院", "機関区分": 4, "都道府県コード": 11, "市区町村コード": 207, "所在地": "埼玉県秩父市伊古田６６２−３", "緯度": 36.041893, "経度": 139.056782, "url": "https://www.iryou.teikyouseido.mhlw.go.jp/znk-web/juminkanja/S2430/initialize?prefCd=11&kikanCd=1125095000&kikanKbn=4", "url2": "https://okanoue-chichibu.com", "内容": "おかのうえ助産院【4:助産院】埼玉県秩父市伊古田６６２−３" }, "geometry": { "type": "Point", "coordinates": [ 139.056782, 36.041893 ] } },
{ "type": "Feature", "properties": { "ID": 1141125102600, "正式名称": "まな母乳育児相談室", "機関区分": 4, "都道府県コード": 11, "市区町村コード": 225, "所在地": "埼玉県入間市野田", "緯度": 35.844731, "経度": 139.35122, "url": "https://www.iryou.teikyouseido.mhlw.go.jp/znk-web/juminkanja/S2430/initialize?prefCd=11&kikanCd=1125102600&kikanKbn=4", "url2": "http://www.mana-oketani.com", "内容": "まな母乳育児相談室【4:助産院】埼玉県入間市野田" }, "geometry": { "type": "Point", "coordinates": [ 139.35122, 35.844731 ] } },
{ "type": "Feature", "properties": { "ID": 1141125216200, "正式名称": "うらら助産院", "機関区分": 4, "都道府県コード": 11, "市区町村コード": 208, "所在地": "埼玉県所沢市小手指台３２－５", "緯度": 35.79319, "経度": 139.440487, "url": "https://www.iryou.teikyouseido.mhlw.go.jp/znk-web/juminkanja/S2430/initialize?prefCd=11&kikanCd=1125216200&kikanKbn=4", "url2": null, "内容": "うらら助産院【4:助産院】埼玉県所沢市小手指台３２－５" }, "geometry": { "type": "Point", "coordinates": [ 139.440487, 35.79319 ] } },
{ "type": "Feature", "properties": { "ID": 1141125458000, "正式名称": "産後ケア　ばぁばんちのこやど", "機関区分": 4, "都道府県コード": 11, "市区町村コード": 349, "所在地": "埼玉県比企郡ときがわ町別所４２－５", "緯度": 36.006962, "経度": 139.264572, "url": "https://www.iryou.teikyouseido.mhlw.go.jp/znk-web/juminkanja/S2430/initialize?prefCd=11&kikanCd=1125458000&kikanKbn=4", "url2": null, "内容": "産後ケア　ばぁばんちのこやど【4:助産院】埼玉県比企郡ときがわ町別所４２－５" }, "geometry": { "type": "Point", "coordinates": [ 139.264572, 36.006962 ] } },
{ "type": "Feature", "properties": { "ID": 1141125491200, "正式名称": "のんりく助産院", "機関区分": 4, "都道府県コード": 11, "市区町村コード": 218, "所在地": "埼玉県深谷市稲荷町", "緯度": 36.195423, "経度": 139.290756, "url": "https://www.iryou.teikyouseido.mhlw.go.jp/znk-web/juminkanja/S2430/initialize?prefCd=11&kikanCd=1125491200&kikanKbn=4", "url2": null, "内容": "のんりく助産院【4:助産院】埼玉県深谷市稲荷町" }, "geometry": { "type": "Point", "coordinates": [ 139.290756, 36.195423 ] } },
{ "type": "Feature", "properties": { "ID": 1141125528500, "正式名称": "たかはし助産院", "機関区分": 4, "都道府県コード": 11, "市区町村コード": 363, "所在地": "埼玉県秩父郡長瀞町岩田８６５", "緯度": 36.132604, "経度": 139.129178, "url": "https://www.iryou.teikyouseido.mhlw.go.jp/znk-web/juminkanja/S2430/initialize?prefCd=11&kikanCd=1125528500&kikanKbn=4", "url2": null, "内容": "たかはし助産院【4:助産院】埼玉県秩父郡長瀞町岩田８６５" }, "geometry": { "type": "Point", "coordinates": [ 139.129178, 36.132604 ] } },
{ "type": "Feature", "properties": { "ID": 1141125610900, "正式名称": "みその母乳育児相談室", "機関区分": 4, "都道府県コード": 11, "市区町村コード": 110, "所在地": "埼玉県さいたま市岩槻区美園東３丁目９番１６", "緯度": 35.906989, "経度": 139.727091, "url": "https://www.iryou.teikyouseido.mhlw.go.jp/znk-web/juminkanja/S2430/initialize?prefCd=11&kikanCd=1125610900&kikanKbn=4", "url2": "misono-mother.com", "内容": "みその母乳育児相談室【4:助産院】埼玉県さいたま市岩槻区美園東３丁目９番１６" }, "geometry": { "type": "Point", "coordinates": [ 139.727091, 35.906989 ] } },
{ "type": "Feature", "properties": { "ID": 1141125618400, "正式名称": "天羽助産院", "機関区分": 4, "都道府県コード": 11, "市区町村コード": 222, "所在地": "埼玉県越谷市袋山４５３ー１３", "緯度": 35.926613, "経度": 139.772098, "url": "https://www.iryou.teikyouseido.mhlw.go.jp/znk-web/juminkanja/S2430/initialize?prefCd=11&kikanCd=1125618400&kikanKbn=4", "url2": "https://ten-na.com/", "内容": "天羽助産院【4:助産院】埼玉県越谷市袋山４５３ー１３" }, "geometry": { "type": "Point", "coordinates": [ 139.772098, 35.926613 ] } },
{ "type": "Feature", "properties": { "ID": 1141125624900, "正式名称": "助産院あおき／ばぁばのお家", "機関区分": 4, "都道府県コード": 11, "市区町村コード": 201, "所在地": "埼玉県川越市新宿町１－２５－５２", "緯度": 35.902393, "経度": 139.478123, "url": "https://www.iryou.teikyouseido.mhlw.go.jp/znk-web/juminkanja/S2430/initialize?prefCd=11&kikanCd=1125624900&kikanKbn=4", "url2": "house-of-baaba.jimdofree.com", "内容": "助産院あおき／ばぁばのお家【4:助産院】埼玉県川越市新宿町１－２５－５２" }, "geometry": { "type": "Point", "coordinates": [ 139.478123, 35.902393 ] } },
{ "type": "Feature", "properties": { "ID": 1141125684200, "正式名称": "菜生助産院", "機関区分": 4, "都道府県コード": 11, "市区町村コード": 207, "所在地": "埼玉県秩父市道生町１４－１１", "緯度": 36.000454, "経度": 139.082016, "url": "https://www.iryou.teikyouseido.mhlw.go.jp/znk-web/juminkanja/S2430/initialize?prefCd=11&kikanCd=1125684200&kikanKbn=4", "url2": "https://www.naojyosanin.com", "内容": "菜生助産院【4:助産院】埼玉県秩父市道生町１４－１１" }, "geometry": { "type": "Point", "coordinates": [ 139.082016, 36.000454 ] } },
{ "type": "Feature", "properties": { "ID": 1141126038600, "正式名称": "ざくろの木助産院", "機関区分": 4, "都道府県コード": 11, "市区町村コード": 232, "所在地": "埼玉県久喜市栗橋東", "緯度": 36.131139, "経度": 139.697667, "url": "https://www.iryou.teikyouseido.mhlw.go.jp/znk-web/juminkanja/S2430/initialize?prefCd=11&kikanCd=1126038600&kikanKbn=4", "url2": "https://www.zakuronokijyosanin.com", "内容": "ざくろの木助産院【4:助産院】埼玉県久喜市栗橋東" }, "geometry": { "type": "Point", "coordinates": [ 139.697667, 36.131139 ] } },
{ "type": "Feature", "properties": { "ID": 1141126045900, "正式名称": "さくら助産院", "機関区分": 4, "都道府県コード": 11, "市区町村コード": 230, "所在地": "埼玉県新座市栄", "緯度": 35.773037, "経度": 139.581659, "url": "https://www.iryou.teikyouseido.mhlw.go.jp/znk-web/juminkanja/S2430/initialize?prefCd=11&kikanCd=1126045900&kikanKbn=4", "url2": "https://instagram.com/sakura.midwiferyhome?igshid=YmMyMTA2M2Y=", "内容": "さくら助産院【4:助産院】埼玉県新座市栄" }, "geometry": { "type": "Point", "coordinates": [ 139.581659, 35.773037 ] } },
{ "type": "Feature", "properties": { "ID": 1141126057200, "正式名称": "助産院　母魂", "機関区分": 4, "都道府県コード": 11, "市区町村コード": 214, "所在地": "埼玉県春日部市不動院野１４８４ー２８", "緯度": 35.996136, "経度": 139.770192, "url": "https://www.iryou.teikyouseido.mhlw.go.jp/znk-web/juminkanja/S2430/initialize?prefCd=11&kikanCd=1126057200&kikanKbn=4", "url2": "josanin-bocon.com", "内容": "助産院　母魂【4:助産院】埼玉県春日部市不動院野１４８４ー２８" }, "geometry": { "type": "Point", "coordinates": [ 139.770192, 35.996136 ] } },
{ "type": "Feature", "properties": { "ID": 1141126148000, "正式名称": "まちこ助産院", "機関区分": 4, "都道府県コード": 11, "市区町村コード": 101, "所在地": "埼玉県さいたま市西区大字西遊馬１４９６番地８", "緯度": 35.911516, "経度": 139.561846, "url": "https://www.iryou.teikyouseido.mhlw.go.jp/znk-web/juminkanja/S2430/initialize?prefCd=11&kikanCd=1126148000&kikanKbn=4", "url2": "http://jyosannmachiko.wixsite.com/mysite", "内容": "まちこ助産院【4:助産院】埼玉県さいたま市西区大字西遊馬１４９６番地８" }, "geometry": { "type": "Point", "coordinates": [ 139.561846, 35.911516 ] } },
{ "type": "Feature", "properties": { "ID": 1141126206000, "正式名称": "相談室ブルーカーネーション　ながしま助産院", "機関区分": 4, "都道府県コード": 11, "市区町村コード": 208, "所在地": "埼玉県所沢市荒幡５３４ー２２", "緯度": 35.773826, "経度": 139.452287, "url": "https://www.iryou.teikyouseido.mhlw.go.jp/znk-web/juminkanja/S2430/initialize?prefCd=11&kikanCd=1126206000&kikanKbn=4", "url2": null, "内容": "相談室ブルーカーネーション　ながしま助産院【4:助産院】埼玉県所沢市荒幡５３４ー２２" }, "geometry": { "type": "Point", "coordinates": [ 139.452287, 35.773826 ] } }
]
}
