{
"type": "FeatureCollection",
"name": "geo_11_特定施設入居者生活介護（軽費老人ホーム）",
"crs": { "type": "name", "properties": { "name": "urn:ogc:def:crs:OGC:1.3:CRS84" } },
"features": [
{ "type": "Feature", "properties": { "内容": "ケアハウス美星苑【特定施設入居者生活介護（軽費老人ホーム）】埼玉県さいたま市見沼区南中野849－1", "url": "https://www.kaigokensaku.mhlw.go.jp/11/index.php?action_kouhyou_detail_004_kani=true&JigyosyoCd=1176504528-00&ServiceCd=332&Type=search", "url2": "https://www.biseikai.com" }, "geometry": { "type": "Point", "coordinates": [ 139.666070600000012, 35.9090122 ] } },
{ "type": "Feature", "properties": { "内容": "特定施設入居者生活介護　しらさぎ【特定施設入居者生活介護（軽費老人ホーム）】埼玉県さいたま市岩槻区真福寺１４６５", "url": "https://www.kaigokensaku.mhlw.go.jp/11/index.php?action_kouhyou_detail_004_kani=true&JigyosyoCd=1176505228-00&ServiceCd=332&Type=search", "url2": "https://www.shirasagi-care.com" }, "geometry": { "type": "Point", "coordinates": [ 139.71341480000001, 35.9340995 ] } },
{ "type": "Feature", "properties": { "内容": "ケアハウスはなぶさ苑温泉リハビリ館【特定施設入居者生活介護（軽費老人ホーム）】熊谷市玉井355番地", "url": "https://www.kaigokensaku.mhlw.go.jp/11/index.php?action_kouhyou_detail_004_kani=true&JigyosyoCd=1173102235-00&ServiceCd=332&Type=search", "url2": "http://hanabusaen.com" }, "geometry": { "type": "Point", "coordinates": [ 139.35251363102725, 36.171173686483407 ] } },
{ "type": "Feature", "properties": { "内容": "ケアハウス緑風苑【特定施設入居者生活介護（軽費老人ホーム）】行田市須加1529", "url": "https://www.kaigokensaku.mhlw.go.jp/11/index.php?action_kouhyou_detail_004_kani=true&JigyosyoCd=1173700467-00&ServiceCd=332&Type=search", "url2": "http://www.seikoukai.com" }, "geometry": { "type": "Point", "coordinates": [ 139.48764498755807, 36.184493257215522 ] } },
{ "type": "Feature", "properties": { "内容": "ケアハウス狭山ヶ丘【特定施設入居者生活介護（軽費老人ホーム）】埼玉県所沢市東狭山ヶ丘5-2753", "url": "https://www.kaigokensaku.mhlw.go.jp/11/index.php?action_kouhyou_detail_004_kani=true&JigyosyoCd=1172503920-00&ServiceCd=332&Type=search", "url2": "http://www.ioukai.or.jp/sisetu/sayama.html" }, "geometry": { "type": "Point", "coordinates": [ 139.427531189688125, 35.814600342943059 ] } },
{ "type": "Feature", "properties": { "内容": "トマト村【特定施設入居者生活介護（軽費老人ホーム）】埼玉県本庄市早稲田の杜5－14－1", "url": "https://www.kaigokensaku.mhlw.go.jp/11/index.php?action_kouhyou_detail_004_kani=true&JigyosyoCd=1174301992-00&ServiceCd=332&Type=search", "url2": "yuwa.or.jp" }, "geometry": { "type": "Point", "coordinates": [ 139.18592240000001, 36.2183253 ] } },
{ "type": "Feature", "properties": { "内容": "ケアハウス　彩光苑【特定施設入居者生活介護（軽費老人ホーム）】埼玉県春日部市内牧3149", "url": "https://www.kaigokensaku.mhlw.go.jp/11/index.php?action_kouhyou_detail_004_kani=true&JigyosyoCd=1170602385-00&ServiceCd=332&Type=search", "url2": "http://www.saiseikai-kasukabe.jp" }, "geometry": { "type": "Point", "coordinates": [ 139.71733949999998, 35.9936158 ] } },
{ "type": "Feature", "properties": { "内容": "ケアハウスシティ・オブ・ホープ【特定施設入居者生活介護（軽費老人ホーム）】埼玉県羽生市大字上新郷5555番地1", "url": "https://www.kaigokensaku.mhlw.go.jp/11/index.php?action_kouhyou_detail_004_kani=true&JigyosyoCd=1173900802-00&ServiceCd=332&Type=search", "url2": "https://sw-kouwakai.or.jp/" }, "geometry": { "type": "Point", "coordinates": [ 139.5042597, 36.1753395 ] } },
{ "type": "Feature", "properties": { "内容": "特定施設エンゼルの丘【特定施設入居者生活介護（軽費老人ホーム）】埼玉県深谷市今泉625番地", "url": "https://www.kaigokensaku.mhlw.go.jp/11/index.php?action_kouhyou_detail_004_kani=true&JigyosyoCd=1174500833-00&ServiceCd=332&Type=search", "url2": "http://www.enzel.jp" }, "geometry": { "type": "Point", "coordinates": [ 139.209497400000032, 36.1846462 ] } },
{ "type": "Feature", "properties": { "内容": "社会福祉法人優美会　ケアハウスとだ優和の杜【特定施設入居者生活介護（軽費老人ホーム）】埼玉県戸田市新曽南4-2-35", "url": "https://www.kaigokensaku.mhlw.go.jp/11/index.php?action_kouhyou_detail_004_kani=true&JigyosyoCd=1171901307-00&ServiceCd=332&Type=search", "url2": "http://www.toda_yuuwanomori" }, "geometry": { "type": "Point", "coordinates": [ 139.663126700000021, 35.8064697 ] } },
{ "type": "Feature", "properties": { "内容": "ケアハウスグランコート【特定施設入居者生活介護（軽費老人ホーム）】埼玉県入間市高倉5-2-12", "url": "https://www.kaigokensaku.mhlw.go.jp/11/index.php?action_kouhyou_detail_004_kani=true&JigyosyoCd=1172801993-00&ServiceCd=332&Type=search", "url2": "https://aishinkai.net" }, "geometry": { "type": "Point", "coordinates": [ 139.38134070000001, 35.8337732 ] } },
{ "type": "Feature", "properties": { "内容": "介護付き老人ホーム栗橋翔裕園【特定施設入居者生活介護（軽費老人ホーム）】埼玉県久喜市栗橋303-1", "url": "https://www.kaigokensaku.mhlw.go.jp/11/index.php?action_kouhyou_detail_004_kani=true&JigyosyoCd=1170900730-00&ServiceCd=332&Type=search", "url2": "carehouse.kurihashi@genkimuraguroup.jp" }, "geometry": { "type": "Point", "coordinates": [ 139.703677199999987, 36.1252965 ] } },
{ "type": "Feature", "properties": { "内容": "指定特定施設入居者生活介護事業所　秋桜の里【特定施設入居者生活介護（軽費老人ホーム）】埼玉県ふじみ野市駒林字伊佐島１１４５番地１", "url": "https://www.kaigokensaku.mhlw.go.jp/11/index.php?action_kouhyou_detail_004_kani=true&JigyosyoCd=1173000231-00&ServiceCd=332&Type=search", "url2": "http://www.kosumosuen.or.jp" }, "geometry": { "type": "Point", "coordinates": [ 139.54836689325407, 35.870207446705081 ] } },
{ "type": "Feature", "properties": { "内容": "ケアハウス　ベルエア【特定施設入居者生活介護（軽費老人ホーム）】埼玉県比企郡小川町大字腰越330番地1", "url": "https://www.kaigokensaku.mhlw.go.jp/11/index.php?action_kouhyou_detail_004_kani=true&JigyosyoCd=1173201078-00&ServiceCd=332&Type=search", "url2": null }, "geometry": { "type": "Point", "coordinates": [ 139.239305599999966, 36.0487447 ] } },
{ "type": "Feature", "properties": { "内容": "ケアハウス　悠う湯ホーム【特定施設入居者生活介護（軽費老人ホーム）】埼玉県秩父郡皆野町下日野沢3906-3", "url": "https://www.kaigokensaku.mhlw.go.jp/11/index.php?action_kouhyou_detail_004_kani=true&JigyosyoCd=1174800894-00&ServiceCd=332&Type=search", "url2": "https://minano-fukushikai.jp/" }, "geometry": { "type": "Point", "coordinates": [ 139.070746200000031, 36.081815600000034 ] } },
{ "type": "Feature", "properties": { "内容": "軽費老人ホーム　ケアハウス桜草【特定施設入居者生活介護（軽費老人ホーム）】埼玉県児玉郡上里町金久保777", "url": "https://www.kaigokensaku.mhlw.go.jp/11/index.php?action_kouhyou_detail_004_kani=true&JigyosyoCd=1174200889-00&ServiceCd=332&Type=search", "url2": "https://www.wf-meiseikai.or.jp/" }, "geometry": { "type": "Point", "coordinates": [ 139.132276400000023, 36.2654719 ] } },
{ "type": "Feature", "properties": { "内容": "ケアセンター賀美邑【特定施設入居者生活介護（軽費老人ホーム）】児玉郡上里町勅使河原1584", "url": "https://www.kaigokensaku.mhlw.go.jp/11/index.php?action_kouhyou_detail_004_kani=true&JigyosyoCd=1174201002-00&ServiceCd=332&Type=search", "url2": "http://care-net.biz/11/kamiyu/" }, "geometry": { "type": "Point", "coordinates": [ 139.128236647746206, 36.265557507231165 ] } },
{ "type": "Feature", "properties": { "内容": "ケアハウス賀美邑【特定施設入居者生活介護（軽費老人ホーム）】児玉郡上里町勅使河原1584", "url": "https://www.kaigokensaku.mhlw.go.jp/11/index.php?action_kouhyou_detail_004_kani=true&JigyosyoCd=1174201176-00&ServiceCd=332&Type=search", "url2": "http://care-net.biz/11/kamiyu/" }, "geometry": { "type": "Point", "coordinates": [ 139.128857845149895, 36.265685383525891 ] } },
{ "type": "Feature", "properties": { "内容": "ケアハウスあきやま苑特定施設入居者生活介護事業所【特定施設入居者生活介護（軽費老人ホーム）】埼玉県大里郡寄居町大字寄居141-1", "url": "https://www.kaigokensaku.mhlw.go.jp/11/index.php?action_kouhyou_detail_004_kani=true&JigyosyoCd=1174501799-00&ServiceCd=332&Type=search", "url2": null }, "geometry": { "type": "Point", "coordinates": [ 139.187563399999988, 36.1183812 ] } },
{ "type": "Feature", "properties": { "内容": "ケアハウスアルテンハイム杉戸【特定施設入居者生活介護（軽費老人ホーム）】埼玉県北葛飾郡杉戸町大字才羽2004-2", "url": "https://www.kaigokensaku.mhlw.go.jp/11/index.php?action_kouhyou_detail_004_kani=true&JigyosyoCd=1171101569-00&ServiceCd=332&Type=search", "url2": "https://altenheim-sugito.jp/" }, "geometry": { "type": "Point", "coordinates": [ 139.761190899999974, 36.0262625 ] } }
]
}
