{
"type": "FeatureCollection",
"name": "geo_11_特定施設入居者生活介護（有料老人ホーム（サービス付き高齢者向け住宅））",
"crs": { "type": "name", "properties": { "name": "urn:ogc:def:crs:OGC:1.3:CRS84" } },
"features": [
{ "type": "Feature", "properties": { "内容": "西おおみや翔裕館【特定施設入居者生活介護（有料老人ホーム（サービス付き高齢者向け住宅））】埼玉県さいたま市西区指扇3624", "url": "https://www.kaigokensaku.mhlw.go.jp/11/index.php?action_kouhyou_detail_004_kani=true&JigyosyoCd=1176519724-00&ServiceCd=&Type=search", "url2": "https://sangajapan.jp/nishiomiya/nishiomiya01/" }, "geometry": { "type": "Point", "coordinates": [ 139.5799872, 35.9209419 ] } },
{ "type": "Feature", "properties": { "内容": "ロイヤルレジデンス西大宮【特定施設入居者生活介護（有料老人ホーム（サービス付き高齢者向け住宅））】三橋6-1372-2", "url": "https://www.kaigokensaku.mhlw.go.jp/11/index.php?action_kouhyou_detail_004_kani=true&JigyosyoCd=1176520425-00&ServiceCd=&Type=search", "url2": "https://syasouken.com/center/%E3%83%AD%E3%82%A4%E3%83%A4%E3%83%AB%E3%83%AC%E3%82%B8%E3%83%87%E3%83%B3%E3%82%B9%E4%B8%89%E6%A9%8B/" }, "geometry": { "type": "Point", "coordinates": [ 139.5870241, 35.91794 ] } },
{ "type": "Feature", "properties": { "内容": "トミオさいたま桜テラス【特定施設入居者生活介護（有料老人ホーム（サービス付き高齢者向け住宅））】埼玉県さいたま市北区本郷町460", "url": "https://www.kaigokensaku.mhlw.go.jp/11/index.php?action_kouhyou_detail_004_kani=true&JigyosyoCd=1176515433-00&ServiceCd=&Type=search", "url2": "https://sakura.tomiocare.co.jp/" }, "geometry": { "type": "Point", "coordinates": [ 139.623915099999977, 35.9406985 ] } },
{ "type": "Feature", "properties": { "内容": "スタイルケア　緑の森小池ホーム【特定施設入居者生活介護（有料老人ホーム（サービス付き高齢者向け住宅））】埼玉県さいたま市北区土呂町2-23-8", "url": "https://www.kaigokensaku.mhlw.go.jp/11/index.php?action_kouhyou_detail_004_kani=true&JigyosyoCd=1176517215-00&ServiceCd=&Type=search", "url2": "https://www.shincare-style.co.jp/midorinomori/" }, "geometry": { "type": "Point", "coordinates": [ 139.634503099999961, 35.9294241 ] } },
{ "type": "Feature", "properties": { "内容": "ホームステーションらいふ大宮【特定施設入居者生活介護（有料老人ホーム（サービス付き高齢者向け住宅））】埼玉県さいたま市大宮区浅間町1-181", "url": "https://www.kaigokensaku.mhlw.go.jp/11/index.php?action_kouhyou_detail_004_kani=true&JigyosyoCd=1176515532-00&ServiceCd=&Type=search", "url2": "http://www.life-silver.com" }, "geometry": { "type": "Point", "coordinates": [ 139.635486799999967, 35.9052845 ] } },
{ "type": "Feature", "properties": { "内容": "Hinodeナーシングヴィラ大宮【特定施設入居者生活介護（有料老人ホーム（サービス付き高齢者向け住宅））】埼玉県さいたま市大宮区天沼1-308-1", "url": "https://www.kaigokensaku.mhlw.go.jp/11/index.php?action_kouhyou_detail_004_kani=true&JigyosyoCd=1176518114-00&ServiceCd=&Type=search", "url2": "http://hinode.or.jp/about/hakuaifukusikai/" }, "geometry": { "type": "Point", "coordinates": [ 139.640825019049061, 35.904788693758064 ] } },
{ "type": "Feature", "properties": { "内容": "ピュアリーフ大宮【特定施設入居者生活介護（有料老人ホーム（サービス付き高齢者向け住宅））】三橋2-673-1", "url": "https://www.kaigokensaku.mhlw.go.jp/11/index.php?action_kouhyou_detail_004_kani=true&JigyosyoCd=1176517033-00&ServiceCd=&Type=search", "url2": null }, "geometry": { "type": "Point", "coordinates": [ 139.6031056, 35.8985599 ] } },
{ "type": "Feature", "properties": { "内容": "ハーベストさいたま【特定施設入居者生活介護（有料老人ホーム（サービス付き高齢者向け住宅））】大字中川59番地", "url": "https://www.kaigokensaku.mhlw.go.jp/11/index.php?action_kouhyou_detail_004_kani=true&JigyosyoCd=1176520870-00&ServiceCd=&Type=search", "url2": "https://ygood.jp/" }, "geometry": { "type": "Point", "coordinates": [ 139.6592504, 35.8991424 ] } },
{ "type": "Feature", "properties": { "内容": "おおみや公園翔裕館Ⅰ号館【特定施設入居者生活介護（有料老人ホーム（サービス付き高齢者向け住宅））】埼玉県さいたま市見沼区南中丸254-2", "url": "https://www.kaigokensaku.mhlw.go.jp/11/index.php?action_kouhyou_detail_004_kani=true&JigyosyoCd=1176518585-00&ServiceCd=&Type=search", "url2": "https://sangajapan.jp/omiyakoen/omiyakoen01/" }, "geometry": { "type": "Point", "coordinates": [ 139.650042199999973, 35.91895920000001 ] } },
{ "type": "Feature", "properties": { "内容": "おおみや公園翔裕館Ⅱ号館【特定施設入居者生活介護（有料老人ホーム（サービス付き高齢者向け住宅））】埼玉県さいたま市見沼区南中丸250-1", "url": "https://www.kaigokensaku.mhlw.go.jp/11/index.php?action_kouhyou_detail_004_kani=true&JigyosyoCd=1176518593-00&ServiceCd=&Type=search", "url2": "https://sangajapan.jp/omiyakoen2/omiyakoen201/" }, "geometry": { "type": "Point", "coordinates": [ 139.6498722, 35.9193767 ] } },
{ "type": "Feature", "properties": { "内容": "ななさと翔裕館【特定施設入居者生活介護（有料老人ホーム（サービス付き高齢者向け住宅））】春岡2丁目47-6ななさと翔裕館", "url": "https://www.kaigokensaku.mhlw.go.jp/11/index.php?action_kouhyou_detail_004_kani=true&JigyosyoCd=1176518601-00&ServiceCd=&Type=search", "url2": "http://wwwsanga-kaigo.co.jp" }, "geometry": { "type": "Point", "coordinates": [ 139.664663, 35.9460432 ] } },
{ "type": "Feature", "properties": { "内容": "ロイヤルレジデンス見沼【特定施設入居者生活介護（有料老人ホーム（サービス付き高齢者向け住宅））】埼玉県さいたま市見沼区大谷388-1", "url": "https://www.kaigokensaku.mhlw.go.jp/11/index.php?action_kouhyou_detail_004_kani=true&JigyosyoCd=1176512620-00&ServiceCd=&Type=search", "url2": "http://syasouken.com" }, "geometry": { "type": "Point", "coordinates": [ 139.669645, 35.9185473 ] } },
{ "type": "Feature", "properties": { "内容": "ホームステーションらいふ与野本町【特定施設入居者生活介護（有料老人ホーム（サービス付き高齢者向け住宅））】埼玉県さいたま市中央区鈴谷6-12-10", "url": "https://www.kaigokensaku.mhlw.go.jp/11/index.php?action_kouhyou_detail_004_kani=true&JigyosyoCd=1176512075-00&ServiceCd=&Type=search", "url2": "https://www.life-silver.com/life/" }, "geometry": { "type": "Point", "coordinates": [ 139.6289186, 35.87611290000001 ] } },
{ "type": "Feature", "properties": { "内容": "まどか南与野【特定施設入居者生活介護（有料老人ホーム（サービス付き高齢者向け住宅））】埼玉県さいたま市中央区大戸三丁目１２番８号", "url": "https://www.kaigokensaku.mhlw.go.jp/11/index.php?action_kouhyou_detail_004_kani=true&JigyosyoCd=1176513065-00&ServiceCd=&Type=search", "url2": "http://kaigo.benesse-style-care.co.jp/home/m-minamiyono/" }, "geometry": { "type": "Point", "coordinates": [ 139.637424499999952, 35.8638065 ] } },
{ "type": "Feature", "properties": { "内容": "リハビリの家　北浦和【特定施設入居者生活介護（有料老人ホーム（サービス付き高齢者向け住宅））】木崎2-25-20", "url": "https://www.kaigokensaku.mhlw.go.jp/11/index.php?action_kouhyou_detail_004_kani=true&JigyosyoCd=1176512802-00&ServiceCd=&Type=search", "url2": "http://www.aoki-iin.or.jp/" }, "geometry": { "type": "Point", "coordinates": [ 139.657288699999981, 35.8877788 ] } },
{ "type": "Feature", "properties": { "内容": "ヒューマンライフケア　浦和の樹【特定施設入居者生活介護（有料老人ホーム（サービス付き高齢者向け住宅））】埼玉県さいたま市浦和区東高砂町4-1", "url": "https://www.kaigokensaku.mhlw.go.jp/11/index.php?action_kouhyou_detail_004_kani=true&JigyosyoCd=1176512638-00&ServiceCd=&Type=search", "url2": "https://kaigo.human-lifecare.jp/facilities/yu003_Urawa/summary.html" }, "geometry": { "type": "Point", "coordinates": [ 139.6590048, 35.8567756 ] } },
{ "type": "Feature", "properties": { "内容": "学研ココファン浦和六辻【特定施設入居者生活介護（有料老人ホーム（サービス付き高齢者向け住宅））】埼玉県さいたま市南区辻3-3-15", "url": "https://www.kaigokensaku.mhlw.go.jp/11/index.php?action_kouhyou_detail_004_kani=true&JigyosyoCd=1176518031-00&ServiceCd=&Type=search", "url2": "www.cocofump.co.jp" }, "geometry": { "type": "Point", "coordinates": [ 139.658760700000016, 35.839269399999985 ] } },
{ "type": "Feature", "properties": { "内容": "ピュアリーフ浦和【特定施設入居者生活介護（有料老人ホーム（サービス付き高齢者向け住宅））】埼玉県さいたま市緑区中尾661-1", "url": "https://www.kaigokensaku.mhlw.go.jp/11/index.php?action_kouhyou_detail_004_kani=true&JigyosyoCd=1176517025-00&ServiceCd=&Type=search", "url2": null }, "geometry": { "type": "Point", "coordinates": [ 139.6792134, 35.879236 ] } },
{ "type": "Feature", "properties": { "内容": "ドーミー岩槻LeviⅡ号館【特定施設入居者生活介護（有料老人ホーム（サービス付き高齢者向け住宅））】埼玉県さいたま市岩槻区本町1-1-2ドーミー岩槻LeviⅡ号館", "url": "https://www.kaigokensaku.mhlw.go.jp/11/index.php?action_kouhyou_detail_004_kani=true&JigyosyoCd=1176519807-00&ServiceCd=&Type=search", "url2": "https://www.dormy-senior.com/" }, "geometry": { "type": "Point", "coordinates": [ 139.6925334, 35.9495926 ] } },
{ "type": "Feature", "properties": { "内容": "イリーゼ川越・別邸【特定施設入居者生活介護（有料老人ホーム（サービス付き高齢者向け住宅））】今福729-1", "url": "https://www.kaigokensaku.mhlw.go.jp/11/index.php?action_kouhyou_detail_004_kani=true&JigyosyoCd=1170406092-00&ServiceCd=&Type=search", "url2": "https://www.irs.jp/area/saitama/kawagoeshi/kawagoe_b_home.html" }, "geometry": { "type": "Point", "coordinates": [ 139.468097, 35.882756 ] } },
{ "type": "Feature", "properties": { "内容": "ピュアリーフ川口【特定施設入居者生活介護（有料老人ホーム（サービス付き高齢者向け住宅））】石神1708", "url": "https://www.kaigokensaku.mhlw.go.jp/11/index.php?action_kouhyou_detail_004_kani=true&JigyosyoCd=1170208605-00&ServiceCd=&Type=search", "url2": null }, "geometry": { "type": "Point", "coordinates": [ 139.739833, 35.858414 ] } },
{ "type": "Feature", "properties": { "内容": "花りぼん川口【特定施設入居者生活介護（有料老人ホーム（サービス付き高齢者向け住宅））】埼玉県川口市安行慈林208", "url": "https://www.kaigokensaku.mhlw.go.jp/11/index.php?action_kouhyou_detail_004_kani=true&JigyosyoCd=1170210494-00&ServiceCd=&Type=search", "url2": null }, "geometry": { "type": "Point", "coordinates": [ 139.7497061, 35.8380611 ] } },
{ "type": "Feature", "properties": { "内容": "サービス付き高齢者向け住宅サンライズホーム【特定施設入居者生活介護（有料老人ホーム（サービス付き高齢者向け住宅））】埼玉県秩父市山田191-1", "url": "https://www.kaigokensaku.mhlw.go.jp/11/index.php?action_kouhyou_detail_004_kani=true&JigyosyoCd=1174901247-00&ServiceCd=&Type=search", "url2": "https://www.sunrise-home.jp/" }, "geometry": { "type": "Point", "coordinates": [ 139.115704, 36.0232565 ] } },
{ "type": "Feature", "properties": { "内容": "ハーモニライフ飯能【特定施設入居者生活介護（有料老人ホーム（サービス付き高齢者向け住宅））】埼玉県飯能市双柳1217-1", "url": "https://www.kaigokensaku.mhlw.go.jp/11/index.php?action_kouhyou_detail_004_kani=true&JigyosyoCd=1172601112-00&ServiceCd=&Type=search", "url2": "www.mcp-net.jp" }, "geometry": { "type": "Point", "coordinates": [ 139.338127276057406, 35.853254592858598 ] } },
{ "type": "Feature", "properties": { "内容": "四季の郷飯能【特定施設入居者生活介護（有料老人ホーム（サービス付き高齢者向け住宅））】埼玉県飯能市飯能548", "url": "https://www.kaigokensaku.mhlw.go.jp/11/index.php?action_kouhyou_detail_004_kani=true&JigyosyoCd=1172601237-00&ServiceCd=&Type=search", "url2": "http://yamatekaigo.jp" }, "geometry": { "type": "Point", "coordinates": [ 139.3025209, 35.8579095 ] } },
{ "type": "Feature", "properties": { "内容": "ロイヤルレジデンス加須【特定施設入居者生活介護（有料老人ホーム（サービス付き高齢者向け住宅））】中央1丁目7-57", "url": "https://www.kaigokensaku.mhlw.go.jp/11/index.php?action_kouhyou_detail_004_kani=true&JigyosyoCd=1173801331-00&ServiceCd=&Type=search", "url2": "http://syasouken.com/center/ロイヤルレジデンス加須/" }, "geometry": { "type": "Point", "coordinates": [ 139.596409799999975, 36.1243964 ] } },
{ "type": "Feature", "properties": { "内容": "サービス付き高齢者住宅ウィステリア【特定施設入居者生活介護（有料老人ホーム（サービス付き高齢者向け住宅））】花崎北1-14-2ウィステリア", "url": "https://www.kaigokensaku.mhlw.go.jp/11/index.php?action_kouhyou_detail_004_kani=true&JigyosyoCd=1173801430-00&ServiceCd=&Type=search", "url2": "hanasaki@2943.jp" }, "geometry": { "type": "Point", "coordinates": [ 139.6337327, 36.1121081 ] } },
{ "type": "Feature", "properties": { "内容": "サービス付き高齢者向け住宅ハーモニー東松山【特定施設入居者生活介護（有料老人ホーム（サービス付き高齢者向け住宅））】埼玉県東松山市松山町1丁目11-23", "url": "https://www.kaigokensaku.mhlw.go.jp/11/index.php?action_kouhyou_detail_004_kani=true&JigyosyoCd=1173301407-00&ServiceCd=&Type=search", "url2": "http://takaminefukushikai.com/" }, "geometry": { "type": "Point", "coordinates": [ 139.394057500000031, 36.0452364 ] } },
{ "type": "Feature", "properties": { "内容": "ハーモニーライフ東松山駅前【特定施設入居者生活介護（有料老人ホーム（サービス付き高齢者向け住宅））】埼玉県東松山市箭弓町1-20-23", "url": "https://www.kaigokensaku.mhlw.go.jp/11/index.php?action_kouhyou_detail_004_kani=true&JigyosyoCd=1173301472-00&ServiceCd=&Type=search", "url2": "hl-higashimatsuyama@mcp-tsudoi.com" }, "geometry": { "type": "Point", "coordinates": [ 139.403562099999988, 36.0332886 ] } },
{ "type": "Feature", "properties": { "内容": "ココファン高坂【特定施設入居者生活介護（有料老人ホーム（サービス付き高齢者向け住宅））】東松山市高坂5-12-2", "url": "https://www.kaigokensaku.mhlw.go.jp/11/index.php?action_kouhyou_detail_004_kani=true&JigyosyoCd=1173301381-00&ServiceCd=&Type=search", "url2": "https://www.corp-gakken.co.jp/" }, "geometry": { "type": "Point", "coordinates": [ 139.400347399999987, 35.9979712 ] } },
{ "type": "Feature", "properties": { "内容": "家族の家ひまわり東松山【特定施設入居者生活介護（有料老人ホーム（サービス付き高齢者向け住宅））】埼玉県東松山市東平１４７７－１家族の家ひまわり東松山", "url": "https://www.kaigokensaku.mhlw.go.jp/11/index.php?action_kouhyou_detail_004_kani=true&JigyosyoCd=1173301258-00&ServiceCd=&Type=search", "url2": "ｈｔｔｐ：／／ｗｗｗ．ｓａｎｅｉｄｏ．ｃｏ．ｊｐ／" }, "geometry": { "type": "Point", "coordinates": [ -8.24389, 53.41291 ] } },
{ "type": "Feature", "properties": { "内容": "介護付き高齢者向け住宅はまさきの郷【特定施設入居者生活介護（有料老人ホーム（サービス付き高齢者向け住宅））】埼玉県春日部市一ノ割３－１６－９サービス付き高齢者向け住宅はまさきの郷", "url": "https://www.kaigokensaku.mhlw.go.jp/11/index.php?action_kouhyou_detail_004_kani=true&JigyosyoCd=1170603755-00&ServiceCd=&Type=search", "url2": "http://hamasakinosato.com" }, "geometry": { "type": "Point", "coordinates": [ 139.761452773155213, 35.961009235439803 ] } },
{ "type": "Feature", "properties": { "内容": "プラチナ・シニアホーム春日部武里駅前【特定施設入居者生活介護（有料老人ホーム（サービス付き高齢者向け住宅））】埼玉県春日部市大場1051-1", "url": "https://www.kaigokensaku.mhlw.go.jp/11/index.php?action_kouhyou_detail_004_kani=true&JigyosyoCd=1170603987-00&ServiceCd=&Type=search", "url2": "https://lakes21.co.jp" }, "geometry": { "type": "Point", "coordinates": [ 139.7690299, 35.9473427 ] } },
{ "type": "Feature", "properties": { "内容": "エクラシア春日部【特定施設入居者生活介護（有料老人ホーム（サービス付き高齢者向け住宅））】埼玉県春日部市南5-1-52", "url": "https://www.kaigokensaku.mhlw.go.jp/11/index.php?action_kouhyou_detail_004_kani=true&JigyosyoCd=1170603953-00&ServiceCd=&Type=search", "url2": "http://www.welloff.co.jp/" }, "geometry": { "type": "Point", "coordinates": [ 139.7593181, 35.9697869 ] } },
{ "type": "Feature", "properties": { "内容": "ハーモニーライフ春日部【特定施設入居者生活介護（有料老人ホーム（サービス付き高齢者向け住宅））】埼玉県春日部市一ノ割4-3-13ハーモニーライフ春日部", "url": "https://www.kaigokensaku.mhlw.go.jp/11/index.php?action_kouhyou_detail_004_kani=true&JigyosyoCd=1170602914-00&ServiceCd=&Type=search", "url2": "http://www.mcp-net.jp" }, "geometry": { "type": "Point", "coordinates": [ 139.761544700000059, 35.9634444 ] } },
{ "type": "Feature", "properties": { "内容": "ウエルガーデンエミナース春日部【特定施設入居者生活介護（有料老人ホーム（サービス付き高齢者向け住宅））】埼玉県春日部市内牧3701-1", "url": "https://www.kaigokensaku.mhlw.go.jp/11/index.php?action_kouhyou_detail_004_kani=true&JigyosyoCd=1170603201-00&ServiceCd=&Type=search", "url2": "http://welgarden.or.jp/facilities/eminence/" }, "geometry": { "type": "Point", "coordinates": [ 139.715680900000052, 36.0011673 ] } },
{ "type": "Feature", "properties": { "内容": "サンライズ・ヴィラ春日部【特定施設入居者生活介護（有料老人ホーム（サービス付き高齢者向け住宅））】埼玉県春日部市大畑363番地１", "url": "https://www.kaigokensaku.mhlw.go.jp/11/index.php?action_kouhyou_detail_004_kani=true&JigyosyoCd=1170602716-00&ServiceCd=&Type=search", "url2": "http://www.like-cn.co.jp/" }, "geometry": { "type": "Point", "coordinates": [ 139.770836300000042, 35.9468498 ] } },
{ "type": "Feature", "properties": { "内容": "サンライズ・ヴィラ春日部東【特定施設入居者生活介護（有料老人ホーム（サービス付き高齢者向け住宅））】埼玉県春日部市米島352-1", "url": "https://www.kaigokensaku.mhlw.go.jp/11/index.php?action_kouhyou_detail_004_kani=true&JigyosyoCd=1170604183-00&ServiceCd=&Type=search", "url2": "https://www.like-cn.co.jp/homes/sunrise-villa/kasukabehigashi.html" }, "geometry": { "type": "Point", "coordinates": [ 139.8080558, 35.9774331 ] } },
{ "type": "Feature", "properties": { "内容": "サービス付き高齢者向け住宅なごみ不動院野【特定施設入居者生活介護（有料老人ホーム（サービス付き高齢者向け住宅））】埼玉県春日部市不動院野２７９３－１", "url": "https://www.kaigokensaku.mhlw.go.jp/11/index.php?action_kouhyou_detail_004_kani=true&JigyosyoCd=1170604340-00&ServiceCd=&Type=search", "url2": "http://www.nagomi-rise.co.jp" }, "geometry": { "type": "Point", "coordinates": [ 139.759217626983627, 35.999190539000537 ] } },
{ "type": "Feature", "properties": { "内容": "ハーモニーライフ春日部2号館【特定施設入居者生活介護（有料老人ホーム（サービス付き高齢者向け住宅））】埼玉県春日部市一ノ割4-13-11", "url": "https://www.kaigokensaku.mhlw.go.jp/11/index.php?action_kouhyou_detail_004_kani=true&JigyosyoCd=1170604357-00&ServiceCd=&Type=search", "url2": "https://www.mcp-net.jp" }, "geometry": { "type": "Point", "coordinates": [ 139.759123973541278, 35.963588234605389 ] } },
{ "type": "Feature", "properties": { "内容": "プラチナ・シニアホーム春日部藤の牛島【特定施設入居者生活介護（有料老人ホーム（サービス付き高齢者向け住宅））】埼玉県春日部市牛島1590番地1", "url": "https://www.kaigokensaku.mhlw.go.jp/11/index.php?action_kouhyou_detail_004_kani=true&JigyosyoCd=1170603268-00&ServiceCd=&Type=search", "url2": "https://lakes21.co.jp" }, "geometry": { "type": "Point", "coordinates": [ 139.776941509786951, 35.979971702218421 ] } },
{ "type": "Feature", "properties": { "内容": "ホームステーション狭山【特定施設入居者生活介護（有料老人ホーム（サービス付き高齢者向け住宅））】埼玉県狭山市入間川1528-1", "url": "https://www.kaigokensaku.mhlw.go.jp/11/index.php?action_kouhyou_detail_004_kani=true&JigyosyoCd=1172702068-00&ServiceCd=&Type=search", "url2": "http://www.life-silver.com" }, "geometry": { "type": "Point", "coordinates": [ 139.426204339067368, 35.853567897691015 ] } },
{ "type": "Feature", "properties": { "内容": "イリーゼ狭山入曽はなれ【特定施設入居者生活介護（有料老人ホーム（サービス付き高齢者向け住宅））】埼玉県狭山市南入曽878-1", "url": "https://www.kaigokensaku.mhlw.go.jp/11/index.php?action_kouhyou_detail_004_kani=true&JigyosyoCd=1172702290-00&ServiceCd=&Type=search", "url2": "https://www.irs.jp/area/saitama/sayamashi/sayamairiso_home.html" }, "geometry": { "type": "Point", "coordinates": [ 139.423279800000017, 35.833098887029927 ] } },
{ "type": "Feature", "properties": { "内容": "ハーモニーライフ狭山【特定施設入居者生活介護（有料老人ホーム（サービス付き高齢者向け住宅））】埼玉県狭山市大字東三ツ木452-1ハーモニーライフ狭山", "url": "https://www.kaigokensaku.mhlw.go.jp/11/index.php?action_kouhyou_detail_004_kani=true&JigyosyoCd=1172702332-00&ServiceCd=&Type=search", "url2": "https://mcp-net.jp/" }, "geometry": { "type": "Point", "coordinates": [ 139.437927406745928, 35.8731755470153 ] } },
{ "type": "Feature", "properties": { "内容": "ル・レーヴ狭山さくら館【特定施設入居者生活介護（有料老人ホーム（サービス付き高齢者向け住宅））】埼玉県狭山市中央１－６－４", "url": "https://www.kaigokensaku.mhlw.go.jp/11/index.php?action_kouhyou_detail_004_kani=true&JigyosyoCd=1172701839-00&ServiceCd=&Type=search", "url2": "http://www.ej-welfare.jp/" }, "geometry": { "type": "Point", "coordinates": [ 139.421275599999944, 35.8544949 ] } },
{ "type": "Feature", "properties": { "内容": "介護サービス付き高齢者向けTCグランパル狭山【特定施設入居者生活介護（有料老人ホーム（サービス付き高齢者向け住宅））】埼玉県狭山市入間川3-13-32", "url": "https://www.kaigokensaku.mhlw.go.jp/11/index.php?action_kouhyou_detail_004_kani=true&JigyosyoCd=1172702209-00&ServiceCd=&Type=search", "url2": "http://www.truecare.jp/" }, "geometry": { "type": "Point", "coordinates": [ 139.4061629, 35.8548023 ] } },
{ "type": "Feature", "properties": { "内容": "ル・レーヴ狭山【特定施設入居者生活介護（有料老人ホーム（サービス付き高齢者向け住宅））】埼玉県狭山市中央1-6-14", "url": "https://www.kaigokensaku.mhlw.go.jp/11/index.php?action_kouhyou_detail_004_kani=true&JigyosyoCd=1172701524-00&ServiceCd=&Type=search", "url2": "http://www.ej-welfare.jp/" }, "geometry": { "type": "Point", "coordinates": [ 139.4215845, 35.854499 ] } },
{ "type": "Feature", "properties": { "内容": "ブリエライフ狭山Ⅱ【特定施設入居者生活介護（有料老人ホーム（サービス付き高齢者向け住宅））】埼玉県狭山市祇園４０番２２号", "url": "https://www.kaigokensaku.mhlw.go.jp/11/index.php?action_kouhyou_detail_004_kani=true&JigyosyoCd=1172702159-00&ServiceCd=&Type=search", "url2": "http://brillerlife2.sayama-kaigo.jp/" }, "geometry": { "type": "Point", "coordinates": [ 139.41690972883606, 35.858907690081075 ] } },
{ "type": "Feature", "properties": { "内容": "エクラシア狭山入曽【特定施設入居者生活介護（有料老人ホーム（サービス付き高齢者向け住宅））】埼玉県狭山市北入曽936番地1", "url": "https://www.kaigokensaku.mhlw.go.jp/11/index.php?action_kouhyou_detail_004_kani=true&JigyosyoCd=1172702266-00&ServiceCd=&Type=search", "url2": "https://www.eclasia.co.jp/" }, "geometry": { "type": "Point", "coordinates": [ 139.4234477, 35.8413339 ] } },
{ "type": "Feature", "properties": { "内容": "エクラシア狭山【特定施設入居者生活介護（有料老人ホーム（サービス付き高齢者向け住宅））】埼玉県狭山市富士見１丁目２６番12号エクラシア狭山", "url": "https://www.kaigokensaku.mhlw.go.jp/11/index.php?action_kouhyou_detail_004_kani=true&JigyosyoCd=1172702258-00&ServiceCd=&Type=search", "url2": null }, "geometry": { "type": "Point", "coordinates": [ 139.4197489, 35.8510799 ] } },
{ "type": "Feature", "properties": { "内容": "ブリエライフ狭山【特定施設入居者生活介護（有料老人ホーム（サービス付き高齢者向け住宅））】埼玉県狭山市祇園11-1", "url": "https://www.kaigokensaku.mhlw.go.jp/11/index.php?action_kouhyou_detail_004_kani=true&JigyosyoCd=1172701797-00&ServiceCd=&Type=search", "url2": "http://brillerlife.sayama-kaigo.jp" }, "geometry": { "type": "Point", "coordinates": [ 139.417500142101289, 35.858321428403364 ] } },
{ "type": "Feature", "properties": { "内容": "ル・レーヴ羽生古島【特定施設入居者生活介護（有料老人ホーム（サービス付き高齢者向け住宅））】埼玉県羽生市下羽生1039-1ル・レーヴ羽生古島", "url": "https://www.kaigokensaku.mhlw.go.jp/11/index.php?action_kouhyou_detail_004_kani=true&JigyosyoCd=1173900547-00&ServiceCd=&Type=search", "url2": "https://www.ej-welfare.jp/facility/371/" }, "geometry": { "type": "Point", "coordinates": [ 139.546555399999988, 36.1641258 ] } },
{ "type": "Feature", "properties": { "内容": "介護付き有料老人ホーム風の街こうのす【特定施設入居者生活介護（有料老人ホーム（サービス付き高齢者向け住宅））】埼玉県鴻巣市吹上富士見3-1-1", "url": "https://www.kaigokensaku.mhlw.go.jp/11/index.php?action_kouhyou_detail_004_kani=true&JigyosyoCd=1171701509-00&ServiceCd=&Type=search", "url2": "https://hitotubu.com/" }, "geometry": { "type": "Point", "coordinates": [ 139.456953399999946, 36.0970379 ] } },
{ "type": "Feature", "properties": { "内容": "ココファン鴻巣【特定施設入居者生活介護（有料老人ホーム（サービス付き高齢者向け住宅））】埼玉県鴻巣市本町5-6-18", "url": "https://www.kaigokensaku.mhlw.go.jp/11/index.php?action_kouhyou_detail_004_kani=true&JigyosyoCd=1171701848-00&ServiceCd=&Type=search", "url2": "http://www.cocofump.co.jp" }, "geometry": { "type": "Point", "coordinates": [ 139.5147565, 36.0573459 ] } },
{ "type": "Feature", "properties": { "内容": "ふるさとホーム深谷第参【特定施設入居者生活介護（有料老人ホーム（サービス付き高齢者向け住宅））】埼玉県深谷市萱場15-1ふるさとホーム深谷第参", "url": "https://www.kaigokensaku.mhlw.go.jp/11/index.php?action_kouhyou_detail_004_kani=true&JigyosyoCd=1174602597-00&ServiceCd=&Type=search", "url2": "http://www.vati.co.jp/" }, "geometry": { "type": "Point", "coordinates": [ 139.266031106815319, 36.194819608736168 ] } },
{ "type": "Feature", "properties": { "内容": "特定施設　エクラシア上尾西【特定施設入居者生活介護（有料老人ホーム（サービス付き高齢者向け住宅））】埼玉県上尾市壱丁目東３６－３エクラシア上尾西", "url": "https://www.kaigokensaku.mhlw.go.jp/11/index.php?action_kouhyou_detail_004_kani=true&JigyosyoCd=1171602897-00&ServiceCd=&Type=search", "url2": null }, "geometry": { "type": "Point", "coordinates": [ 139.5726261, 35.9556887 ] } },
{ "type": "Feature", "properties": { "内容": "ホームステーションらいふ草加【特定施設入居者生活介護（有料老人ホーム（サービス付き高齢者向け住宅））】埼玉県草加市新里町117-2", "url": "https://www.kaigokensaku.mhlw.go.jp/11/index.php?action_kouhyou_detail_004_kani=true&JigyosyoCd=1171802265-00&ServiceCd=&Type=search", "url2": "http://www.life-silver.com/" }, "geometry": { "type": "Point", "coordinates": [ 139.7834464, 35.8074878 ] } },
{ "type": "Feature", "properties": { "内容": "アミカの郷草加【特定施設入居者生活介護（有料老人ホーム（サービス付き高齢者向け住宅））】埼玉県草加市清門1-277-1アミカの郷草加", "url": "https://www.kaigokensaku.mhlw.go.jp/11/index.php?action_kouhyou_detail_004_kani=true&JigyosyoCd=1171803008-00&ServiceCd=&Type=search", "url2": "https://kaigo.alsok.co.jp/facility/search/detail/286" }, "geometry": { "type": "Point", "coordinates": [ 139.7862967, 35.852922 ] } },
{ "type": "Feature", "properties": { "内容": "ハーモニーライフ越谷【特定施設入居者生活介護（有料老人ホーム（サービス付き高齢者向け住宅））】埼玉県越谷市下間久里581-1", "url": "https://www.kaigokensaku.mhlw.go.jp/11/index.php?action_kouhyou_detail_004_kani=true&JigyosyoCd=1170804437-00&ServiceCd=&Type=search", "url2": "http://www.mcp-net.jp" }, "geometry": { "type": "Point", "coordinates": [ 139.790603593644079, 35.928662622040804 ] } },
{ "type": "Feature", "properties": { "内容": "特定施設入居者生活介護サービス付高齢者向け住宅　スタイルケア越谷【特定施設入居者生活介護（有料老人ホーム（サービス付き高齢者向け住宅））】埼玉県越谷市瓦曽根二丁目5番73号スタイルケア越谷", "url": "https://www.kaigokensaku.mhlw.go.jp/11/index.php?action_kouhyou_detail_004_kani=true&JigyosyoCd=1170802472-00&ServiceCd=&Type=search", "url2": "https://shincare-style.co.jp/koshigaya/" }, "geometry": { "type": "Point", "coordinates": [ 139.793809799999963, 35.884449 ] } },
{ "type": "Feature", "properties": { "内容": "学研ココファン大袋【特定施設入居者生活介護（有料老人ホーム（サービス付き高齢者向け住宅））】袋山1400-1学研ココファン大袋", "url": "https://www.kaigokensaku.mhlw.go.jp/11/index.php?action_kouhyou_detail_004_kani=true&JigyosyoCd=1170803124-00&ServiceCd=&Type=search", "url2": "http://www.cocofump.co.jp" }, "geometry": { "type": "Point", "coordinates": [ 139.776037200000019, 35.9234314 ] } },
{ "type": "Feature", "properties": { "内容": "ライブラリ越谷【特定施設入居者生活介護（有料老人ホーム（サービス付き高齢者向け住宅））】埼玉県越谷市赤山町2丁目92番地1", "url": "https://www.kaigokensaku.mhlw.go.jp/11/index.php?action_kouhyou_detail_004_kani=true&JigyosyoCd=1170804684-00&ServiceCd=&Type=search", "url2": "https://www.living-platform.com/" }, "geometry": { "type": "Point", "coordinates": [ 139.781243499999988, 35.8840606 ] } },
{ "type": "Feature", "properties": { "内容": "ハーベスト戸田【特定施設入居者生活介護（有料老人ホーム（サービス付き高齢者向け住宅））】埼玉県戸田市美女木四丁目13番2号", "url": "https://www.kaigokensaku.mhlw.go.jp/11/index.php?action_kouhyou_detail_004_kani=true&JigyosyoCd=1171901729-00&ServiceCd=&Type=search", "url2": "https://ygood.jp" }, "geometry": { "type": "Point", "coordinates": [ 139.6443779, 35.8232391 ] } },
{ "type": "Feature", "properties": { "内容": "ハートランド戸田公園【特定施設入居者生活介護（有料老人ホーム（サービス付き高齢者向け住宅））】埼玉県戸田市氷川町2-6-19", "url": "https://www.kaigokensaku.mhlw.go.jp/11/index.php?action_kouhyou_detail_004_kani=true&JigyosyoCd=1171901950-00&ServiceCd=&Type=search", "url2": "https://ygood.jp/" }, "geometry": { "type": "Point", "coordinates": [ 139.655228778295907, 35.809250018477755 ] } },
{ "type": "Feature", "properties": { "内容": "ホームステーション入間【特定施設入居者生活介護（有料老人ホーム（サービス付き高齢者向け住宅））】埼玉県入間市宮寺2803-12", "url": "https://www.kaigokensaku.mhlw.go.jp/11/index.php?action_kouhyou_detail_004_kani=true&JigyosyoCd=1172801233-00&ServiceCd=&Type=search", "url2": "http://www.life-silver.com/" }, "geometry": { "type": "Point", "coordinates": [ 139.369999, 35.8004832 ] } },
{ "type": "Feature", "properties": { "内容": "入間藤沢幸楽園【特定施設入居者生活介護（有料老人ホーム（サービス付き高齢者向け住宅））】埼玉県入間市下藤沢3-25-1", "url": "https://www.kaigokensaku.mhlw.go.jp/11/index.php?action_kouhyou_detail_004_kani=true&JigyosyoCd=1172801431-00&ServiceCd=&Type=search", "url2": "http://irumafujisawa-kourakuen.com/" }, "geometry": { "type": "Point", "coordinates": [ 139.409085432124357, 35.818889956824684 ] } },
{ "type": "Feature", "properties": { "内容": "イリーゼ武蔵藤沢【特定施設入居者生活介護（有料老人ホーム（サービス付き高齢者向け住宅））】埼玉県入間市東藤沢3丁目9番13号イリーゼ武蔵藤沢", "url": "https://www.kaigokensaku.mhlw.go.jp/11/index.php?action_kouhyou_detail_004_kani=true&JigyosyoCd=1172801977-00&ServiceCd=&Type=search", "url2": "https://www.irs.jp/facility/musashifujisawa/" }, "geometry": { "type": "Point", "coordinates": [ 139.4147554, 35.8188879 ] } },
{ "type": "Feature", "properties": { "内容": "ロイヤルレジデンス入間【特定施設入居者生活介護（有料老人ホーム（サービス付き高齢者向け住宅））】埼玉県入間市狭山台２-２-17", "url": "https://www.kaigokensaku.mhlw.go.jp/11/index.php?action_kouhyou_detail_004_kani=true&JigyosyoCd=1172801787-00&ServiceCd=&Type=search", "url2": "https://syasouken.com" }, "geometry": { "type": "Point", "coordinates": [ 139.362659201327517, 35.804909964241389 ] } },
{ "type": "Feature", "properties": { "内容": "介護サービス付き高齢者向け住宅TCピーパル入間【特定施設入居者生活介護（有料老人ホーム（サービス付き高齢者向け住宅））】埼玉県入間市上小谷田1-1-2TC.ピーパル入間", "url": "https://www.kaigokensaku.mhlw.go.jp/11/index.php?action_kouhyou_detail_004_kani=true&JigyosyoCd=1172801878-00&ServiceCd=&Type=search", "url2": null }, "geometry": { "type": "Point", "coordinates": [ 139.3730938, 35.8289361 ] } },
{ "type": "Feature", "properties": { "内容": "介護付き有料老人ホーム　入間の杜【特定施設入居者生活介護（有料老人ホーム（サービス付き高齢者向け住宅））】埼玉県入間市扇台５丁目２−１５", "url": "https://www.kaigokensaku.mhlw.go.jp/11/index.php?action_kouhyou_detail_004_kani=true&JigyosyoCd=1172802231-00&ServiceCd=&Type=search", "url2": "https://www.chi-ga.jp/nursing-facility/介護付き有料老人ホーム-入間の杜/" }, "geometry": { "type": "Point", "coordinates": [ 139.3841624, 35.8265675 ] } },
{ "type": "Feature", "properties": { "内容": "コンフォルト朝霞【特定施設入居者生活介護（有料老人ホーム（サービス付き高齢者向け住宅））】埼玉県朝霞市溝沼1－5－2コンフォルト朝霞", "url": "https://www.kaigokensaku.mhlw.go.jp/11/index.php?action_kouhyou_detail_004_kani=true&JigyosyoCd=1172100966-00&ServiceCd=&Type=search", "url2": ":https://yamayanagi.or.jp/conforto_asaka/" }, "geometry": { "type": "Point", "coordinates": [ 139.589461300000039, 35.7990686 ] } },
{ "type": "Feature", "properties": { "内容": "夢眠しき【特定施設入居者生活介護（有料老人ホーム（サービス付き高齢者向け住宅））】埼玉県志木市中宗岡1丁目19番51号", "url": "https://www.kaigokensaku.mhlw.go.jp/11/index.php?action_kouhyou_detail_004_kani=true&JigyosyoCd=1172200972-00&ServiceCd=&Type=search", "url2": "http://muminhome.jp/shiki/" }, "geometry": { "type": "Point", "coordinates": [ 139.586692685342626, 35.843332376100847 ] } },
{ "type": "Feature", "properties": { "内容": "イリーゼ新座市役所前【特定施設入居者生活介護（有料老人ホーム（サービス付き高齢者向け住宅））】野火止一丁目2番4号", "url": "https://www.kaigokensaku.mhlw.go.jp/11/index.php?action_kouhyou_detail_004_kani=true&JigyosyoCd=1175102233-00&ServiceCd=&Type=search", "url2": "https://www.irs.jp" }, "geometry": { "type": "Point", "coordinates": [ 139.566035199999988, 35.7943993 ] } },
{ "type": "Feature", "properties": { "内容": "昭和の里　桶川【特定施設入居者生活介護（有料老人ホーム（サービス付き高齢者向け住宅））】埼玉県桶川市西2丁目8番31号", "url": "https://www.kaigokensaku.mhlw.go.jp/11/index.php?action_kouhyou_detail_004_kani=true&JigyosyoCd=1175201407-00&ServiceCd=&Type=search", "url2": null }, "geometry": { "type": "Point", "coordinates": [ 139.5556585, 36.0088257 ] } },
{ "type": "Feature", "properties": { "内容": "さ-びすつきこうれいしゃむけじゅうたく　えくらしあおけがわ【特定施設入居者生活介護（有料老人ホーム（サービス付き高齢者向け住宅））】埼玉県桶川市坂田西3-1-2エクラシア桶川", "url": "https://www.kaigokensaku.mhlw.go.jp/11/index.php?action_kouhyou_detail_004_kani=true&JigyosyoCd=1175201308-00&ServiceCd=&Type=search", "url2": null }, "geometry": { "type": "Point", "coordinates": [ 139.5665081, 36.0135182 ] } },
{ "type": "Feature", "properties": { "内容": "さわやかおけがわ館【特定施設入居者生活介護（有料老人ホーム（サービス付き高齢者向け住宅））】埼玉県桶川市大字加納71-1", "url": "https://www.kaigokensaku.mhlw.go.jp/11/index.php?action_kouhyou_detail_004_kani=true&JigyosyoCd=1175201324-00&ServiceCd=&Type=search", "url2": "https://www.sawayakaclub.jp/okegawakan/" }, "geometry": { "type": "Point", "coordinates": [ 139.5661944, 36.0242854 ] } },
{ "type": "Feature", "properties": { "内容": "イリーゼ久喜【特定施設入居者生活介護（有料老人ホーム（サービス付き高齢者向け住宅））】埼玉県久喜市久喜中央1-9-10", "url": "https://www.kaigokensaku.mhlw.go.jp/11/index.php?action_kouhyou_detail_004_kani=true&JigyosyoCd=1170901506-00&ServiceCd=&Type=search", "url2": "http://www.hitowa.com/care-service/" }, "geometry": { "type": "Point", "coordinates": [ 139.675948, 36.0689583 ] } },
{ "type": "Feature", "properties": { "内容": "エクラシア北本【特定施設入居者生活介護（有料老人ホーム（サービス付き高齢者向け住宅））】埼玉県北本市下石戸1丁目750番地", "url": "https://www.kaigokensaku.mhlw.go.jp/11/index.php?action_kouhyou_detail_004_kani=true&JigyosyoCd=1175301033-00&ServiceCd=&Type=search", "url2": null }, "geometry": { "type": "Point", "coordinates": [ 139.537956799999989, 36.0194035 ] } },
{ "type": "Feature", "properties": { "内容": "イリーゼふじみ野・別邸【特定施設入居者生活介護（有料老人ホーム（サービス付き高齢者向け住宅））】埼玉県富士見市ふじみ野東3丁目10番地10イリーゼふじみ野・別邸", "url": "https://www.kaigokensaku.mhlw.go.jp/11/index.php?action_kouhyou_detail_004_kani=true&JigyosyoCd=1172901389-00&ServiceCd=&Type=search", "url2": "http://www.irs.up/" }, "geometry": { "type": "Point", "coordinates": [ 139.5273632, 35.8652292 ] } },
{ "type": "Feature", "properties": { "内容": "ケアリッツレジデンス三郷【特定施設入居者生活介護（有料老人ホーム（サービス付き高齢者向け住宅））】埼玉県三郷市鷹野5-259-1ケアリッツレジデンス三郷", "url": "https://www.kaigokensaku.mhlw.go.jp/11/index.php?action_kouhyou_detail_004_kani=true&JigyosyoCd=1171201872-00&ServiceCd=&Type=search", "url2": "https://www.careritz.co.jp/station/branch/residence-misato/" }, "geometry": { "type": "Point", "coordinates": [ 139.8789327, 35.7980105 ] } },
{ "type": "Feature", "properties": { "内容": "サナサンテレジデンス三郷【特定施設入居者生活介護（有料老人ホーム（サービス付き高齢者向け住宅））】埼玉県三郷市鷹野5-259-1サナサンテレジデンス三郷", "url": "https://www.kaigokensaku.mhlw.go.jp/11/index.php?action_kouhyou_detail_004_kani=true&JigyosyoCd=1171202219-00&ServiceCd=&Type=search", "url2": "https://nagomi-lc.co.jp/facility/" }, "geometry": { "type": "Point", "coordinates": [ 139.8789327, 35.7980105 ] } },
{ "type": "Feature", "properties": { "内容": "ハーモニーライフ坂戸【特定施設入居者生活介護（有料老人ホーム（サービス付き高齢者向け住宅））】埼玉県坂戸市関間1-15-32ハーモニーライフ坂戸", "url": "https://www.kaigokensaku.mhlw.go.jp/11/index.php?action_kouhyou_detail_004_kani=true&JigyosyoCd=1176001509-00&ServiceCd=&Type=search", "url2": "https://mcp-net.jp/service/care-harmony/care-harmony-saitama/hl_sakado.html" }, "geometry": { "type": "Point", "coordinates": [ 139.4016297, 35.9527804 ] } },
{ "type": "Feature", "properties": { "内容": "ふるさとホーム坂戸【特定施設入居者生活介護（有料老人ホーム（サービス付き高齢者向け住宅））】埼玉県坂戸市にっさい花みず木5丁目25番地1", "url": "https://www.kaigokensaku.mhlw.go.jp/11/index.php?action_kouhyou_detail_004_kani=true&JigyosyoCd=1176000899-00&ServiceCd=&Type=search", "url2": "www.vati/co.jp" }, "geometry": { "type": "Point", "coordinates": [ 139.361928400000039, 35.9679901 ] } },
{ "type": "Feature", "properties": { "内容": "ココファン坂戸【特定施設入居者生活介護（有料老人ホーム（サービス付き高齢者向け住宅））】山田町9-44", "url": "https://www.kaigokensaku.mhlw.go.jp/11/index.php?action_kouhyou_detail_004_kani=true&JigyosyoCd=1176001418-00&ServiceCd=&Type=search", "url2": "https://www.cocofump.co.jp/" }, "geometry": { "type": "Point", "coordinates": [ 139.400714, 35.960217 ] } },
{ "type": "Feature", "properties": { "内容": "ハーモニーライフ若葉【特定施設入居者生活介護（有料老人ホーム（サービス付き高齢者向け住宅））】埼玉県鶴ヶ島市富士見2-24-27ハーモニーライフ若葉", "url": "https://www.kaigokensaku.mhlw.go.jp/11/index.php?action_kouhyou_detail_004_kani=true&JigyosyoCd=1176201059-00&ServiceCd=&Type=search", "url2": "http://www.mcp-net.jp" }, "geometry": { "type": "Point", "coordinates": [ 139.413854315313728, 35.949116352970826 ] } },
{ "type": "Feature", "properties": { "内容": "緑の森　ボワ・ヴェールひだか【特定施設入居者生活介護（有料老人ホーム（サービス付き高齢者向け住宅））】埼玉県日高市上鹿山235－1", "url": "https://www.kaigokensaku.mhlw.go.jp/11/index.php?action_kouhyou_detail_004_kani=true&JigyosyoCd=1176300729-00&ServiceCd=&Type=search", "url2": "https://www.boisvert-hidaka.jp" }, "geometry": { "type": "Point", "coordinates": [ 139.3376888, 35.8885679 ] } },
{ "type": "Feature", "properties": { "内容": "夢眠よしかわ【特定施設入居者生活介護（有料老人ホーム（サービス付き高齢者向け住宅））】埼玉県吉川市美南1丁目1番3号", "url": "https://www.kaigokensaku.mhlw.go.jp/11/index.php?action_kouhyou_detail_004_kani=true&JigyosyoCd=1176401030-00&ServiceCd=&Type=search", "url2": "https://muminhome.jp/yoshikawa/" }, "geometry": { "type": "Point", "coordinates": [ 139.847321706745902, 35.874312304461377 ] } },
{ "type": "Feature", "properties": { "内容": "ラフェスタ吉川美南【特定施設入居者生活介護（有料老人ホーム（サービス付き高齢者向け住宅））】埼玉県吉川市高久1-31-9", "url": "https://www.kaigokensaku.mhlw.go.jp/11/index.php?action_kouhyou_detail_004_kani=true&JigyosyoCd=1176400727-00&ServiceCd=&Type=search", "url2": "http://lafesta-group.com" }, "geometry": { "type": "Point", "coordinates": [ 139.842226100000062, 35.8660744 ] } },
{ "type": "Feature", "properties": { "内容": "ル・レーヴふじみ野【特定施設入居者生活介護（有料老人ホーム（サービス付き高齢者向け住宅））】新駒林1-4-16", "url": "https://www.kaigokensaku.mhlw.go.jp/11/index.php?action_kouhyou_detail_004_kani=true&JigyosyoCd=1173001288-00&ServiceCd=&Type=search", "url2": "https://www.ej-welfare.jp/" }, "geometry": { "type": "Point", "coordinates": [ 139.5253756, 35.8689976 ] } },
{ "type": "Feature", "properties": { "内容": "上野台ナーシングホーム【特定施設入居者生活介護（有料老人ホーム（サービス付き高齢者向け住宅））】ふじみ野市上野台２－１５－２３", "url": "https://www.kaigokensaku.mhlw.go.jp/11/index.php?action_kouhyou_detail_004_kani=true&JigyosyoCd=1173001007-00&ServiceCd=&Type=search", "url2": "http://ｗｗｗ.kawatsuru-g.jp" }, "geometry": { "type": "Point", "coordinates": [ 139.520839, 35.8771081 ] } },
{ "type": "Feature", "properties": { "内容": "イリーゼ上福岡【特定施設入居者生活介護（有料老人ホーム（サービス付き高齢者向け住宅））】埼玉県ふじみ野市1-15-12", "url": "https://www.kaigokensaku.mhlw.go.jp/11/index.php?action_kouhyou_detail_004_kani=true&JigyosyoCd=1173001601-00&ServiceCd=&Type=search", "url2": "https://www.irs.jp" }, "geometry": { "type": "Point", "coordinates": [ 139.5181366, 35.8509191 ] } },
{ "type": "Feature", "properties": { "内容": "ル・レーヴ新白岡【特定施設入居者生活介護（有料老人ホーム（サービス付き高齢者向け住宅））】白岡市新白岡9-3-3", "url": "https://www.kaigokensaku.mhlw.go.jp/11/index.php?action_kouhyou_detail_004_kani=true&JigyosyoCd=1176600300-00&ServiceCd=&Type=search", "url2": "http://www.ej-welfare.jp" }, "geometry": { "type": "Point", "coordinates": [ 139.669434700000011, 36.0348087 ] } },
{ "type": "Feature", "properties": { "内容": "さわやかしらおか館【特定施設入居者生活介護（有料老人ホーム（サービス付き高齢者向け住宅））】埼玉県白岡市小久喜948番地1", "url": "https://www.kaigokensaku.mhlw.go.jp/11/index.php?action_kouhyou_detail_004_kani=true&JigyosyoCd=1176600342-00&ServiceCd=&Type=search", "url2": "http://www.sawayakaclub.jp/shiraokakan/" }, "geometry": { "type": "Point", "coordinates": [ 139.66602850000001, 36.0131015 ] } },
{ "type": "Feature", "properties": { "内容": "介護よろずや　風の家【特定施設入居者生活介護（有料老人ホーム（サービス付き高齢者向け住宅））】埼玉県入間郡越生町上野東4-10-1", "url": "https://www.kaigokensaku.mhlw.go.jp/11/index.php?action_kouhyou_detail_004_kani=true&JigyosyoCd=1172401406-00&ServiceCd=&Type=search", "url2": "info@kazamidori-care.co.jp" }, "geometry": { "type": "Point", "coordinates": [ 139.305226299999987, 35.9573755 ] } },
{ "type": "Feature", "properties": { "内容": "介護よろずや　梅の家【特定施設入居者生活介護（有料老人ホーム（サービス付き高齢者向け住宅））】埼玉県入間郡越生町越生899-3", "url": "https://www.kaigokensaku.mhlw.go.jp/11/index.php?action_kouhyou_detail_004_kani=true&JigyosyoCd=1172401208-00&ServiceCd=&Type=search", "url2": "http://kazamidori-care.co.jp" }, "geometry": { "type": "Point", "coordinates": [ 139.295235, 35.9641139 ] } },
{ "type": "Feature", "properties": { "内容": "ロイヤルレジデンス川島弐号館【特定施設入居者生活介護（有料老人ホーム（サービス付き高齢者向け住宅））】埼玉県比企郡川島町大字伊草37-1", "url": "https://www.kaigokensaku.mhlw.go.jp/11/index.php?action_kouhyou_detail_004_kani=true&JigyosyoCd=1173201714-00&ServiceCd=&Type=search", "url2": "http://syasouken.com" }, "geometry": { "type": "Point", "coordinates": [ 139.464617200000021, 35.9664376 ] } },
{ "type": "Feature", "properties": { "内容": "介護付有料老人ホ－ムみどりの郷あすか【特定施設入居者生活介護（有料老人ホーム（サービス付き高齢者向け住宅））】埼玉県比企郡川島町中山１３４７－１介護付有料老人ホームみどりの郷あすか", "url": "https://www.kaigokensaku.mhlw.go.jp/11/index.php?action_kouhyou_detail_004_kani=true&JigyosyoCd=1173202191-00&ServiceCd=&Type=search", "url2": "http:www.midorinosatoasuka.com" }, "geometry": { "type": "Point", "coordinates": [ 139.447315900000035, 35.9890031 ] } },
{ "type": "Feature", "properties": { "内容": "サービス付き高齢者向け住宅麻見江【特定施設入居者生活介護（有料老人ホーム（サービス付き高齢者向け住宅））】埼玉県比企郡鳩山町大字大橋1042-1", "url": "https://www.kaigokensaku.mhlw.go.jp/11/index.php?action_kouhyou_detail_004_kani=true&JigyosyoCd=1173201698-00&ServiceCd=&Type=search", "url2": "http://www.mamie-hp.or.jp" }, "geometry": { "type": "Point", "coordinates": [ 139.3423027, 35.990851 ] } },
{ "type": "Feature", "properties": { "内容": "サービス付き高齢者向け住宅眞美【特定施設入居者生活介護（有料老人ホーム（サービス付き高齢者向け住宅））】埼玉県比企郡鳩山町大字大橋993番地1サービス付き高齢者向け住宅眞美", "url": "https://www.kaigokensaku.mhlw.go.jp/11/index.php?action_kouhyou_detail_004_kani=true&JigyosyoCd=1173201979-00&ServiceCd=&Type=search", "url2": "http://www.mamie-hp.or.jp" }, "geometry": { "type": "Point", "coordinates": [ 139.342454973324607, 35.991435439284857 ] } },
{ "type": "Feature", "properties": { "内容": "サービス付き高齢者向け住宅　ほほえみ【特定施設入居者生活介護（有料老人ホーム（サービス付き高齢者向け住宅））】埼玉県児玉郡美里町大字猪俣3225", "url": "https://www.kaigokensaku.mhlw.go.jp/11/index.php?action_kouhyou_detail_004_kani=true&JigyosyoCd=1174201283-00&ServiceCd=&Type=search", "url2": "https://www.hohoemimisato.com" }, "geometry": { "type": "Point", "coordinates": [ 139.178525140622696, 36.153601224242976 ] } },
{ "type": "Feature", "properties": { "内容": "イリーゼ杉戸【特定施設入居者生活介護（有料老人ホーム（サービス付き高齢者向け住宅））】埼玉県北葛飾郡杉戸町清地4-7-32", "url": "https://www.kaigokensaku.mhlw.go.jp/11/index.php?action_kouhyou_detail_004_kani=true&JigyosyoCd=1171102005-00&ServiceCd=&Type=search", "url2": "https://www.irs.jp/area/saitama/sugitochou/sugito_home.html" }, "geometry": { "type": "Point", "coordinates": [ 139.735983800000014, 36.0290868 ] } },
{ "type": "Feature", "properties": { "内容": "杉戸ケアコミュニティそよ風【特定施設入居者生活介護（有料老人ホーム（サービス付き高齢者向け住宅））】埼玉県北葛飾郡杉戸町杉戸５丁目３番15号", "url": "https://www.kaigokensaku.mhlw.go.jp/11/index.php?action_kouhyou_detail_004_kani=true&JigyosyoCd=1171101353-00&ServiceCd=&Type=search", "url2": "http://www.sykz.co.jp." }, "geometry": { "type": "Point", "coordinates": [ 139.722374699999989, 36.0310663 ] } }
]
}
