{
"type": "FeatureCollection",
"name": "geo_11_特定福祉用具販売",
"crs": { "type": "name", "properties": { "name": "urn:ogc:def:crs:OGC:1.3:CRS84" } },
"features": [
{ "type": "Feature", "properties": { "内容": "Eケアサービス【特定福祉用具販売】埼玉県さいたま市西区大字高木字亀田６０２番１", "url2": "https://www.kaigokensaku.mhlw.go.jp/11/index.php?action_kouhyou_detail_004_kani=true&JigyosyoCd=1176520383-00&ServiceCd=410&Type=search" }, "geometry": { "type": "Point", "coordinates": [ 139.56747876321424, 35.926799344492125 ] } },
{ "type": "Feature", "properties": { "内容": "介護用品の店　ヘルシーランド　たんとん【特定福祉用具販売】土呂町二丁目１２番１８号", "url2": "https://www.kaigokensaku.mhlw.go.jp/11/index.php?action_kouhyou_detail_004_kani=true&JigyosyoCd=1176500104-00&ServiceCd=410&Type=search" }, "geometry": { "type": "Point", "coordinates": [ 139.632804, 35.9324959 ] } },
{ "type": "Feature", "properties": { "内容": "株式会社　こっぱ舎【特定福祉用具販売】埼玉県さいたま市北区宮原町２－１２５－１４", "url2": "https://www.kaigokensaku.mhlw.go.jp/11/index.php?action_kouhyou_detail_004_kani=true&JigyosyoCd=1176517694-00&ServiceCd=410&Type=search" }, "geometry": { "type": "Point", "coordinates": [ 139.6192807, 35.9431275 ] } },
{ "type": "Feature", "properties": { "内容": "株式会社フロンティア　さいたま営業所【特定福祉用具販売】埼玉県さいたま市北区盆栽町406-1", "url2": "https://www.kaigokensaku.mhlw.go.jp/11/index.php?action_kouhyou_detail_004_kani=true&JigyosyoCd=1176511317-00&ServiceCd=410&Type=search" }, "geometry": { "type": "Point", "coordinates": [ 139.628948163159919, 35.927434047531492 ] } },
{ "type": "Feature", "properties": { "内容": "フランスベッド株式会社　メディカル大宮営業所【特定福祉用具販売】埼玉県さいたま市北区別所町1122-2", "url2": "https://www.kaigokensaku.mhlw.go.jp/11/index.php?action_kouhyou_detail_004_kani=true&JigyosyoCd=1176507307-00&ServiceCd=410&Type=search" }, "geometry": { "type": "Point", "coordinates": [ 139.602063899999962, 35.9536564 ] } },
{ "type": "Feature", "properties": { "内容": "レンタルふくしのまち　さいたま【特定福祉用具販売】埼玉県さいたま市北区櫛引町2-271-1川善ビル2-A", "url2": "https://www.kaigokensaku.mhlw.go.jp/11/index.php?action_kouhyou_detail_004_kani=true&JigyosyoCd=1176512646-00&ServiceCd=410&Type=search" }, "geometry": { "type": "Point", "coordinates": [ 139.609712342361462, 35.918677424479185 ] } },
{ "type": "Feature", "properties": { "内容": "株式会社トーカイ　さいたま支店【特定福祉用具販売】埼玉県さいたま市北区宮原町２丁目８５番地１", "url2": "https://www.kaigokensaku.mhlw.go.jp/11/index.php?action_kouhyou_detail_004_kani=true&JigyosyoCd=1176504395-00&ServiceCd=410&Type=search" }, "geometry": { "type": "Point", "coordinates": [ 139.615838, 35.9422645 ] } },
{ "type": "Feature", "properties": { "内容": "福祉用具ココファンしらかば【特定福祉用具販売】埼玉県さいたま市北区吉野町2-210-1", "url2": "https://www.kaigokensaku.mhlw.go.jp/11/index.php?action_kouhyou_detail_004_kani=true&JigyosyoCd=1176510830-00&ServiceCd=410&Type=search" }, "geometry": { "type": "Point", "coordinates": [ 139.6068661, 35.9578663 ] } },
{ "type": "Feature", "properties": { "内容": "関東ミタカ株式会社【特定福祉用具販売】埼玉県さいたま市吉野町1丁目2番地2", "url2": "https://www.kaigokensaku.mhlw.go.jp/11/index.php?action_kouhyou_detail_004_kani=true&JigyosyoCd=1176521258-00&ServiceCd=410&Type=search" }, "geometry": { "type": "Point", "coordinates": [ 139.621832500000011, 35.9466837 ] } },
{ "type": "Feature", "properties": { "内容": "株式会社東基　介護営業部　さいたま営業所【特定福祉用具販売】埼玉県さいたま市北区宮原町4-16-25", "url2": "https://www.kaigokensaku.mhlw.go.jp/11/index.php?action_kouhyou_detail_004_kani=true&JigyosyoCd=1176521555-00&ServiceCd=410&Type=search" }, "geometry": { "type": "Point", "coordinates": [ 139.6117451, 35.9439108 ] } },
{ "type": "Feature", "properties": { "内容": "マルカミ藤倉株式会社【特定福祉用具販売】さいたま市北区吉野町1-396-18マルカミ藤倉株式会社", "url2": "https://www.kaigokensaku.mhlw.go.jp/11/index.php?action_kouhyou_detail_004_kani=true&JigyosyoCd=1176516183-00&ServiceCd=410&Type=search" }, "geometry": { "type": "Point", "coordinates": [ 139.6114955, 35.9547384 ] } },
{ "type": "Feature", "properties": { "内容": "株式会社かんきょう　大宮支店【特定福祉用具販売】埼玉県さいたま市大宮区三橋一丁目326番地1", "url2": "https://www.kaigokensaku.mhlw.go.jp/11/index.php?action_kouhyou_detail_004_kani=true&JigyosyoCd=1176521456-00&ServiceCd=410&Type=search" }, "geometry": { "type": "Point", "coordinates": [ 139.602548, 35.9147661 ] } },
{ "type": "Feature", "properties": { "内容": "有限会社　ナックス【特定福祉用具販売】埼玉県さいたま市大宮区天沼町2-1259-7", "url2": "https://www.kaigokensaku.mhlw.go.jp/11/index.php?action_kouhyou_detail_004_kani=true&JigyosyoCd=1170300584-00&ServiceCd=410&Type=search" }, "geometry": { "type": "Point", "coordinates": [ 139.646127830055207, 35.901660321227226 ] } },
{ "type": "Feature", "properties": { "内容": "株式会社ヤマシタ埼玉営業所【特定福祉用具販売】埼玉県さいたま市大宮区桜木町4－686", "url2": "https://www.kaigokensaku.mhlw.go.jp/11/index.php?action_kouhyou_detail_004_kani=true&JigyosyoCd=1170100281-00&ServiceCd=410&Type=search" }, "geometry": { "type": "Point", "coordinates": [ 139.6183909, 35.8995629 ] } },
{ "type": "Feature", "properties": { "内容": "シルバーはあと大宮【特定福祉用具販売】埼玉県さいたま市大宮区浅間町1-149大泉ビル1階", "url2": "https://www.kaigokensaku.mhlw.go.jp/11/index.php?action_kouhyou_detail_004_kani=true&JigyosyoCd=1176521290-00&ServiceCd=410&Type=search" }, "geometry": { "type": "Point", "coordinates": [ 139.6342524, 35.904295700000034 ] } },
{ "type": "Feature", "properties": { "内容": "SOMPOケア　埼玉　福祉用具【特定福祉用具販売】埼玉県さいたま市大宮区仲町3-13-1住友生命大宮第２ビル１階", "url2": "https://www.kaigokensaku.mhlw.go.jp/11/index.php?action_kouhyou_detail_004_kani=true&JigyosyoCd=1176516746-00&ServiceCd=410&Type=search" }, "geometry": { "type": "Point", "coordinates": [ 139.628804560472503, 35.905635580969914 ] } },
{ "type": "Feature", "properties": { "内容": "ひかり福祉用具サービス【特定福祉用具販売】埼玉県さいたま市大宮区大成町3-515岡部ビル3階北号室", "url2": "https://www.kaigokensaku.mhlw.go.jp/11/index.php?action_kouhyou_detail_004_kani=true&JigyosyoCd=1176520185-00&ServiceCd=410&Type=search" }, "geometry": { "type": "Point", "coordinates": [ 139.6142677, 35.9185016 ] } },
{ "type": "Feature", "properties": { "内容": "コンパス福祉用具【特定福祉用具販売】埼玉県さいたま市大宮区桜木町4-783-4", "url2": "https://www.kaigokensaku.mhlw.go.jp/11/index.php?action_kouhyou_detail_004_kani=true&JigyosyoCd=1176515524-00&ServiceCd=410&Type=search" }, "geometry": { "type": "Point", "coordinates": [ 139.6186533, 35.9012499 ] } },
{ "type": "Feature", "properties": { "内容": "ウェルパーソンズ大宮【特定福祉用具販売】埼玉県さいたま市見沼区大和田町1-916-3大和田310ビル２F", "url2": "https://www.kaigokensaku.mhlw.go.jp/11/index.php?action_kouhyou_detail_004_kani=true&JigyosyoCd=1176520086-00&ServiceCd=410&Type=search" }, "geometry": { "type": "Point", "coordinates": [ 139.6478156, 35.924933 ] } },
{ "type": "Feature", "properties": { "内容": "住環デザイン【特定福祉用具販売】埼玉県さいたま市見沼区東大宮6-158-21", "url2": "https://www.kaigokensaku.mhlw.go.jp/11/index.php?action_kouhyou_detail_004_kani=true&JigyosyoCd=1176505244-00&ServiceCd=410&Type=search" }, "geometry": { "type": "Point", "coordinates": [ 139.6457882, 35.9478617 ] } },
{ "type": "Feature", "properties": { "内容": "ハピネスケア株式会社　大宮営業所【特定福祉用具販売】埼玉県さいたま市見沼区中川244-4", "url2": "https://www.kaigokensaku.mhlw.go.jp/11/index.php?action_kouhyou_detail_004_kani=true&JigyosyoCd=1176501896-00&ServiceCd=410&Type=search" }, "geometry": { "type": "Point", "coordinates": [ 139.659196400000042, 35.903446 ] } },
{ "type": "Feature", "properties": { "内容": "フランスベッド（株）メディカル見沼営業所【特定福祉用具販売】埼玉県さいたま市見沼区卸町2-6-21", "url2": "https://www.kaigokensaku.mhlw.go.jp/11/index.php?action_kouhyou_detail_004_kani=true&JigyosyoCd=1176517272-00&ServiceCd=410&Type=search" }, "geometry": { "type": "Point", "coordinates": [ 139.678200599999968, 35.9501918 ] } },
{ "type": "Feature", "properties": { "内容": "サイホク【特定福祉用具販売】埼玉県さいたま市見沼区深作3-14-26", "url2": "https://www.kaigokensaku.mhlw.go.jp/11/index.php?action_kouhyou_detail_004_kani=true&JigyosyoCd=1176515060-00&ServiceCd=410&Type=search" }, "geometry": { "type": "Point", "coordinates": [ 139.6613611, 35.9531219 ] } },
{ "type": "Feature", "properties": { "内容": "株式会社　栗原医療器械店　さいたまオフィス【特定福祉用具販売】埼玉県さいたま市見沼区東大宮6-3-3", "url2": "https://www.kaigokensaku.mhlw.go.jp/11/index.php?action_kouhyou_detail_004_kani=true&JigyosyoCd=1176507653-00&ServiceCd=410&Type=search" }, "geometry": { "type": "Point", "coordinates": [ 139.64565719999996, 35.9522228 ] } },
{ "type": "Feature", "properties": { "内容": "株式会社　髙橋医科器械店　さいたま営業所【特定福祉用具販売】埼玉県さいたま市見沼区深作1－24－33", "url2": "https://www.kaigokensaku.mhlw.go.jp/11/index.php?action_kouhyou_detail_004_kani=true&JigyosyoCd=1176502217-00&ServiceCd=410&Type=search" }, "geometry": { "type": "Point", "coordinates": [ 139.667585700000018, 35.95041 ] } },
{ "type": "Feature", "properties": { "内容": "有限会社　ワイ・エム・テック【特定福祉用具販売】埼玉県さいたま市見沼区堀崎町1262-5", "url2": "https://www.kaigokensaku.mhlw.go.jp/11/index.php?action_kouhyou_detail_004_kani=true&JigyosyoCd=1176508453-00&ServiceCd=410&Type=search" }, "geometry": { "type": "Point", "coordinates": [ 139.651818100000014, 35.9424966 ] } },
{ "type": "Feature", "properties": { "内容": "株式会社キガさいたま営業所【特定福祉用具販売】さいたま市見沼区東大宮6-30-43", "url2": "https://www.kaigokensaku.mhlw.go.jp/11/index.php?action_kouhyou_detail_004_kani=true&JigyosyoCd=1176511655-00&ServiceCd=410&Type=search" }, "geometry": { "type": "Point", "coordinates": [ 139.645971199999963, 35.9488899 ] } },
{ "type": "Feature", "properties": { "内容": "ダスキンヘルスレント大宮ステーション【特定福祉用具販売】さいたま市見沼区大和田町1-797-1", "url2": "https://www.kaigokensaku.mhlw.go.jp/11/index.php?action_kouhyou_detail_004_kani=true&JigyosyoCd=1176500724-00&ServiceCd=410&Type=search" }, "geometry": { "type": "Point", "coordinates": [ 139.65142979999996, 35.9207743 ] } },
{ "type": "Feature", "properties": { "内容": "やまもと企画株式会社　関東営業部【特定福祉用具販売】埼玉県さいたま市桜区町谷3丁目9番12号2F", "url2": "https://www.kaigokensaku.mhlw.go.jp/11/index.php?action_kouhyou_detail_004_kani=true&JigyosyoCd=1176518411-00&ServiceCd=410&Type=search" }, "geometry": { "type": "Point", "coordinates": [ 139.6208311, 35.8583532 ] } },
{ "type": "Feature", "properties": { "内容": "ビューティフルエイジング株式会社【特定福祉用具販売】埼玉県さいたま市桜区栄和1-24-1", "url2": "https://www.kaigokensaku.mhlw.go.jp/11/index.php?action_kouhyou_detail_004_kani=true&JigyosyoCd=1171900143-00&ServiceCd=410&Type=search" }, "geometry": { "type": "Point", "coordinates": [ 139.614578099999989, 35.8622456 ] } },
{ "type": "Feature", "properties": { "内容": "株式会社ジェー・シー・アイさいたま支店【特定福祉用具販売】田島4-28-27　中村分店ビル", "url2": "https://www.kaigokensaku.mhlw.go.jp/11/index.php?action_kouhyou_detail_004_kani=true&JigyosyoCd=1176516399-00&ServiceCd=410&Type=search" }, "geometry": { "type": "Point", "coordinates": [ 139.6302637, 35.8484008 ] } },
{ "type": "Feature", "properties": { "内容": "ワーマーケア【特定福祉用具販売】埼玉県さいたま市浦和区７－１－３６", "url2": "https://www.kaigokensaku.mhlw.go.jp/11/index.php?action_kouhyou_detail_004_kani=true&JigyosyoCd=1176521316-00&ServiceCd=410&Type=search" }, "geometry": { "type": "Point", "coordinates": [ 139.653822, 35.856278 ] } },
{ "type": "Feature", "properties": { "内容": "さわやかケアうらわ・福祉用具【特定福祉用具販売】さいたま市浦和区前地３－１４－１２　第２スミダビル３階", "url2": "https://www.kaigokensaku.mhlw.go.jp/11/index.php?action_kouhyou_detail_004_kani=true&JigyosyoCd=1176505186-00&ServiceCd=410&Type=search" }, "geometry": { "type": "Point", "coordinates": [ 139.656753400000071, 35.8628793 ] } },
{ "type": "Feature", "properties": { "内容": "株式会社アズミコーポレーション【特定福祉用具販売】岸町7-1-4", "url2": "https://www.kaigokensaku.mhlw.go.jp/11/index.php?action_kouhyou_detail_004_kani=true&JigyosyoCd=1170101065-00&ServiceCd=410&Type=search" }, "geometry": { "type": "Point", "coordinates": [ 139.654256800000013, 35.8559766 ] } },
{ "type": "Feature", "properties": { "内容": "どんぐり【特定福祉用具販売】常盤3-23-7", "url2": "https://www.kaigokensaku.mhlw.go.jp/11/index.php?action_kouhyou_detail_004_kani=true&JigyosyoCd=1170100745-00&ServiceCd=410&Type=search" }, "geometry": { "type": "Point", "coordinates": [ 139.645878, 35.864683 ] } },
{ "type": "Feature", "properties": { "内容": "さいたま福祉用具相談所【特定福祉用具販売】埼玉県さいたま市浦和区瀬ケ崎2－16－5", "url2": "https://www.kaigokensaku.mhlw.go.jp/11/index.php?action_kouhyou_detail_004_kani=true&JigyosyoCd=1176519898-00&ServiceCd=410&Type=search" }, "geometry": { "type": "Point", "coordinates": [ 139.6617903, 35.8766817 ] } },
{ "type": "Feature", "properties": { "内容": "株式会社セレモニー　あっぷるさいたま店【特定福祉用具販売】埼玉県さいたま市浦和区常盤9-4-13", "url2": "https://www.kaigokensaku.mhlw.go.jp/11/index.php?action_kouhyou_detail_004_kani=true&JigyosyoCd=1170100299-00&ServiceCd=410&Type=search" }, "geometry": { "type": "Point", "coordinates": [ 139.646218099999942, 35.8677342 ] } },
{ "type": "Feature", "properties": { "内容": "福祉用具ほほえみ【特定福祉用具販売】埼玉県さいたま市浦和区高砂2-1-1明治安田生命浦和ﾋﾞﾙ4階", "url2": "https://www.kaigokensaku.mhlw.go.jp/11/index.php?action_kouhyou_detail_004_kani=true&JigyosyoCd=1176500450-00&ServiceCd=410&Type=search" }, "geometry": { "type": "Point", "coordinates": [ 139.6557616, 35.8585942 ] } },
{ "type": "Feature", "properties": { "内容": "フランスベッド株式会社メディカル浦和営業所【特定福祉用具販売】埼玉県さいたま市南区南浦和2-2-14サントルヴィラージュ102", "url2": "https://www.kaigokensaku.mhlw.go.jp/11/index.php?action_kouhyou_detail_004_kani=true&JigyosyoCd=1176515417-00&ServiceCd=410&Type=search" }, "geometry": { "type": "Point", "coordinates": [ 139.668286099999932, 35.8498168 ] } },
{ "type": "Feature", "properties": { "内容": "株式会社ヤマシタ浦和営業所【特定福祉用具販売】埼玉県さいたま市南区辻1-23-8サニーパーク壱番館１０１号室", "url2": "https://www.kaigokensaku.mhlw.go.jp/11/index.php?action_kouhyou_detail_004_kani=true&JigyosyoCd=1176516977-00&ServiceCd=410&Type=search" }, "geometry": { "type": "Point", "coordinates": [ 139.664223690859643, 35.838772453498969 ] } },
{ "type": "Feature", "properties": { "内容": "株式会社愛安住　さいたま営業所【特定福祉用具販売】埼玉県さいたま市南区文蔵2丁目2番1号　2階", "url2": "https://www.kaigokensaku.mhlw.go.jp/11/index.php?action_kouhyou_detail_004_kani=true&JigyosyoCd=1176517330-00&ServiceCd=410&Type=search" }, "geometry": { "type": "Point", "coordinates": [ 139.669644, 35.8444071 ] } },
{ "type": "Feature", "properties": { "内容": "Suzuya福祉用具販売【特定福祉用具販売】山崎1-10-20鈴やビル301号室", "url2": "https://www.kaigokensaku.mhlw.go.jp/11/index.php?action_kouhyou_detail_004_kani=true&JigyosyoCd=1176521167-00&ServiceCd=410&Type=search" }, "geometry": { "type": "Point", "coordinates": [ 139.665811, 35.887961 ] } },
{ "type": "Feature", "properties": { "内容": "サン＆グリーン薬局【特定福祉用具販売】埼玉県さいたま市緑区松木3-16-11", "url2": "https://www.kaigokensaku.mhlw.go.jp/11/index.php?action_kouhyou_detail_004_kani=true&JigyosyoCd=1176516555-00&ServiceCd=410&Type=search" }, "geometry": { "type": "Point", "coordinates": [ 139.688291599999957, 35.8838381 ] } },
{ "type": "Feature", "properties": { "内容": "株式会社ライズケアサービス【特定福祉用具販売】埼玉県さいたま市緑区東浦和7-26-16", "url2": "https://www.kaigokensaku.mhlw.go.jp/11/index.php?action_kouhyou_detail_004_kani=true&JigyosyoCd=1176520706-00&ServiceCd=410&Type=search" }, "geometry": { "type": "Point", "coordinates": [ 139.703122799999989, 35.8725857 ] } },
{ "type": "Feature", "properties": { "内容": "有限会社岩槻市薬剤会事業部会「岩槻介護」【特定福祉用具販売】さいたま市岩槻区東町２－６－３５", "url2": "https://www.kaigokensaku.mhlw.go.jp/11/index.php?action_kouhyou_detail_004_kani=true&JigyosyoCd=1170700031-00&ServiceCd=410&Type=search" }, "geometry": { "type": "Point", "coordinates": [ 139.7022312, 35.9441801 ] } },
{ "type": "Feature", "properties": { "内容": "コンフォケア【特定福祉用具販売】埼玉県さいたま市岩槻区岩槻5367-3", "url2": "https://www.kaigokensaku.mhlw.go.jp/11/index.php?action_kouhyou_detail_004_kani=true&JigyosyoCd=1176511663-00&ServiceCd=410&Type=search" }, "geometry": { "type": "Point", "coordinates": [ 139.681633939356516, 35.962288771703925 ] } },
{ "type": "Feature", "properties": { "内容": "株式会社フロンティア川越営業所【特定福祉用具販売】富士見町3-2アビタシオン川越1階", "url2": "https://www.kaigokensaku.mhlw.go.jp/11/index.php?action_kouhyou_detail_004_kani=true&JigyosyoCd=1170405011-00&ServiceCd=410&Type=search" }, "geometry": { "type": "Point", "coordinates": [ 139.486661378541982, 35.904576373784238 ] } },
{ "type": "Feature", "properties": { "内容": "フランスベッド株式会社　メディカル川越営業所【特定福祉用具販売】埼玉県川越市木野目1435-2", "url2": "https://www.kaigokensaku.mhlw.go.jp/11/index.php?action_kouhyou_detail_004_kani=true&JigyosyoCd=1170405219-00&ServiceCd=410&Type=search" }, "geometry": { "type": "Point", "coordinates": [ 139.5210595, 35.8978633 ] } },
{ "type": "Feature", "properties": { "内容": "株式会社イノベイションオブメディカルサービス川越営業所【特定福祉用具販売】埼玉県川越市山田1641-5", "url2": "https://www.kaigokensaku.mhlw.go.jp/11/index.php?action_kouhyou_detail_004_kani=true&JigyosyoCd=1170404618-00&ServiceCd=410&Type=search" }, "geometry": { "type": "Point", "coordinates": [ 139.480183079762242, 35.942539786131434 ] } },
{ "type": "Feature", "properties": { "内容": "けあビジョン川越【特定福祉用具販売】月吉町20-6　月吉町事務所B", "url2": "https://www.kaigokensaku.mhlw.go.jp/11/index.php?action_kouhyou_detail_004_kani=true&JigyosyoCd=1170402307-00&ServiceCd=410&Type=search" }, "geometry": { "type": "Point", "coordinates": [ 139.47538, 35.920823 ] } },
{ "type": "Feature", "properties": { "内容": "株式会社ヤマシタ川越営業所【特定福祉用具販売】通町5-4第一山田ビル302号", "url2": "https://www.kaigokensaku.mhlw.go.jp/11/index.php?action_kouhyou_detail_004_kani=true&JigyosyoCd=1170404980-00&ServiceCd=410&Type=search" }, "geometry": { "type": "Point", "coordinates": [ 139.485421500000029, 35.9133385 ] } },
{ "type": "Feature", "properties": { "内容": "エミール川越福祉用具事業所【特定福祉用具販売】川越市砂新田１－１３－１５", "url2": "https://www.kaigokensaku.mhlw.go.jp/11/index.php?action_kouhyou_detail_004_kani=true&JigyosyoCd=1170401507-00&ServiceCd=410&Type=search" }, "geometry": { "type": "Point", "coordinates": [ 139.487095590010171, 35.893300960550825 ] } },
{ "type": "Feature", "properties": { "内容": "有限会社　カレント【特定福祉用具販売】埼玉県川越市大字笠幡4864番地8", "url2": "https://www.kaigokensaku.mhlw.go.jp/11/index.php?action_kouhyou_detail_004_kani=true&JigyosyoCd=1170401630-00&ServiceCd=410&Type=search" }, "geometry": { "type": "Point", "coordinates": [ 139.414021965471733, 35.908512174855005 ] } },
{ "type": "Feature", "properties": { "内容": "(株)やさしい住まいを考える会川越　介護ショップ歩【特定福祉用具販売】埼玉県川越市鯨井1792", "url2": "https://www.kaigokensaku.mhlw.go.jp/11/index.php?action_kouhyou_detail_004_kani=true&JigyosyoCd=1170403354-00&ServiceCd=410&Type=search" }, "geometry": { "type": "Point", "coordinates": [ 139.443676034284948, 35.934616610794421 ] } },
{ "type": "Feature", "properties": { "内容": "タムラ医療機器販売株式会社【特定福祉用具販売】埼玉県川越市霞ケ関北２丁目２−１3", "url2": "https://www.kaigokensaku.mhlw.go.jp/11/index.php?action_kouhyou_detail_004_kani=true&JigyosyoCd=1170400137-00&ServiceCd=410&Type=search" }, "geometry": { "type": "Point", "coordinates": [ 139.435888299999988, 35.925869 ] } },
{ "type": "Feature", "properties": { "内容": "一般社団法人Hauskaa【特定福祉用具販売】埼玉県川越市かすみ野１丁目１番地５Hauskaaかすみ野", "url2": "https://www.kaigokensaku.mhlw.go.jp/11/index.php?action_kouhyou_detail_004_kani=true&JigyosyoCd=1170404675-00&ServiceCd=410&Type=search" }, "geometry": { "type": "Point", "coordinates": [ 139.4182884, 35.9049183 ] } },
{ "type": "Feature", "properties": { "内容": "e-cubecare株式会社【特定福祉用具販売】むさし野４－２BLオフィスe", "url2": "https://www.kaigokensaku.mhlw.go.jp/11/index.php?action_kouhyou_detail_004_kani=true&JigyosyoCd=1170403776-00&ServiceCd=410&Type=search" }, "geometry": { "type": "Point", "coordinates": [ 139.472415, 35.8922854 ] } },
{ "type": "Feature", "properties": { "内容": "エフビー介護サービス株式会社　川越営業所【特定福祉用具販売】埼玉県川越市岸町2-14-14", "url2": "https://www.kaigokensaku.mhlw.go.jp/11/index.php?action_kouhyou_detail_004_kani=true&JigyosyoCd=1170404352-00&ServiceCd=410&Type=search" }, "geometry": { "type": "Point", "coordinates": [ 139.489466399999969, 35.8965465 ] } },
{ "type": "Feature", "properties": { "内容": "ダスキンヘルスレント川越ステーション【特定福祉用具販売】埼玉県川越市稲荷町14-10", "url2": "https://www.kaigokensaku.mhlw.go.jp/11/index.php?action_kouhyou_detail_004_kani=true&JigyosyoCd=1170405094-00&ServiceCd=410&Type=search" }, "geometry": { "type": "Point", "coordinates": [ 139.5029676, 35.8810319 ] } },
{ "type": "Feature", "properties": { "内容": "J・S・W【特定福祉用具販売】埼玉県川越市砂新田四丁目7番地23", "url2": "https://www.kaigokensaku.mhlw.go.jp/11/index.php?action_kouhyou_detail_004_kani=true&JigyosyoCd=1170400301-00&ServiceCd=410&Type=search" }, "geometry": { "type": "Point", "coordinates": [ 139.491158199999973, 35.8867727 ] } },
{ "type": "Feature", "properties": { "内容": "レンフォーム【特定福祉用具販売】埼玉県川越市笠幡2752番地２", "url2": "https://www.kaigokensaku.mhlw.go.jp/11/index.php?action_kouhyou_detail_004_kani=true&JigyosyoCd=1170401648-00&ServiceCd=410&Type=search" }, "geometry": { "type": "Point", "coordinates": [ 139.38681930000007, 35.9087424 ] } },
{ "type": "Feature", "properties": { "内容": "レンタルふくしのまち川越【特定福祉用具販売】埼玉県川越市小仙波町3-6-8", "url2": "https://www.kaigokensaku.mhlw.go.jp/11/index.php?action_kouhyou_detail_004_kani=true&JigyosyoCd=1176000113-00&ServiceCd=410&Type=search" }, "geometry": { "type": "Point", "coordinates": [ 139.4947065, 35.9180936 ] } },
{ "type": "Feature", "properties": { "内容": "グリーンフォレスト福祉用具センター【特定福祉用具販売】広瀬800-2", "url2": "https://www.kaigokensaku.mhlw.go.jp/11/index.php?action_kouhyou_detail_004_kani=true&JigyosyoCd=1173103738-00&ServiceCd=410&Type=search" }, "geometry": { "type": "Point", "coordinates": [ 139.3513681, 36.1471285 ] } },
{ "type": "Feature", "properties": { "内容": "おもいやり【特定福祉用具販売】埼玉県熊谷市柿沼421", "url2": "https://www.kaigokensaku.mhlw.go.jp/11/index.php?action_kouhyou_detail_004_kani=true&JigyosyoCd=1174501187-00&ServiceCd=410&Type=search" }, "geometry": { "type": "Point", "coordinates": [ 139.3812993, 36.1709565 ] } },
{ "type": "Feature", "properties": { "内容": "福祉用具サービス　希望【特定福祉用具販売】埼玉県熊谷市中西２丁目８番地５", "url2": "https://www.kaigokensaku.mhlw.go.jp/11/index.php?action_kouhyou_detail_004_kani=true&JigyosyoCd=1173138676-00&ServiceCd=410&Type=search" }, "geometry": { "type": "Point", "coordinates": [ 139.395426500000013, 36.1476943 ] } },
{ "type": "Feature", "properties": { "内容": "オールケアスタンドバイ【特定福祉用具販売】埼玉県熊谷市肥塚1206B号室", "url2": "https://www.kaigokensaku.mhlw.go.jp/11/index.php?action_kouhyou_detail_004_kani=true&JigyosyoCd=1173138833-00&ServiceCd=410&Type=search" }, "geometry": { "type": "Point", "coordinates": [ 139.3859232, 36.1654428 ] } },
{ "type": "Feature", "properties": { "内容": "スマイルハート株式会社スリーピース【特定福祉用具販売】埼玉県熊谷市拾六間596-12", "url2": "https://www.kaigokensaku.mhlw.go.jp/11/index.php?action_kouhyou_detail_004_kani=true&JigyosyoCd=1173103613-00&ServiceCd=410&Type=search" }, "geometry": { "type": "Point", "coordinates": [ 139.3190807, 36.1667392 ] } },
{ "type": "Feature", "properties": { "内容": "ケアセンターあかね上武営業所【特定福祉用具販売】埼玉県熊谷市拾六間1004", "url2": "https://www.kaigokensaku.mhlw.go.jp/11/index.php?action_kouhyou_detail_004_kani=true&JigyosyoCd=1173102284-00&ServiceCd=410&Type=search" }, "geometry": { "type": "Point", "coordinates": [ 139.318011800000022, 36.1632119 ] } },
{ "type": "Feature", "properties": { "内容": "もくれん介護サービス【特定福祉用具販売】埼玉県熊谷市拾六間577-2", "url2": "https://www.kaigokensaku.mhlw.go.jp/11/index.php?action_kouhyou_detail_004_kani=true&JigyosyoCd=1173102771-00&ServiceCd=410&Type=search" }, "geometry": { "type": "Point", "coordinates": [ -91.480396, 32.2913698 ] } },
{ "type": "Feature", "properties": { "内容": "有限会社　ティオーエム企画【特定福祉用具販売】埼玉県熊谷市玉井南２丁目５９番地", "url2": "https://www.kaigokensaku.mhlw.go.jp/11/index.php?action_kouhyou_detail_004_kani=true&JigyosyoCd=1173100767-00&ServiceCd=410&Type=search" }, "geometry": { "type": "Point", "coordinates": [ 139.3471424, 36.1745405 ] } },
{ "type": "Feature", "properties": { "内容": "エフビー介護サービス株式会社　熊谷営業所【特定福祉用具販売】埼玉県熊谷市新島148-4", "url2": "https://www.kaigokensaku.mhlw.go.jp/11/index.php?action_kouhyou_detail_004_kani=true&JigyosyoCd=1173102037-00&ServiceCd=410&Type=search" }, "geometry": { "type": "Point", "coordinates": [ 139.369696699999963, 36.181128 ] } },
{ "type": "Feature", "properties": { "内容": "株式会社　栗原医療器械店　熊谷オフィス【特定福祉用具販売】埼玉県熊谷市籠原南3丁目8番地", "url2": "https://www.kaigokensaku.mhlw.go.jp/11/index.php?action_kouhyou_detail_004_kani=true&JigyosyoCd=1173102045-00&ServiceCd=410&Type=search" }, "geometry": { "type": "Point", "coordinates": [ 139.326822, 36.1719695 ] } },
{ "type": "Feature", "properties": { "内容": "レンタルふくしのまち熊谷【特定福祉用具販売】埼玉県熊谷市肥塚641-1", "url2": "https://www.kaigokensaku.mhlw.go.jp/11/index.php?action_kouhyou_detail_004_kani=true&JigyosyoCd=1173103696-00&ServiceCd=410&Type=search" }, "geometry": { "type": "Point", "coordinates": [ 139.393431174868766, 36.163875035757009 ] } },
{ "type": "Feature", "properties": { "内容": "株式会社石田屋　熊谷支店　松本材木店事業部【特定福祉用具販売】埼玉県熊谷市石原804-5", "url2": "https://www.kaigokensaku.mhlw.go.jp/11/index.php?action_kouhyou_detail_004_kani=true&JigyosyoCd=1173100528-00&ServiceCd=410&Type=search" }, "geometry": { "type": "Point", "coordinates": [ 139.371331, 36.1520101 ] } },
{ "type": "Feature", "properties": { "内容": "L＆Bレンタル【特定福祉用具販売】熊谷市相上1854-3", "url2": "https://www.kaigokensaku.mhlw.go.jp/11/index.php?action_kouhyou_detail_004_kani=true&JigyosyoCd=1173138825-00&ServiceCd=410&Type=search" }, "geometry": { "type": "Point", "coordinates": [ 139.4160698, 36.0894442 ] } },
{ "type": "Feature", "properties": { "内容": "たいようふくしようぐさーびすがいしゃ【特定福祉用具販売】埼玉県熊谷市弥藤吾１３８", "url2": "https://www.kaigokensaku.mhlw.go.jp/11/index.php?action_kouhyou_detail_004_kani=true&JigyosyoCd=1173102607-00&ServiceCd=410&Type=search" }, "geometry": { "type": "Point", "coordinates": [ 139.3762912, 36.2219313 ] } },
{ "type": "Feature", "properties": { "内容": "株式会社あくび【特定福祉用具販売】埼玉県川口市本町1-7-8ラ・メゾン・リブランA101", "url2": "https://www.kaigokensaku.mhlw.go.jp/11/index.php?action_kouhyou_detail_004_kani=true&JigyosyoCd=1170206450-00&ServiceCd=410&Type=search" }, "geometry": { "type": "Point", "coordinates": [ 139.724788900000021, 35.7952192 ] } },
{ "type": "Feature", "properties": { "内容": "福祉用具PONOPONO【特定福祉用具販売】埼玉県川口市東領家2-36-18", "url2": "https://www.kaigokensaku.mhlw.go.jp/11/index.php?action_kouhyou_detail_004_kani=true&JigyosyoCd=1170210262-00&ServiceCd=410&Type=search" }, "geometry": { "type": "Point", "coordinates": [ 139.7534032, 35.7979961 ] } },
{ "type": "Feature", "properties": { "内容": "ウェルハウス福祉用具販売貸与事業所【特定福祉用具販売】埼玉県川口市木曽呂497-12", "url2": "https://www.kaigokensaku.mhlw.go.jp/11/index.php?action_kouhyou_detail_004_kani=true&JigyosyoCd=1170209223-00&ServiceCd=410&Type=search" }, "geometry": { "type": "Point", "coordinates": [ 139.728218199999986, 35.8608214 ] } },
{ "type": "Feature", "properties": { "内容": "有限会社きぼう【特定福祉用具販売】埼玉県川口市柳崎３丁目19-8", "url2": "https://www.kaigokensaku.mhlw.go.jp/11/index.php?action_kouhyou_detail_004_kani=true&JigyosyoCd=1170201824-00&ServiceCd=410&Type=search" }, "geometry": { "type": "Point", "coordinates": [ 139.6976196, 35.8562577 ] } },
{ "type": "Feature", "properties": { "内容": "ここあ【特定福祉用具販売】埼玉県川口市南鳩ヶ谷７丁目４０番６号", "url2": "https://www.kaigokensaku.mhlw.go.jp/11/index.php?action_kouhyou_detail_004_kani=true&JigyosyoCd=1170209967-00&ServiceCd=410&Type=search" }, "geometry": { "type": "Point", "coordinates": [ 139.729579300000012, 35.8216917 ] } },
{ "type": "Feature", "properties": { "内容": "福祉用具貸与・販売よつば【特定福祉用具販売】埼玉県川口市安行北谷594-1清水ビル1階", "url2": "https://www.kaigokensaku.mhlw.go.jp/11/index.php?action_kouhyou_detail_004_kani=true&JigyosyoCd=1170207375-00&ServiceCd=410&Type=search" }, "geometry": { "type": "Point", "coordinates": [ 139.775916268849528, 35.837922839519734 ] } },
{ "type": "Feature", "properties": { "内容": "株式会社かんきょう　埼玉支店【特定福祉用具販売】埼玉県川口市東川口一丁目22番地4", "url2": "https://www.kaigokensaku.mhlw.go.jp/11/index.php?action_kouhyou_detail_004_kani=true&JigyosyoCd=1170207698-00&ServiceCd=410&Type=search" }, "geometry": { "type": "Point", "coordinates": [ 139.739106600000014, 35.8750509 ] } },
{ "type": "Feature", "properties": { "内容": "株式会社フロンティア川口営業所【特定福祉用具販売】埼玉県川口市新井宿1005-1", "url2": "https://www.kaigokensaku.mhlw.go.jp/11/index.php?action_kouhyou_detail_004_kani=true&JigyosyoCd=1170209702-00&ServiceCd=410&Type=search" }, "geometry": { "type": "Point", "coordinates": [ 139.731996400000014, 35.8403493 ] } },
{ "type": "Feature", "properties": { "内容": "エミール・ホームケア【特定福祉用具販売】埼玉県川口市上青木６丁目３９番１５号", "url2": "https://www.kaigokensaku.mhlw.go.jp/11/index.php?action_kouhyou_detail_004_kani=true&JigyosyoCd=1170210031-00&ServiceCd=410&Type=search" }, "geometry": { "type": "Point", "coordinates": [ 139.719481699999989, 35.8369441 ] } },
{ "type": "Feature", "properties": { "内容": "株式会社　ピュアホームズ【特定福祉用具販売】埼玉県川口市芝1-14-1", "url2": "https://www.kaigokensaku.mhlw.go.jp/11/index.php?action_kouhyou_detail_004_kani=true&JigyosyoCd=1170201121-00&ServiceCd=410&Type=search" }, "geometry": { "type": "Point", "coordinates": [ 139.700417384235948, 35.834052710275849 ] } },
{ "type": "Feature", "properties": { "内容": "株式会社　シルバーホクソン【特定福祉用具販売】埼玉県川口市中青木２－２２－３４", "url2": "https://www.kaigokensaku.mhlw.go.jp/11/index.php?action_kouhyou_detail_004_kani=true&JigyosyoCd=1170200222-00&ServiceCd=410&Type=search" }, "geometry": { "type": "Point", "coordinates": [ 139.722646199999986, 35.8111678 ] } },
{ "type": "Feature", "properties": { "内容": "フランスベッド株式会社メディカル川口営業所【特定福祉用具販売】埼玉県川口市芝新町6-15わらび市川ビル101", "url2": "https://www.kaigokensaku.mhlw.go.jp/11/index.php?action_kouhyou_detail_004_kani=true&JigyosyoCd=1170801706-00&ServiceCd=410&Type=search" }, "geometry": { "type": "Point", "coordinates": [ 139.693474092660495, 35.828782931344961 ] } },
{ "type": "Feature", "properties": { "内容": "ロイヤルエイド【特定福祉用具販売】青木2-5-24ロイヤル川口1階", "url2": "https://www.kaigokensaku.mhlw.go.jp/11/index.php?action_kouhyou_detail_004_kani=true&JigyosyoCd=1170208266-00&ServiceCd=410&Type=search" }, "geometry": { "type": "Point", "coordinates": [ 139.7261843, 35.8079001 ] } },
{ "type": "Feature", "properties": { "内容": "ミルケア【特定福祉用具販売】埼玉県川口市柳崎3－21－3　1F", "url2": "https://www.kaigokensaku.mhlw.go.jp/11/index.php?action_kouhyou_detail_004_kani=true&JigyosyoCd=1170209918-00&ServiceCd=410&Type=search" }, "geometry": { "type": "Point", "coordinates": [ 139.6961627, 35.8552189 ] } },
{ "type": "Feature", "properties": { "内容": "アズミメディケアセンター埼玉【特定福祉用具販売】埼玉県川口市芝4-7-24", "url2": "https://www.kaigokensaku.mhlw.go.jp/11/index.php?action_kouhyou_detail_004_kani=true&JigyosyoCd=1170200131-00&ServiceCd=410&Type=search" }, "geometry": { "type": "Point", "coordinates": [ 139.691847200000012, 35.8322438 ] } },
{ "type": "Feature", "properties": { "内容": "まっかな花　川口草加【特定福祉用具販売】埼玉県川口市大字新堀993番地の8", "url2": "https://www.kaigokensaku.mhlw.go.jp/11/index.php?action_kouhyou_detail_004_kani=true&JigyosyoCd=1170208191-00&ServiceCd=410&Type=search" }, "geometry": { "type": "Point", "coordinates": [ 139.771521900000039, 35.8270502 ] } },
{ "type": "Feature", "properties": { "内容": "パナソニックエイジフリーショップ戸田川口西【特定福祉用具販売】埼玉県川口市前川２－２６－８", "url2": "https://www.kaigokensaku.mhlw.go.jp/11/index.php?action_kouhyou_detail_004_kani=true&JigyosyoCd=1170201857-00&ServiceCd=410&Type=search" }, "geometry": { "type": "Point", "coordinates": [ 139.716351600000053, 35.8364216 ] } },
{ "type": "Feature", "properties": { "内容": "ラック川口【特定福祉用具販売】川口市本町3-3-8", "url2": "https://www.kaigokensaku.mhlw.go.jp/11/index.php?action_kouhyou_detail_004_kani=true&JigyosyoCd=1170204554-00&ServiceCd=410&Type=search" }, "geometry": { "type": "Point", "coordinates": [ 139.722634, 35.80018960000001 ] } },
{ "type": "Feature", "properties": { "内容": "アビリティーズ・ケアネット株式会社さいたま営業所【特定福祉用具販売】埼玉県川口市金山町3-15井ノ浦ビル１F", "url2": "https://www.kaigokensaku.mhlw.go.jp/11/index.php?action_kouhyou_detail_004_kani=true&JigyosyoCd=1170202079-00&ServiceCd=410&Type=search" }, "geometry": { "type": "Point", "coordinates": [ 139.721422209834628, 35.797833741427517 ] } },
{ "type": "Feature", "properties": { "内容": "ベスト・ケアーレンタル事業部　川口【特定福祉用具販売】埼玉県川口市芝5023", "url2": "https://www.kaigokensaku.mhlw.go.jp/11/index.php?action_kouhyou_detail_004_kani=true&JigyosyoCd=1170208571-00&ServiceCd=410&Type=search" }, "geometry": { "type": "Point", "coordinates": [ 139.688850800000012, 35.8389133 ] } },
{ "type": "Feature", "properties": { "内容": "ＮＰＯ法人ケアたつ【特定福祉用具販売】埼玉県川口市新堀５０－２", "url2": "https://www.kaigokensaku.mhlw.go.jp/11/index.php?action_kouhyou_detail_004_kani=true&JigyosyoCd=1170207482-00&ServiceCd=410&Type=search" }, "geometry": { "type": "Point", "coordinates": [ 139.770960300000013, 35.8292917 ] } },
{ "type": "Feature", "properties": { "内容": "株式会社Ｍケアテック【特定福祉用具販売】川口市芝１－４４－１３", "url2": "https://www.kaigokensaku.mhlw.go.jp/11/index.php?action_kouhyou_detail_004_kani=true&JigyosyoCd=1170205098-00&ServiceCd=410&Type=search" }, "geometry": { "type": "Point", "coordinates": [ 139.705511309431472, 35.835269977395882 ] } },
{ "type": "Feature", "properties": { "内容": "株式会社　日本ケアーシステム【特定福祉用具販売】埼玉県川口市南鳩ケ谷3-19-27", "url2": "https://www.kaigokensaku.mhlw.go.jp/11/index.php?action_kouhyou_detail_004_kani=true&JigyosyoCd=1172000133-00&ServiceCd=410&Type=search" }, "geometry": { "type": "Point", "coordinates": [ 139.7419999, 35.8154343 ] } },
{ "type": "Feature", "properties": { "内容": "リステ【特定福祉用具販売】埼玉県川口市戸塚東1-27-24-1Fグリーンピア", "url2": "https://www.kaigokensaku.mhlw.go.jp/11/index.php?action_kouhyou_detail_004_kani=true&JigyosyoCd=1170205494-00&ServiceCd=410&Type=search" }, "geometry": { "type": "Point", "coordinates": [ 139.7544069, 35.8743525 ] } },
{ "type": "Feature", "properties": { "内容": "サンテグラースSSS【特定福祉用具販売】埼玉県行田市持田３丁目２７番地１９号201号", "url2": "https://www.kaigokensaku.mhlw.go.jp/11/index.php?action_kouhyou_detail_004_kani=true&JigyosyoCd=1173701291-00&ServiceCd=410&Type=search" }, "geometry": { "type": "Point", "coordinates": [ 139.4381014, 36.1304311 ] } },
{ "type": "Feature", "properties": { "内容": "あさひケアサービス福祉用具事業部【特定福祉用具販売】埼玉県行田市持田4240ヴィラージュショウエイ", "url2": "https://www.kaigokensaku.mhlw.go.jp/11/index.php?action_kouhyou_detail_004_kani=true&JigyosyoCd=1173701192-00&ServiceCd=410&Type=search" }, "geometry": { "type": "Point", "coordinates": [ 139.4377043, 36.1327593 ] } },
{ "type": "Feature", "properties": { "内容": "サンテグラース【特定福祉用具販売】埼玉県行田市持田三丁目27番19号", "url2": "https://www.kaigokensaku.mhlw.go.jp/11/index.php?action_kouhyou_detail_004_kani=true&JigyosyoCd=1173700970-00&ServiceCd=410&Type=search" }, "geometry": { "type": "Point", "coordinates": [ 139.438020300000062, 36.1303658 ] } },
{ "type": "Feature", "properties": { "内容": "サンテグラースRプラス【特定福祉用具販売】埼玉県行田市持田3丁目27番地19号2Fサンテグラース　２F", "url2": "https://www.kaigokensaku.mhlw.go.jp/11/index.php?action_kouhyou_detail_004_kani=true&JigyosyoCd=1173701200-00&ServiceCd=410&Type=search" }, "geometry": { "type": "Point", "coordinates": [ 139.4381014, 36.1304311 ] } },
{ "type": "Feature", "properties": { "内容": "エミール行田福祉用具販売事業所【特定福祉用具販売】埼玉県行田市持田２丁目15-14", "url2": "https://www.kaigokensaku.mhlw.go.jp/11/index.php?action_kouhyou_detail_004_kani=true&JigyosyoCd=1173700475-00&ServiceCd=410&Type=search" }, "geometry": { "type": "Point", "coordinates": [ 139.435656399999971, 36.1345151 ] } },
{ "type": "Feature", "properties": { "内容": "くまケア【特定福祉用具販売】埼玉県行田市持田686-2", "url2": "https://www.kaigokensaku.mhlw.go.jp/11/index.php?action_kouhyou_detail_004_kani=true&JigyosyoCd=1173701341-00&ServiceCd=410&Type=search" }, "geometry": { "type": "Point", "coordinates": [ 139.4491425, 36.1271752 ] } },
{ "type": "Feature", "properties": { "内容": "株式会社同仁社　埼玉営業所【特定福祉用具販売】埼玉県行田市門井３丁目２２－１５", "url2": "https://www.kaigokensaku.mhlw.go.jp/11/index.php?action_kouhyou_detail_004_kani=true&JigyosyoCd=1173700707-00&ServiceCd=410&Type=search" }, "geometry": { "type": "Point", "coordinates": [ 139.4425175, 36.120873 ] } },
{ "type": "Feature", "properties": { "内容": "株式会社　髙橋医科器械店　熊谷営業所【特定福祉用具販売】埼玉県行田市持田3－2－18", "url2": "https://www.kaigokensaku.mhlw.go.jp/11/index.php?action_kouhyou_detail_004_kani=true&JigyosyoCd=1173700046-00&ServiceCd=410&Type=search" }, "geometry": { "type": "Point", "coordinates": [ 139.442478, 36.1312825 ] } },
{ "type": "Feature", "properties": { "内容": "株式会社　スマイルサポート　秩父バリアフリー館【特定福祉用具販売】埼玉県秩父市大野原９７１", "url2": "https://www.kaigokensaku.mhlw.go.jp/11/index.php?action_kouhyou_detail_004_kani=true&JigyosyoCd=1174900173-00&ServiceCd=410&Type=search" }, "geometry": { "type": "Point", "coordinates": [ 139.10055, 36.0232268 ] } },
{ "type": "Feature", "properties": { "内容": "グリーンケア秩父店【特定福祉用具販売】埼玉県秩父市上影森815番地", "url2": "https://www.kaigokensaku.mhlw.go.jp/11/index.php?action_kouhyou_detail_004_kani=true&JigyosyoCd=1174900868-00&ServiceCd=410&Type=search" }, "geometry": { "type": "Point", "coordinates": [ 139.070029179386779, 35.98120747956937 ] } },
{ "type": "Feature", "properties": { "内容": "介護ショップ　しおん【特定福祉用具販売】埼玉県秩父市桜木町11-21", "url2": "https://www.kaigokensaku.mhlw.go.jp/11/index.php?action_kouhyou_detail_004_kani=true&JigyosyoCd=1174900462-00&ServiceCd=410&Type=search" }, "geometry": { "type": "Point", "coordinates": [ 139.0813918, 36.0040456 ] } },
{ "type": "Feature", "properties": { "内容": "有限会社吉縁【特定福祉用具販売】東所沢２丁目２０番５号和光ビル１０１", "url2": "https://www.kaigokensaku.mhlw.go.jp/11/index.php?action_kouhyou_detail_004_kani=true&JigyosyoCd=1172505537-00&ServiceCd=410&Type=search" }, "geometry": { "type": "Point", "coordinates": [ 139.5125894, 35.8008877 ] } },
{ "type": "Feature", "properties": { "内容": "コーハン　ケアエイド所沢【特定福祉用具販売】所沢市下富７０４－２", "url2": "https://www.kaigokensaku.mhlw.go.jp/11/index.php?action_kouhyou_detail_004_kani=true&JigyosyoCd=1172503474-00&ServiceCd=410&Type=search" }, "geometry": { "type": "Point", "coordinates": [ 139.4652317, 35.8300593 ] } },
{ "type": "Feature", "properties": { "内容": "フランスベッド株式会社メディカル所沢営業所【特定福祉用具販売】埼玉県所沢市東所沢和田二丁目18番地16", "url2": "https://www.kaigokensaku.mhlw.go.jp/11/index.php?action_kouhyou_detail_004_kani=true&JigyosyoCd=1172503342-00&ServiceCd=410&Type=search" }, "geometry": { "type": "Point", "coordinates": [ 139.507426200000026, 35.7946233 ] } },
{ "type": "Feature", "properties": { "内容": "ダスキンヘルスレント所沢ステーション【特定福祉用具販売】埼玉県所沢市下安松９４３－１", "url2": "https://www.kaigokensaku.mhlw.go.jp/11/index.php?action_kouhyou_detail_004_kani=true&JigyosyoCd=1172502146-00&ServiceCd=410&Type=search" }, "geometry": { "type": "Point", "coordinates": [ 139.5035239, 35.7905071 ] } },
{ "type": "Feature", "properties": { "内容": "ビーズ　ビー【特定福祉用具販売】埼玉県所沢市小手指町１－１３－２３", "url2": "https://www.kaigokensaku.mhlw.go.jp/11/index.php?action_kouhyou_detail_004_kani=true&JigyosyoCd=1172504241-00&ServiceCd=410&Type=search" }, "geometry": { "type": "Point", "coordinates": [ 139.4372112, 35.8028443 ] } },
{ "type": "Feature", "properties": { "内容": "株式会社　栗原医療器械店　所沢オフィス【特定福祉用具販売】埼玉県所沢市東所沢3丁目13番9", "url2": "https://www.kaigokensaku.mhlw.go.jp/11/index.php?action_kouhyou_detail_004_kani=true&JigyosyoCd=1172504332-00&ServiceCd=410&Type=search" }, "geometry": { "type": "Point", "coordinates": [ 139.518061100000068, 35.8017504 ] } },
{ "type": "Feature", "properties": { "内容": "そうわテイクハート【特定福祉用具販売】松葉町16-2", "url2": "https://www.kaigokensaku.mhlw.go.jp/11/index.php?action_kouhyou_detail_004_kani=true&JigyosyoCd=1172504928-00&ServiceCd=410&Type=search" }, "geometry": { "type": "Point", "coordinates": [ 139.457144200000016, 35.807867300000019 ] } },
{ "type": "Feature", "properties": { "内容": "株式会社トーカイ所沢営業所【特定福祉用具販売】埼玉県所沢市東所沢和田1-42-6", "url2": "https://www.kaigokensaku.mhlw.go.jp/11/index.php?action_kouhyou_detail_004_kani=true&JigyosyoCd=1172503532-00&ServiceCd=410&Type=search" }, "geometry": { "type": "Point", "coordinates": [ 139.527429500000039, 35.8170516 ] } },
{ "type": "Feature", "properties": { "内容": "東洋ケアサービス株式会社　さいたま西支店【特定福祉用具販売】埼玉県所沢市若松町2015-2", "url2": "https://www.kaigokensaku.mhlw.go.jp/11/index.php?action_kouhyou_detail_004_kani=true&JigyosyoCd=1172505321-00&ServiceCd=410&Type=search" }, "geometry": { "type": "Point", "coordinates": [ 139.484097222850778, 35.80371747245573 ] } },
{ "type": "Feature", "properties": { "内容": "ロイヤル・ヘルスケア【特定福祉用具販売】埼玉県所沢市旭町7-9", "url2": "https://www.kaigokensaku.mhlw.go.jp/11/index.php?action_kouhyou_detail_004_kani=true&JigyosyoCd=1173201474-00&ServiceCd=410&Type=search" }, "geometry": { "type": "Point", "coordinates": [ 139.47563452698364, 35.790804157916035 ] } },
{ "type": "Feature", "properties": { "内容": "吉澤屋　福祉用具サポート【特定福祉用具販売】埼玉県所沢市山口1853-3", "url2": "https://www.kaigokensaku.mhlw.go.jp/11/index.php?action_kouhyou_detail_004_kani=true&JigyosyoCd=1172501494-00&ServiceCd=410&Type=search" }, "geometry": { "type": "Point", "coordinates": [ 139.431330928358392, 35.777673813306301 ] } },
{ "type": "Feature", "properties": { "内容": "川村義肢株式会社　所沢サービスセンター【特定福祉用具販売】埼玉県所沢市喜多町16-7第１武井ビル１階", "url2": "https://www.kaigokensaku.mhlw.go.jp/11/index.php?action_kouhyou_detail_004_kani=true&JigyosyoCd=1172500421-00&ServiceCd=410&Type=search" }, "geometry": { "type": "Point", "coordinates": [ 139.464490162652965, 35.79880631384632 ] } },
{ "type": "Feature", "properties": { "内容": "株式会社ヘルスケア　西武営業所【特定福祉用具販売】埼玉県所沢市三ケ島2-740-4", "url2": "https://www.kaigokensaku.mhlw.go.jp/11/index.php?action_kouhyou_detail_004_kani=true&JigyosyoCd=1172500116-00&ServiceCd=410&Type=search" }, "geometry": { "type": "Point", "coordinates": [ 139.408900499999987, 35.789893 ] } },
{ "type": "Feature", "properties": { "内容": "介護ショップふれんず【特定福祉用具販売】埼玉県所沢市所沢新町2532-6", "url2": "https://www.kaigokensaku.mhlw.go.jp/11/index.php?action_kouhyou_detail_004_kani=true&JigyosyoCd=1172504001-00&ServiceCd=410&Type=search" }, "geometry": { "type": "Point", "coordinates": [ 139.465745700000014, 35.8203697 ] } },
{ "type": "Feature", "properties": { "内容": "介護ショップ山手【特定福祉用具販売】埼玉県飯能市山手町23-8", "url2": "https://www.kaigokensaku.mhlw.go.jp/11/index.php?action_kouhyou_detail_004_kani=true&JigyosyoCd=1172600312-00&ServiceCd=410&Type=search" }, "geometry": { "type": "Point", "coordinates": [ 139.31420952582809, 35.861218037988152 ] } },
{ "type": "Feature", "properties": { "内容": "みらいふｃａｒｅ【特定福祉用具販売】埼玉県飯能市双柳４２８－１０", "url2": "https://www.kaigokensaku.mhlw.go.jp/11/index.php?action_kouhyou_detail_004_kani=true&JigyosyoCd=1172601245-00&ServiceCd=410&Type=search" }, "geometry": { "type": "Point", "coordinates": [ 139.3308386, 35.8583277 ] } },
{ "type": "Feature", "properties": { "内容": "エミール加須福祉用具事業所【特定福祉用具販売】埼玉県加須市花崎１丁目２１－１２", "url2": "https://www.kaigokensaku.mhlw.go.jp/11/index.php?action_kouhyou_detail_004_kani=true&JigyosyoCd=1173800705-00&ServiceCd=410&Type=search" }, "geometry": { "type": "Point", "coordinates": [ 139.633429431491095, 36.108811496754072 ] } },
{ "type": "Feature", "properties": { "内容": "ひまわり館加須営業所【特定福祉用具販売】埼玉県加須市不動岡1-5-40", "url2": "https://www.kaigokensaku.mhlw.go.jp/11/index.php?action_kouhyou_detail_004_kani=true&JigyosyoCd=1173800473-00&ServiceCd=410&Type=search" }, "geometry": { "type": "Point", "coordinates": [ 139.592225900000017, 36.1321433 ] } },
{ "type": "Feature", "properties": { "内容": "株式会社　木のかほり【特定福祉用具販売】埼玉県加須市内田ケ谷1196-5", "url2": "https://www.kaigokensaku.mhlw.go.jp/11/index.php?action_kouhyou_detail_004_kani=true&JigyosyoCd=1173801059-00&ServiceCd=410&Type=search" }, "geometry": { "type": "Point", "coordinates": [ 139.56565710000001, 36.110661 ] } },
{ "type": "Feature", "properties": { "内容": "ダスキンヘルスレント加須ステーション【特定福祉用具販売】埼玉県加須市大桑１－２５－１０", "url2": "https://www.kaigokensaku.mhlw.go.jp/11/index.php?action_kouhyou_detail_004_kani=true&JigyosyoCd=1173801448-00&ServiceCd=410&Type=search" }, "geometry": { "type": "Point", "coordinates": [ 139.642719194442748, 36.118709567107736 ] } },
{ "type": "Feature", "properties": { "内容": "株式会社　三笑【特定福祉用具販売】埼玉県加須市久下２丁目３０－４", "url2": "https://www.kaigokensaku.mhlw.go.jp/11/index.php?action_kouhyou_detail_004_kani=true&JigyosyoCd=1173800036-00&ServiceCd=410&Type=search" }, "geometry": { "type": "Point", "coordinates": [ 139.613953, 36.119051 ] } },
{ "type": "Feature", "properties": { "内容": "福祉用具あいのて【特定福祉用具販売】共栄70", "url2": "https://www.kaigokensaku.mhlw.go.jp/11/index.php?action_kouhyou_detail_004_kani=true&JigyosyoCd=1174301935-00&ServiceCd=410&Type=search" }, "geometry": { "type": "Point", "coordinates": [ 134.0340927, 35.0589126 ] } },
{ "type": "Feature", "properties": { "内容": "福祉用具　大谷【特定福祉用具販売】埼玉県東松山市松本町1-2-27", "url2": "https://www.kaigokensaku.mhlw.go.jp/11/index.php?action_kouhyou_detail_004_kani=true&JigyosyoCd=1173301605-00&ServiceCd=410&Type=search" }, "geometry": { "type": "Point", "coordinates": [ 139.4072921, 36.0404851 ] } },
{ "type": "Feature", "properties": { "内容": "ダスキンヘルスレント東松山ステーション【特定福祉用具販売】埼玉県東松山市松本町2-1-49シンワコーポ101", "url2": "https://www.kaigokensaku.mhlw.go.jp/11/index.php?action_kouhyou_detail_004_kani=true&JigyosyoCd=1173300383-00&ServiceCd=410&Type=search" }, "geometry": { "type": "Point", "coordinates": [ 139.414409023081987, 36.038015722158718 ] } },
{ "type": "Feature", "properties": { "内容": "ひまわり館東松山営業所【特定福祉用具販売】埼玉県東松山市新宿町25-12", "url2": "https://www.kaigokensaku.mhlw.go.jp/11/index.php?action_kouhyou_detail_004_kani=true&JigyosyoCd=1173301316-00&ServiceCd=410&Type=search" }, "geometry": { "type": "Point", "coordinates": [ 139.422499722300955, 36.032363242708719 ] } },
{ "type": "Feature", "properties": { "内容": "レンタルふくしのまち東松山【特定福祉用具販売】埼玉県東松山市元宿1-31-1", "url2": "https://www.kaigokensaku.mhlw.go.jp/11/index.php?action_kouhyou_detail_004_kani=true&JigyosyoCd=1173300029-00&ServiceCd=410&Type=search" }, "geometry": { "type": "Point", "coordinates": [ 139.3977112, 35.998556 ] } },
{ "type": "Feature", "properties": { "内容": "株式会社　髙橋医科器械店　東松山営業所【特定福祉用具販売】埼玉県東松山市今泉111－3", "url2": "https://www.kaigokensaku.mhlw.go.jp/11/index.php?action_kouhyou_detail_004_kani=true&JigyosyoCd=1173300052-00&ServiceCd=410&Type=search" }, "geometry": { "type": "Point", "coordinates": [ 139.434033399999947, 36.0126885 ] } },
{ "type": "Feature", "properties": { "内容": "エール・ケア　東松山【特定福祉用具販売】東松山市神明町2-16-15", "url2": "https://www.kaigokensaku.mhlw.go.jp/11/index.php?action_kouhyou_detail_004_kani=true&JigyosyoCd=1173301563-00&ServiceCd=410&Type=search" }, "geometry": { "type": "Point", "coordinates": [ 139.405368, 36.0276339 ] } },
{ "type": "Feature", "properties": { "内容": "うぃっちーず【特定福祉用具販売】埼玉県春日部市上蛭田５２９番地３ヤカタビル２０１号室", "url2": "https://www.kaigokensaku.mhlw.go.jp/11/index.php?action_kouhyou_detail_004_kani=true&JigyosyoCd=1170604134-00&ServiceCd=410&Type=search" }, "geometry": { "type": "Point", "coordinates": [ 139.7275367, 35.9663479 ] } },
{ "type": "Feature", "properties": { "内容": "やさしいちから【特定福祉用具販売】埼玉県春日部市大畑154-1サンライズビル201", "url2": "https://www.kaigokensaku.mhlw.go.jp/11/index.php?action_kouhyou_detail_004_kani=true&JigyosyoCd=1170604217-00&ServiceCd=410&Type=search" }, "geometry": { "type": "Point", "coordinates": [ 139.771304500000014, 35.9485734 ] } },
{ "type": "Feature", "properties": { "内容": "きらら【特定福祉用具販売】埼玉県春日部市大衾496-381", "url2": "https://www.kaigokensaku.mhlw.go.jp/11/index.php?action_kouhyou_detail_004_kani=true&JigyosyoCd=1170603193-00&ServiceCd=410&Type=search" }, "geometry": { "type": "Point", "coordinates": [ 139.807432400000039, 35.9832903 ] } },
{ "type": "Feature", "properties": { "内容": "株式会社フロンティア春日部営業所【特定福祉用具販売】埼玉県春日部市中央6-4-10", "url2": "https://www.kaigokensaku.mhlw.go.jp/11/index.php?action_kouhyou_detail_004_kani=true&JigyosyoCd=1170602781-00&ServiceCd=410&Type=search" }, "geometry": { "type": "Point", "coordinates": [ 139.753958900000043, 35.9743485 ] } },
{ "type": "Feature", "properties": { "内容": "ぬくもり【特定福祉用具販売】埼玉県春日部市永沼2229番地1", "url2": "https://www.kaigokensaku.mhlw.go.jp/11/index.php?action_kouhyou_detail_004_kani=true&JigyosyoCd=1171100884-00&ServiceCd=410&Type=search" }, "geometry": { "type": "Point", "coordinates": [ 139.797524399999986, 35.9780442 ] } },
{ "type": "Feature", "properties": { "内容": "エフビー介護サービス株式会社　春日部営業所【特定福祉用具販売】埼玉県春日部市緑町6-4-6", "url2": "https://www.kaigokensaku.mhlw.go.jp/11/index.php?action_kouhyou_detail_004_kani=true&JigyosyoCd=1170602401-00&ServiceCd=410&Type=search" }, "geometry": { "type": "Point", "coordinates": [ 139.7672446, 35.9691679 ] } },
{ "type": "Feature", "properties": { "内容": "株式会社同仁社　埼玉東営業所【特定福祉用具販売】埼玉県春日部市中央7丁目6-1トナンビル", "url2": "https://www.kaigokensaku.mhlw.go.jp/11/index.php?action_kouhyou_detail_004_kani=true&JigyosyoCd=1170603086-00&ServiceCd=410&Type=search" }, "geometry": { "type": "Point", "coordinates": [ 139.754195, 35.9733986 ] } },
{ "type": "Feature", "properties": { "内容": "福祉用具　アプローズ【特定福祉用具販売】春日部市栄町2-220", "url2": "https://www.kaigokensaku.mhlw.go.jp/11/index.php?action_kouhyou_detail_004_kani=true&JigyosyoCd=1170601932-00&ServiceCd=410&Type=search" }, "geometry": { "type": "Point", "coordinates": [ 139.7333366905454, 35.987557427797803 ] } },
{ "type": "Feature", "properties": { "内容": "レスポンス【特定福祉用具販売】春日部市牛島50-16", "url2": "https://www.kaigokensaku.mhlw.go.jp/11/index.php?action_kouhyou_detail_004_kani=true&JigyosyoCd=1170602435-00&ServiceCd=410&Type=search" }, "geometry": { "type": "Point", "coordinates": [ 139.7749546, 35.978218 ] } },
{ "type": "Feature", "properties": { "内容": "きりん【特定福祉用具販売】埼玉県春日部市備後東1-28-18", "url2": "https://www.kaigokensaku.mhlw.go.jp/11/index.php?action_kouhyou_detail_004_kani=true&JigyosyoCd=1170603946-00&ServiceCd=410&Type=search" }, "geometry": { "type": "Point", "coordinates": [ 139.76787490000001, 35.9639675 ] } },
{ "type": "Feature", "properties": { "内容": "株式会社　ふれあい広場　入間・狭山店【特定福祉用具販売】埼玉県狭山市入間川1430-140エクセレント９２　１Ｆ", "url2": "https://www.kaigokensaku.mhlw.go.jp/11/index.php?action_kouhyou_detail_004_kani=true&JigyosyoCd=1172700047-00&ServiceCd=410&Type=search" }, "geometry": { "type": "Point", "coordinates": [ 139.432081891015628, 35.84724489229874 ] } },
{ "type": "Feature", "properties": { "内容": "サンクス住環境合同会社【特定福祉用具販売】入間川３丁目１１－２１－３", "url2": "https://www.kaigokensaku.mhlw.go.jp/11/index.php?action_kouhyou_detail_004_kani=true&JigyosyoCd=1172701870-00&ServiceCd=410&Type=search" }, "geometry": { "type": "Point", "coordinates": [ 139.405613737230425, 35.85578609639667 ] } },
{ "type": "Feature", "properties": { "内容": "福祉用具リアン【特定福祉用具販売】水野1265-10", "url2": "https://www.kaigokensaku.mhlw.go.jp/11/index.php?action_kouhyou_detail_004_kani=true&JigyosyoCd=1172701961-00&ServiceCd=410&Type=search" }, "geometry": { "type": "Point", "coordinates": [ 139.41975, 35.819625 ] } },
{ "type": "Feature", "properties": { "内容": "在宅介護支援センター21彩【特定福祉用具販売】埼玉県狭山市水野594", "url2": "https://www.kaigokensaku.mhlw.go.jp/11/index.php?action_kouhyou_detail_004_kani=true&JigyosyoCd=1172700310-00&ServiceCd=410&Type=search" }, "geometry": { "type": "Point", "coordinates": [ 139.446322400000014, 35.8321784 ] } },
{ "type": "Feature", "properties": { "内容": "株式会社　貴輪福祉用具貸与事業所【特定福祉用具販売】狭山市水野３１番地", "url2": "https://www.kaigokensaku.mhlw.go.jp/11/index.php?action_kouhyou_detail_004_kani=true&JigyosyoCd=1172700906-00&ServiceCd=410&Type=search" }, "geometry": { "type": "Point", "coordinates": [ 139.439813800000024, 35.8408577 ] } },
{ "type": "Feature", "properties": { "内容": "株式会社ホームケアサービスそら【特定福祉用具販売】大字北入曽869番地2", "url2": "https://www.kaigokensaku.mhlw.go.jp/11/index.php?action_kouhyou_detail_004_kani=true&JigyosyoCd=1172702050-00&ServiceCd=410&Type=search" }, "geometry": { "type": "Point", "coordinates": [ 139.4251109, 35.8416343 ] } },
{ "type": "Feature", "properties": { "内容": "ケアウェル狭山店【特定福祉用具販売】埼玉県狭山市鵜ノ木１３－３７", "url2": "https://www.kaigokensaku.mhlw.go.jp/11/index.php?action_kouhyou_detail_004_kani=true&JigyosyoCd=1172701185-00&ServiceCd=410&Type=search" }, "geometry": { "type": "Point", "coordinates": [ 139.3961038, 35.8499725 ] } },
{ "type": "Feature", "properties": { "内容": "パナソニックエイジフリーショップ狭山【特定福祉用具販売】大字堀兼２３７７－７", "url2": "https://www.kaigokensaku.mhlw.go.jp/11/index.php?action_kouhyou_detail_004_kani=true&JigyosyoCd=1172700641-00&ServiceCd=410&Type=search" }, "geometry": { "type": "Point", "coordinates": [ 139.449750200000011, 35.8330737 ] } },
{ "type": "Feature", "properties": { "内容": "介護の太助　羽生店【特定福祉用具販売】中央2-1-7田中ビル1F2号", "url2": "https://www.kaigokensaku.mhlw.go.jp/11/index.php?action_kouhyou_detail_004_kani=true&JigyosyoCd=1173900687-00&ServiceCd=410&Type=search" }, "geometry": { "type": "Point", "coordinates": [ 140.877971900000034, 38.2610465 ] } },
{ "type": "Feature", "properties": { "内容": "パナソニックエイジフリーショップ北埼羽生【特定福祉用具販売】埼玉県羽生市神戸642-2", "url2": "https://www.kaigokensaku.mhlw.go.jp/11/index.php?action_kouhyou_detail_004_kani=true&JigyosyoCd=1173900281-00&ServiceCd=410&Type=search" }, "geometry": { "type": "Point", "coordinates": [ 139.55971703121341, 36.138278537233298 ] } },
{ "type": "Feature", "properties": { "内容": "介護ショップ　彩香らんど【特定福祉用具販売】埼玉県鴻巣市登戸256-2", "url2": "https://www.kaigokensaku.mhlw.go.jp/11/index.php?action_kouhyou_detail_004_kani=true&JigyosyoCd=1171701194-00&ServiceCd=410&Type=search" }, "geometry": { "type": "Point", "coordinates": [ 139.4914953, 36.0653717 ] } },
{ "type": "Feature", "properties": { "内容": "株式会社福祉の街　レンタルふくしのまち鴻巣【特定福祉用具販売】埼玉県鴻巣市滝馬室９２３－２", "url2": "https://www.kaigokensaku.mhlw.go.jp/11/index.php?action_kouhyou_detail_004_kani=true&JigyosyoCd=1171700055-00&ServiceCd=410&Type=search" }, "geometry": { "type": "Point", "coordinates": [ 139.506613099999981, 36.0538062 ] } },
{ "type": "Feature", "properties": { "内容": "介護のさくら【特定福祉用具販売】埼玉県鴻巣市大芦1800-1", "url2": "https://www.kaigokensaku.mhlw.go.jp/11/index.php?action_kouhyou_detail_004_kani=true&JigyosyoCd=1171701699-00&ServiceCd=410&Type=search" }, "geometry": { "type": "Point", "coordinates": [ 139.442688579762262, 36.091423088183753 ] } },
{ "type": "Feature", "properties": { "内容": "ひまわり館吹上営業所【特定福祉用具販売】埼玉県鴻巣市吹上本町5-4-9", "url2": "https://www.kaigokensaku.mhlw.go.jp/11/index.php?action_kouhyou_detail_004_kani=true&JigyosyoCd=1171300146-00&ServiceCd=410&Type=search" }, "geometry": { "type": "Point", "coordinates": [ 139.448272149598665, 36.106209550917377 ] } },
{ "type": "Feature", "properties": { "内容": "有限会社　ケアサービス・フォーレスト【特定福祉用具販売】明戸276-1", "url2": "https://www.kaigokensaku.mhlw.go.jp/11/index.php?action_kouhyou_detail_004_kani=true&JigyosyoCd=1174600351-00&ServiceCd=410&Type=search" }, "geometry": { "type": "Point", "coordinates": [ 139.3039191, 36.2093472 ] } },
{ "type": "Feature", "properties": { "内容": "ケアマーチ【特定福祉用具販売】埼玉県深谷市上柴町東5-5-21YS108　111号室", "url2": "https://www.kaigokensaku.mhlw.go.jp/11/index.php?action_kouhyou_detail_004_kani=true&JigyosyoCd=1174602894-00&ServiceCd=410&Type=search" }, "geometry": { "type": "Point", "coordinates": [ 139.30166682142638, 36.179193390069159 ] } },
{ "type": "Feature", "properties": { "内容": "ウェルサポート【特定福祉用具販売】埼玉県深谷市小前田2753", "url2": "https://www.kaigokensaku.mhlw.go.jp/11/index.php?action_kouhyou_detail_004_kani=true&JigyosyoCd=1174601094-00&ServiceCd=410&Type=search" }, "geometry": { "type": "Point", "coordinates": [ 139.234228886260979, 36.134670118280177 ] } },
{ "type": "Feature", "properties": { "内容": "関東メディカル株式会社　深谷営業所【特定福祉用具販売】埼玉県深谷市寿町15", "url2": "https://www.kaigokensaku.mhlw.go.jp/11/index.php?action_kouhyou_detail_004_kani=true&JigyosyoCd=1174602951-00&ServiceCd=410&Type=search" }, "geometry": { "type": "Point", "coordinates": [ 139.287826599999988, 36.1900612 ] } },
{ "type": "Feature", "properties": { "内容": "ひまわり館深谷営業所【特定福祉用具販売】埼玉県深谷市上柴町西3-7-6", "url2": "https://www.kaigokensaku.mhlw.go.jp/11/index.php?action_kouhyou_detail_004_kani=true&JigyosyoCd=1174500940-00&ServiceCd=410&Type=search" }, "geometry": { "type": "Point", "coordinates": [ 139.3030652, 36.1844621 ] } },
{ "type": "Feature", "properties": { "内容": "介護サポートエス・エイチ・アイ【特定福祉用具販売】埼玉県深谷市宿根504-2", "url2": "https://www.kaigokensaku.mhlw.go.jp/11/index.php?action_kouhyou_detail_004_kani=true&JigyosyoCd=1173100924-00&ServiceCd=410&Type=search" }, "geometry": { "type": "Point", "coordinates": [ 139.2628186, 36.1961456 ] } },
{ "type": "Feature", "properties": { "内容": "ヘルスケア上武営業所【特定福祉用具販売】埼玉県深谷市小前田840番地1", "url2": "https://www.kaigokensaku.mhlw.go.jp/11/index.php?action_kouhyou_detail_004_kani=true&JigyosyoCd=1174600070-00&ServiceCd=410&Type=search" }, "geometry": { "type": "Point", "coordinates": [ 139.227988, 36.1235966 ] } },
{ "type": "Feature", "properties": { "内容": "らぽーる上尾【特定福祉用具販売】埼玉県上尾市地頭方422らぽーる上尾", "url2": "https://www.kaigokensaku.mhlw.go.jp/11/index.php?action_kouhyou_detail_004_kani=true&JigyosyoCd=1171603044-00&ServiceCd=410&Type=search" }, "geometry": { "type": "Point", "coordinates": [ 139.5719656, 35.9532364 ] } },
{ "type": "Feature", "properties": { "内容": "株式会社　ヤマシタ　上尾営業所【特定福祉用具販売】埼玉県上尾市春日2丁目25番地２", "url2": "https://www.kaigokensaku.mhlw.go.jp/11/index.php?action_kouhyou_detail_004_kani=true&JigyosyoCd=1171700436-00&ServiceCd=410&Type=search" }, "geometry": { "type": "Point", "coordinates": [ 139.576482899999974, 35.976780300000016 ] } },
{ "type": "Feature", "properties": { "内容": "かいふくセンター塚匠【特定福祉用具販売】埼玉県上尾市上331-5", "url2": "https://www.kaigokensaku.mhlw.go.jp/11/index.php?action_kouhyou_detail_004_kani=true&JigyosyoCd=1171600800-00&ServiceCd=410&Type=search" }, "geometry": { "type": "Point", "coordinates": [ 139.575828399999978, 35.9951397 ] } },
{ "type": "Feature", "properties": { "内容": "あいふれんど【特定福祉用具販売】埼玉県上尾市柏座1-10-3-83武蔵野ビル３階", "url2": "https://www.kaigokensaku.mhlw.go.jp/11/index.php?action_kouhyou_detail_004_kani=true&JigyosyoCd=1171602533-00&ServiceCd=410&Type=search" }, "geometry": { "type": "Point", "coordinates": [ 139.585578400000031, 35.9759111 ] } },
{ "type": "Feature", "properties": { "内容": "まーち【特定福祉用具販売】谷塚1丁目21番1号メルヘンシャトー110号", "url2": "https://www.kaigokensaku.mhlw.go.jp/11/index.php?action_kouhyou_detail_004_kani=true&JigyosyoCd=1171803214-00&ServiceCd=410&Type=search" }, "geometry": { "type": "Point", "coordinates": [ 139.801777814016759, 35.810533537918673 ] } },
{ "type": "Feature", "properties": { "内容": "株式会社ケアレント【特定福祉用具販売】埼玉県草加市草加３－３－３７ライフピア松原１０５", "url2": "https://www.kaigokensaku.mhlw.go.jp/11/index.php?action_kouhyou_detail_004_kani=true&JigyosyoCd=1171803024-00&ServiceCd=410&Type=search" }, "geometry": { "type": "Point", "coordinates": [ 139.799261199999989, 35.8375862 ] } },
{ "type": "Feature", "properties": { "内容": "ＴＯＭＯ【特定福祉用具販売】草加市小山２ー１５ー１ニューグリーンハイム1階Ａ号", "url2": "https://www.kaigokensaku.mhlw.go.jp/11/index.php?action_kouhyou_detail_004_kani=true&JigyosyoCd=1171802059-00&ServiceCd=410&Type=search" }, "geometry": { "type": "Point", "coordinates": [ 139.781383300000016, 35.8390975 ] } },
{ "type": "Feature", "properties": { "内容": "あっとほーむらいふ【特定福祉用具販売】埼玉県草加市瀬崎3-24-31パーム谷塚１０１号室", "url2": "https://www.kaigokensaku.mhlw.go.jp/11/index.php?action_kouhyou_detail_004_kani=true&JigyosyoCd=1171802372-00&ServiceCd=410&Type=search" }, "geometry": { "type": "Point", "coordinates": [ 139.807324699999981, 35.8111237 ] } },
{ "type": "Feature", "properties": { "内容": "彩ネットワーク【特定福祉用具販売】埼玉県草加市西町1322-3", "url2": "https://www.kaigokensaku.mhlw.go.jp/11/index.php?action_kouhyou_detail_004_kani=true&JigyosyoCd=1171803206-00&ServiceCd=410&Type=search" }, "geometry": { "type": "Point", "coordinates": [ 139.7906171, 35.8260062 ] } },
{ "type": "Feature", "properties": { "内容": "ピュアグリーン【特定福祉用具販売】埼玉県草加市花栗3-11-24", "url2": "https://www.kaigokensaku.mhlw.go.jp/11/index.php?action_kouhyou_detail_004_kani=true&JigyosyoCd=1171803271-00&ServiceCd=410&Type=search" }, "geometry": { "type": "Point", "coordinates": [ 139.786364099999986, 35.8367704 ] } },
{ "type": "Feature", "properties": { "内容": "パナソニックエイジフリーショップ越谷【特定福祉用具販売】埼玉県越谷市越ケ谷2丁目4番37号", "url2": "https://www.kaigokensaku.mhlw.go.jp/11/index.php?action_kouhyou_detail_004_kani=true&JigyosyoCd=1170800542-00&ServiceCd=410&Type=search" }, "geometry": { "type": "Point", "coordinates": [ 139.787504488746634, 35.89025991218648 ] } },
{ "type": "Feature", "properties": { "内容": "さいゆう介護ステーション越谷営業所【特定福祉用具販売】埼玉県越谷市東越谷９－７－５越谷司法ビル１階", "url2": "https://www.kaigokensaku.mhlw.go.jp/11/index.php?action_kouhyou_detail_004_kani=true&JigyosyoCd=1170805301-00&ServiceCd=410&Type=search" }, "geometry": { "type": "Point", "coordinates": [ 139.807869776057402, 35.897050008872625 ] } },
{ "type": "Feature", "properties": { "内容": "福祉用具よし【特定福祉用具販売】埼玉県越谷市平方1708‐1関根店舗", "url2": "https://www.kaigokensaku.mhlw.go.jp/11/index.php?action_kouhyou_detail_004_kani=true&JigyosyoCd=1170805327-00&ServiceCd=410&Type=search" }, "geometry": { "type": "Point", "coordinates": [ 139.781409700000012, 35.9456312 ] } },
{ "type": "Feature", "properties": { "内容": "Green　Label【特定福祉用具販売】恩間231番地5", "url2": "https://www.kaigokensaku.mhlw.go.jp/11/index.php?action_kouhyou_detail_004_kani=true&JigyosyoCd=1170805012-00&ServiceCd=410&Type=search" }, "geometry": { "type": "Point", "coordinates": [ 139.772253861971279, 35.924728590127749 ] } },
{ "type": "Feature", "properties": { "内容": "株式会社イーアス【特定福祉用具販売】埼玉県越谷市相模町1-153-1", "url2": "https://www.kaigokensaku.mhlw.go.jp/11/index.php?action_kouhyou_detail_004_kani=true&JigyosyoCd=1170803751-00&ServiceCd=410&Type=search" }, "geometry": { "type": "Point", "coordinates": [ 139.805248803229432, 35.88367821510213 ] } },
{ "type": "Feature", "properties": { "内容": "エスコート福祉レンタル【特定福祉用具販売】埼玉県越谷市蒲生寿町4-29", "url2": "https://www.kaigokensaku.mhlw.go.jp/11/index.php?action_kouhyou_detail_004_kani=true&JigyosyoCd=1170803850-00&ServiceCd=410&Type=search" }, "geometry": { "type": "Point", "coordinates": [ 139.794107, 35.8680689 ] } },
{ "type": "Feature", "properties": { "内容": "株式会社　かいんど【特定福祉用具販売】埼玉県越谷市東越谷７丁目４番地１４", "url2": "https://www.kaigokensaku.mhlw.go.jp/11/index.php?action_kouhyou_detail_004_kani=true&JigyosyoCd=1170804965-00&ServiceCd=410&Type=search" }, "geometry": { "type": "Point", "coordinates": [ 139.8003357, 35.8936297 ] } },
{ "type": "Feature", "properties": { "内容": "福祉用具アイジャスト【特定福祉用具販売】埼玉県越谷市大字増林4407-1", "url2": "https://www.kaigokensaku.mhlw.go.jp/11/index.php?action_kouhyou_detail_004_kani=true&JigyosyoCd=1170804981-00&ServiceCd=410&Type=search" }, "geometry": { "type": "Point", "coordinates": [ 139.824055770569629, 35.907146983637752 ] } },
{ "type": "Feature", "properties": { "内容": "福祉用具とも【特定福祉用具販売】埼玉県越谷市大間野町4-21-2大間野森田事務所１階", "url2": "https://www.kaigokensaku.mhlw.go.jp/11/index.php?action_kouhyou_detail_004_kani=true&JigyosyoCd=1170804080-00&ServiceCd=410&Type=search" }, "geometry": { "type": "Point", "coordinates": [ 139.779645458082229, 35.863601106946888 ] } },
{ "type": "Feature", "properties": { "内容": "レンタルふくしのまち越谷【特定福祉用具販売】埼玉県越谷市千間台西5-14-4", "url2": "https://www.kaigokensaku.mhlw.go.jp/11/index.php?action_kouhyou_detail_004_kani=true&JigyosyoCd=1170800658-00&ServiceCd=410&Type=search" }, "geometry": { "type": "Point", "coordinates": [ 139.7654076, 35.9280929 ] } },
{ "type": "Feature", "properties": { "内容": "ダスキンヘルスレント越谷ステーション【特定福祉用具販売】越谷市千間台東4-1076-2１階", "url2": "https://www.kaigokensaku.mhlw.go.jp/11/index.php?action_kouhyou_detail_004_kani=true&JigyosyoCd=1170801227-00&ServiceCd=410&Type=search" }, "geometry": { "type": "Point", "coordinates": [ 139.7767011, 35.9302699 ] } },
{ "type": "Feature", "properties": { "内容": "株式会社赤土製作所【特定福祉用具販売】埼玉県越谷市大字増林3610番地", "url2": "https://www.kaigokensaku.mhlw.go.jp/11/index.php?action_kouhyou_detail_004_kani=true&JigyosyoCd=1170800112-00&ServiceCd=410&Type=search" }, "geometry": { "type": "Point", "coordinates": [ 139.810288883467166, 35.914720129819926 ] } },
{ "type": "Feature", "properties": { "内容": "株式会社たかけん【特定福祉用具販売】南町4-45-13", "url2": "https://www.kaigokensaku.mhlw.go.jp/11/index.php?action_kouhyou_detail_004_kani=true&JigyosyoCd=1171401126-00&ServiceCd=410&Type=search" }, "geometry": { "type": "Point", "coordinates": [ 139.695131, 35.8163838 ] } },
{ "type": "Feature", "properties": { "内容": "シルバーサポート戸田店【特定福祉用具販売】埼玉県戸田市新曽南4-4-27", "url2": "https://www.kaigokensaku.mhlw.go.jp/11/index.php?action_kouhyou_detail_004_kani=true&JigyosyoCd=1171901828-00&ServiceCd=410&Type=search" }, "geometry": { "type": "Point", "coordinates": [ 139.660561699999988, 35.8068779 ] } },
{ "type": "Feature", "properties": { "内容": "セイリョウ【特定福祉用具販売】戸田市笹目5丁目13番地の5", "url2": "https://www.kaigokensaku.mhlw.go.jp/11/index.php?action_kouhyou_detail_004_kani=true&JigyosyoCd=1171900952-00&ServiceCd=410&Type=search" }, "geometry": { "type": "Point", "coordinates": [ 139.6428679, 35.8178468 ] } },
{ "type": "Feature", "properties": { "内容": "かたくり福祉用具埼玉南センター【特定福祉用具販売】埼玉県戸田市笹目１－１３－２４アンテージュガーデン戸田1階", "url2": "https://www.kaigokensaku.mhlw.go.jp/11/index.php?action_kouhyou_detail_004_kani=true&JigyosyoCd=1171901927-00&ServiceCd=410&Type=search" }, "geometry": { "type": "Point", "coordinates": [ 139.657298700000013, 35.8180767 ] } },
{ "type": "Feature", "properties": { "内容": "パナソニックエイジフリーショップ城北【特定福祉用具販売】埼玉県戸田市笹目６－２－６", "url2": "https://www.kaigokensaku.mhlw.go.jp/11/index.php?action_kouhyou_detail_004_kani=true&JigyosyoCd=1171900887-00&ServiceCd=410&Type=search" }, "geometry": { "type": "Point", "coordinates": [ 139.648083400000019, 35.8137322 ] } },
{ "type": "Feature", "properties": { "内容": "株式会社　ふれあい広場戸田店【特定福祉用具販売】本町1-21-2", "url2": "https://www.kaigokensaku.mhlw.go.jp/11/index.php?action_kouhyou_detail_004_kani=true&JigyosyoCd=1171901737-00&ServiceCd=410&Type=search" }, "geometry": { "type": "Point", "coordinates": [ 139.6837295, 35.6944108 ] } },
{ "type": "Feature", "properties": { "内容": "株式会社トーカイ　戸田支店【特定福祉用具販売】埼玉県戸田市喜沢南１丁目５番５１号", "url2": "https://www.kaigokensaku.mhlw.go.jp/11/index.php?action_kouhyou_detail_004_kani=true&JigyosyoCd=1171900085-00&ServiceCd=410&Type=search" }, "geometry": { "type": "Point", "coordinates": [ 139.695654399999967, 35.8039072 ] } },
{ "type": "Feature", "properties": { "内容": "株式会社まごころ介護サービス【特定福祉用具販売】埼玉県入間市野田583-12階-F", "url2": "https://www.kaigokensaku.mhlw.go.jp/11/index.php?action_kouhyou_detail_004_kani=true&JigyosyoCd=1172801639-00&ServiceCd=410&Type=search" }, "geometry": { "type": "Point", "coordinates": [ 139.351890700000041, 35.8441973 ] } },
{ "type": "Feature", "properties": { "内容": "ケアマックスパートナー【特定福祉用具販売】埼玉県入間市新久475－6", "url2": "https://www.kaigokensaku.mhlw.go.jp/11/index.php?action_kouhyou_detail_004_kani=true&JigyosyoCd=1172802090-00&ServiceCd=410&Type=search" }, "geometry": { "type": "Point", "coordinates": [ 139.3633999, 35.822382 ] } },
{ "type": "Feature", "properties": { "内容": "ソネット【特定福祉用具販売】埼玉県入間市上藤沢９８５－３", "url2": "https://www.kaigokensaku.mhlw.go.jp/11/index.php?action_kouhyou_detail_004_kani=true&JigyosyoCd=1172801043-00&ServiceCd=410&Type=search" }, "geometry": { "type": "Point", "coordinates": [ 139.392358100000024, 35.8165236 ] } },
{ "type": "Feature", "properties": { "内容": "サカイ・ヘルスケアー入間店【特定福祉用具販売】埼玉県入間市下藤沢７３７－１", "url2": "https://www.kaigokensaku.mhlw.go.jp/11/index.php?action_kouhyou_detail_004_kani=true&JigyosyoCd=1172800987-00&ServiceCd=410&Type=search" }, "geometry": { "type": "Point", "coordinates": [ 139.405126, 35.8213151 ] } },
{ "type": "Feature", "properties": { "内容": "松本福祉用具サービス【特定福祉用具販売】埼玉県入間市宮寺2925-204", "url2": "https://www.kaigokensaku.mhlw.go.jp/11/index.php?action_kouhyou_detail_004_kani=true&JigyosyoCd=1172801969-00&ServiceCd=410&Type=search" }, "geometry": { "type": "Point", "coordinates": [ 139.3737834, 35.8033814 ] } },
{ "type": "Feature", "properties": { "内容": "介護ショップランダル朝霞店【特定福祉用具販売】埼玉県朝霞市西原1-7-13F", "url2": "https://www.kaigokensaku.mhlw.go.jp/11/index.php?action_kouhyou_detail_004_kani=true&JigyosyoCd=1172101626-00&ServiceCd=410&Type=search" }, "geometry": { "type": "Point", "coordinates": [ 139.5882957, 35.8171384 ] } },
{ "type": "Feature", "properties": { "内容": "埼玉ライフケアサービス福祉用具貸与事業所【特定福祉用具販売】埼玉県朝霞市本町２－４－２５", "url2": "https://www.kaigokensaku.mhlw.go.jp/11/index.php?action_kouhyou_detail_004_kani=true&JigyosyoCd=1172100222-00&ServiceCd=410&Type=search" }, "geometry": { "type": "Point", "coordinates": [ 139.59884390000002, 35.7962499 ] } },
{ "type": "Feature", "properties": { "内容": "株式会社HSメディカル【特定福祉用具販売】埼玉県朝霞市泉水2丁目7-34-604", "url2": "https://www.kaigokensaku.mhlw.go.jp/11/index.php?action_kouhyou_detail_004_kani=true&JigyosyoCd=1172100818-00&ServiceCd=410&Type=search" }, "geometry": { "type": "Point", "coordinates": [ 139.577942900000011, 35.8044204 ] } },
{ "type": "Feature", "properties": { "内容": "高住研キヨタ株式会社埼京店【特定福祉用具販売】埼玉県志木市柏町4-3-2", "url2": "https://www.kaigokensaku.mhlw.go.jp/11/index.php?action_kouhyou_detail_004_kani=true&JigyosyoCd=1172200964-00&ServiceCd=410&Type=search" }, "geometry": { "type": "Point", "coordinates": [ 139.5740553, 35.8309072 ] } },
{ "type": "Feature", "properties": { "内容": "有限会社ライフデザイン【特定福祉用具販売】新座3-3-9204号室", "url2": "https://www.kaigokensaku.mhlw.go.jp/11/index.php?action_kouhyou_detail_004_kani=true&JigyosyoCd=1175100450-00&ServiceCd=410&Type=search" }, "geometry": { "type": "Point", "coordinates": [ 139.5565032, 35.8209154 ] } },
{ "type": "Feature", "properties": { "内容": "株式会社　ふれあい広場【特定福祉用具販売】埼玉県新座市東北2-29-12", "url2": "https://www.kaigokensaku.mhlw.go.jp/11/index.php?action_kouhyou_detail_004_kani=true&JigyosyoCd=1175100203-00&ServiceCd=410&Type=search" }, "geometry": { "type": "Point", "coordinates": [ 139.572756600000048, 35.821988 ] } },
{ "type": "Feature", "properties": { "内容": "ジュウカン【特定福祉用具販売】埼玉県新座市新座三丁目2番15103号", "url2": "https://www.kaigokensaku.mhlw.go.jp/11/index.php?action_kouhyou_detail_004_kani=true&JigyosyoCd=1175102076-00&ServiceCd=410&Type=search" }, "geometry": { "type": "Point", "coordinates": [ 139.556327500000037, 35.8200143 ] } },
{ "type": "Feature", "properties": { "内容": "かくの木用品館福祉用具事業所【特定福祉用具販売】埼玉県新座市堀ノ内2-9-33", "url2": "https://www.kaigokensaku.mhlw.go.jp/11/index.php?action_kouhyou_detail_004_kani=true&JigyosyoCd=1175100104-00&ServiceCd=410&Type=search" }, "geometry": { "type": "Point", "coordinates": [ 139.556541415361608, 35.771237231878182 ] } },
{ "type": "Feature", "properties": { "内容": "空色【特定福祉用具販売】坂田西2-1-15", "url2": "https://www.kaigokensaku.mhlw.go.jp/11/index.php?action_kouhyou_detail_004_kani=true&JigyosyoCd=1175201019-00&ServiceCd=410&Type=search" }, "geometry": { "type": "Point", "coordinates": [ 139.570286, 36.0108961 ] } },
{ "type": "Feature", "properties": { "内容": "ワンズ・プラス【特定福祉用具販売】埼玉県桶川市若宮1-7-22", "url2": "https://www.kaigokensaku.mhlw.go.jp/11/index.php?action_kouhyou_detail_004_kani=true&JigyosyoCd=1175201159-00&ServiceCd=410&Type=search" }, "geometry": { "type": "Point", "coordinates": [ 139.560095499999989, 35.9968031 ] } },
{ "type": "Feature", "properties": { "内容": "福祉用具ひまわり【特定福祉用具販売】埼玉県桶川市坂田西3-26-21フルール桶川", "url2": "https://www.kaigokensaku.mhlw.go.jp/11/index.php?action_kouhyou_detail_004_kani=true&JigyosyoCd=1171602244-00&ServiceCd=410&Type=search" }, "geometry": { "type": "Point", "coordinates": [ 139.5692488, 36.0143622 ] } },
{ "type": "Feature", "properties": { "内容": "りりーぶ福祉用具【特定福祉用具販売】埼玉県桶川市川田谷6222-3", "url2": "https://www.kaigokensaku.mhlw.go.jp/11/index.php?action_kouhyou_detail_004_kani=true&JigyosyoCd=1175201456-00&ServiceCd=410&Type=search" }, "geometry": { "type": "Point", "coordinates": [ 139.53258740000004, 36.012112 ] } },
{ "type": "Feature", "properties": { "内容": "ハートサービス　介護用品事業部【特定福祉用具販売】桶川市鴨川1-19-8", "url2": "https://www.kaigokensaku.mhlw.go.jp/11/index.php?action_kouhyou_detail_004_kani=true&JigyosyoCd=1175200375-00&ServiceCd=410&Type=search" }, "geometry": { "type": "Point", "coordinates": [ 139.556427900000017, 35.9929895 ] } },
{ "type": "Feature", "properties": { "内容": "株式会社星医療酸器　埼玉営業所【特定福祉用具販売】埼玉県桶川市赤堀2-13", "url2": "https://www.kaigokensaku.mhlw.go.jp/11/index.php?action_kouhyou_detail_004_kani=true&JigyosyoCd=1175300274-00&ServiceCd=410&Type=search" }, "geometry": { "type": "Point", "coordinates": [ 139.567766500000062, 36.0326428 ] } },
{ "type": "Feature", "properties": { "内容": "株式会社ひだまり【特定福祉用具販売】埼玉県桶川市川田谷6387番地の3", "url2": "https://www.kaigokensaku.mhlw.go.jp/11/index.php?action_kouhyou_detail_004_kani=true&JigyosyoCd=1175200649-00&ServiceCd=410&Type=search" }, "geometry": { "type": "Point", "coordinates": [ 139.527398700000049, 36.0059502 ] } },
{ "type": "Feature", "properties": { "内容": "ひまわり館久喜営業所【特定福祉用具販売】埼玉県久喜市下早見657-1", "url2": "https://www.kaigokensaku.mhlw.go.jp/11/index.php?action_kouhyou_detail_004_kani=true&JigyosyoCd=1170901589-00&ServiceCd=410&Type=search" }, "geometry": { "type": "Point", "coordinates": [ 139.679231800000053, 36.0556461 ] } },
{ "type": "Feature", "properties": { "内容": "シルバーはあと久喜【特定福祉用具販売】久喜市菖蒲町三箇740-1", "url2": "https://www.kaigokensaku.mhlw.go.jp/11/index.php?action_kouhyou_detail_004_kani=true&JigyosyoCd=1175200052-00&ServiceCd=410&Type=search" }, "geometry": { "type": "Point", "coordinates": [ 139.612398699999972, 36.0605563 ] } },
{ "type": "Feature", "properties": { "内容": "株式会社ふくしセンター・絆【特定福祉用具販売】埼玉県久喜市菖蒲町下栢間208-4", "url2": "https://www.kaigokensaku.mhlw.go.jp/11/index.php?action_kouhyou_detail_004_kani=true&JigyosyoCd=1170500761-00&ServiceCd=410&Type=search" }, "geometry": { "type": "Point", "coordinates": [ 139.588752600000021, 36.0310367 ] } },
{ "type": "Feature", "properties": { "内容": "わかば【特定福祉用具販売】埼玉県北本市高尾7-164", "url2": "https://www.kaigokensaku.mhlw.go.jp/11/index.php?action_kouhyou_detail_004_kani=true&JigyosyoCd=1175300175-00&ServiceCd=410&Type=search" }, "geometry": { "type": "Point", "coordinates": [ 139.512548, 36.0274765 ] } },
{ "type": "Feature", "properties": { "内容": "株式会社トーカイ　八潮営業所【特定福祉用具販売】埼玉県八潮市八潮1丁目13番地5", "url2": "https://www.kaigokensaku.mhlw.go.jp/11/index.php?action_kouhyou_detail_004_kani=true&JigyosyoCd=1171000423-00&ServiceCd=410&Type=search" }, "geometry": { "type": "Point", "coordinates": [ 139.840966500000036, 35.817009 ] } },
{ "type": "Feature", "properties": { "内容": "ライフサービス【特定福祉用具販売】埼玉県八潮市中央1-18-16", "url2": "https://www.kaigokensaku.mhlw.go.jp/11/index.php?action_kouhyou_detail_004_kani=true&JigyosyoCd=1171000696-00&ServiceCd=410&Type=search" }, "geometry": { "type": "Point", "coordinates": [ 139.834908019145843, 35.821946558483695 ] } },
{ "type": "Feature", "properties": { "内容": "医療法人さくら　ふじさくら福祉用具【特定福祉用具販売】埼玉県富士見市水谷東一丁目28番1号", "url2": "https://www.kaigokensaku.mhlw.go.jp/11/index.php?action_kouhyou_detail_004_kani=true&JigyosyoCd=1172901488-00&ServiceCd=410&Type=search" }, "geometry": { "type": "Point", "coordinates": [ 139.570182855155906, 35.842054886029118 ] } },
{ "type": "Feature", "properties": { "内容": "株式会社ハンドベル・ケア埼玉営業所【特定福祉用具販売】鶴馬1931-3", "url2": "https://www.kaigokensaku.mhlw.go.jp/11/index.php?action_kouhyou_detail_004_kani=true&JigyosyoCd=1172901546-00&ServiceCd=410&Type=search" }, "geometry": { "type": "Point", "coordinates": [ 139.5521982, 35.8558343 ] } },
{ "type": "Feature", "properties": { "内容": "すてっぷ福祉用具事業所【特定福祉用具販売】富士見市針ケ谷1-9-6", "url2": "https://www.kaigokensaku.mhlw.go.jp/11/index.php?action_kouhyou_detail_004_kani=true&JigyosyoCd=1172901462-00&ServiceCd=410&Type=search" }, "geometry": { "type": "Point", "coordinates": [ 139.5555278, 35.8347552 ] } },
{ "type": "Feature", "properties": { "内容": "ダスキンヘルスレント新三郷ステーション【特定福祉用具販売】埼玉県三郷市半田1150-2", "url2": "https://www.kaigokensaku.mhlw.go.jp/11/index.php?action_kouhyou_detail_004_kani=true&JigyosyoCd=1171202102-00&ServiceCd=410&Type=search" }, "geometry": { "type": "Point", "coordinates": [ 139.8727264, 35.8581155 ] } },
{ "type": "Feature", "properties": { "内容": "福祉のニッカ【特定福祉用具販売】埼玉県三郷市早稲田３－８－１", "url2": "https://www.kaigokensaku.mhlw.go.jp/11/index.php?action_kouhyou_detail_004_kani=true&JigyosyoCd=1171200213-00&ServiceCd=410&Type=search" }, "geometry": { "type": "Point", "coordinates": [ 139.884472800000026, 35.8604924 ] } },
{ "type": "Feature", "properties": { "内容": "株式会社福祉協同サービス三郷営業所【特定福祉用具販売】埼玉県三郷市谷口617", "url2": "https://www.kaigokensaku.mhlw.go.jp/11/index.php?action_kouhyou_detail_004_kani=true&JigyosyoCd=1171200510-00&ServiceCd=410&Type=search" }, "geometry": { "type": "Point", "coordinates": [ 139.873282635439352, 35.82822849177375 ] } },
{ "type": "Feature", "properties": { "内容": "サンライズ【特定福祉用具販売】閏戸746-2", "url2": "https://www.kaigokensaku.mhlw.go.jp/11/index.php?action_kouhyou_detail_004_kani=true&JigyosyoCd=1175700937-00&ServiceCd=410&Type=search" }, "geometry": { "type": "Point", "coordinates": [ 139.6456277, 35.9980046 ] } },
{ "type": "Feature", "properties": { "内容": "有限会社かんざわ【特定福祉用具販売】埼玉県蓮田市黒浜4825", "url2": "https://www.kaigokensaku.mhlw.go.jp/11/index.php?action_kouhyou_detail_004_kani=true&JigyosyoCd=1175700663-00&ServiceCd=410&Type=search" }, "geometry": { "type": "Point", "coordinates": [ 139.677387599999946, 35.9938847 ] } },
{ "type": "Feature", "properties": { "内容": "ハートサービス坂戸事業所【特定福祉用具販売】埼玉県坂戸市千代田2-6-81", "url2": "https://www.kaigokensaku.mhlw.go.jp/11/index.php?action_kouhyou_detail_004_kani=true&JigyosyoCd=1176001079-00&ServiceCd=410&Type=search" }, "geometry": { "type": "Point", "coordinates": [ 139.405123952149381, 35.957256545131287 ] } },
{ "type": "Feature", "properties": { "内容": "シノテクス株式会社【特定福祉用具販売】埼玉県坂戸市千代田1-1-29第5武井ビル202", "url2": "https://www.kaigokensaku.mhlw.go.jp/11/index.php?action_kouhyou_detail_004_kani=true&JigyosyoCd=1176001020-00&ServiceCd=410&Type=search" }, "geometry": { "type": "Point", "coordinates": [ 139.403795334928503, 35.956833383584154 ] } },
{ "type": "Feature", "properties": { "内容": "エール・ケア坂戸鶴ヶ島【特定福祉用具販売】緑町28番地13", "url2": "https://www.kaigokensaku.mhlw.go.jp/11/index.php?action_kouhyou_detail_004_kani=true&JigyosyoCd=1176001400-00&ServiceCd=410&Type=search" }, "geometry": { "type": "Point", "coordinates": [ 136.850859500000013, 34.7793268 ] } },
{ "type": "Feature", "properties": { "内容": "住まいル・ケア　白石工務店【特定福祉用具販売】埼玉県幸手市大字千塚１８４３番地", "url2": "https://www.kaigokensaku.mhlw.go.jp/11/index.php?action_kouhyou_detail_004_kani=true&JigyosyoCd=1176100681-00&ServiceCd=410&Type=search" }, "geometry": { "type": "Point", "coordinates": [ 139.697589900000054, 36.0936084 ] } },
{ "type": "Feature", "properties": { "内容": "用具屋ファイン【特定福祉用具販売】埼玉県鶴ヶ島市藤金876-61", "url2": "https://www.kaigokensaku.mhlw.go.jp/11/index.php?action_kouhyou_detail_004_kani=true&JigyosyoCd=1176201141-00&ServiceCd=410&Type=search" }, "geometry": { "type": "Point", "coordinates": [ 139.4044022, 35.9455616 ] } },
{ "type": "Feature", "properties": { "内容": "ふれあい広場　日高店【特定福祉用具販売】日高市鹿山２３７－６", "url2": "https://www.kaigokensaku.mhlw.go.jp/11/index.php?action_kouhyou_detail_004_kani=true&JigyosyoCd=1176300067-00&ServiceCd=410&Type=search" }, "geometry": { "type": "Point", "coordinates": [ 139.341498199999933, 35.895423 ] } },
{ "type": "Feature", "properties": { "内容": "有限会社ハート・アンド・ライフ【特定福祉用具販売】吉川市高久1-10-1ヴェルフィーユ１F", "url2": "https://www.kaigokensaku.mhlw.go.jp/11/index.php?action_kouhyou_detail_004_kani=true&JigyosyoCd=1176400180-00&ServiceCd=410&Type=search" }, "geometry": { "type": "Point", "coordinates": [ 139.844829, 35.8677083 ] } },
{ "type": "Feature", "properties": { "内容": "株式会社ASCare【特定福祉用具販売】高久1-10-1ヴェルフィーユ1F店舗", "url2": "https://www.kaigokensaku.mhlw.go.jp/11/index.php?action_kouhyou_detail_004_kani=true&JigyosyoCd=1176401063-00&ServiceCd=410&Type=search" }, "geometry": { "type": "Point", "coordinates": [ 139.86415, 35.872032 ] } },
{ "type": "Feature", "properties": { "内容": "有限会社　住まいるハート【特定福祉用具販売】埼玉県ふじみ野市鶴ヶ岡４－１２－１５", "url2": "https://www.kaigokensaku.mhlw.go.jp/11/index.php?action_kouhyou_detail_004_kani=true&JigyosyoCd=1172900365-00&ServiceCd=410&Type=search" }, "geometry": { "type": "Point", "coordinates": [ 139.498955300000034, 35.8669503 ] } },
{ "type": "Feature", "properties": { "内容": "富家福祉用具事業所【特定福祉用具販売】埼玉県ふじみ野市苗間291番地2", "url2": "https://www.kaigokensaku.mhlw.go.jp/11/index.php?action_kouhyou_detail_004_kani=true&JigyosyoCd=1173001320-00&ServiceCd=410&Type=search" }, "geometry": { "type": "Point", "coordinates": [ 139.527544799999987, 35.8585244 ] } },
{ "type": "Feature", "properties": { "内容": "スリーウィン【特定福祉用具販売】上福岡2-6-12", "url2": "https://www.kaigokensaku.mhlw.go.jp/11/index.php?action_kouhyou_detail_004_kani=true&JigyosyoCd=1173001155-00&ServiceCd=410&Type=search" }, "geometry": { "type": "Point", "coordinates": [ 139.515389199999987, 35.8746897 ] } },
{ "type": "Feature", "properties": { "内容": "おじれん【特定福祉用具販売】埼玉県ふじみ野市大井中央4-18-31", "url2": "https://www.kaigokensaku.mhlw.go.jp/11/index.php?action_kouhyou_detail_004_kani=true&JigyosyoCd=1172900787-00&ServiceCd=410&Type=search" }, "geometry": { "type": "Point", "coordinates": [ 139.50535489737689, 35.862024810930123 ] } },
{ "type": "Feature", "properties": { "内容": "株式会社　リフレット【特定福祉用具販売】埼玉県ふじみ野市大井1-2-33", "url2": "https://www.kaigokensaku.mhlw.go.jp/11/index.php?action_kouhyou_detail_004_kani=true&JigyosyoCd=1173001502-00&ServiceCd=410&Type=search" }, "geometry": { "type": "Point", "coordinates": [ 139.516627, 35.8526966 ] } },
{ "type": "Feature", "properties": { "内容": "パナソニックエイジフリーショップ蓮田・白岡【特定福祉用具販売】埼玉県白岡市荒井新田371-11", "url2": "https://www.kaigokensaku.mhlw.go.jp/11/index.php?action_kouhyou_detail_004_kani=true&JigyosyoCd=1175700218-00&ServiceCd=410&Type=search" }, "geometry": { "type": "Point", "coordinates": [ 139.625057074516235, 36.041410006402657 ] } },
{ "type": "Feature", "properties": { "内容": "株式会社同仁社　関東支店【特定福祉用具販売】埼玉県北足立郡伊奈町寿2丁目134-2", "url2": "https://www.kaigokensaku.mhlw.go.jp/11/index.php?action_kouhyou_detail_004_kani=true&JigyosyoCd=1171300500-00&ServiceCd=410&Type=search" }, "geometry": { "type": "Point", "coordinates": [ 139.604189200000064, 36.0066751 ] } },
{ "type": "Feature", "properties": { "内容": "株式会社かんきょう　埼玉西支店【特定福祉用具販売】埼玉県入間郡三芳町藤久保807番地1", "url2": "https://www.kaigokensaku.mhlw.go.jp/11/index.php?action_kouhyou_detail_004_kani=true&JigyosyoCd=1172401323-00&ServiceCd=410&Type=search" }, "geometry": { "type": "Point", "coordinates": [ 139.527884939865373, 35.837108469267406 ] } },
{ "type": "Feature", "properties": { "内容": "株式会社ウエルフェア【特定福祉用具販売】埼玉県入間郡毛呂山町毛呂本郷671-2", "url2": "https://www.kaigokensaku.mhlw.go.jp/11/index.php?action_kouhyou_detail_004_kani=true&JigyosyoCd=1172401489-00&ServiceCd=410&Type=search" }, "geometry": { "type": "Point", "coordinates": [ 139.3092196, 35.9382048 ] } },
{ "type": "Feature", "properties": { "内容": "介護ショップえがお【特定福祉用具販売】毛呂山町南台5-26-40", "url2": "https://www.kaigokensaku.mhlw.go.jp/11/index.php?action_kouhyou_detail_004_kani=true&JigyosyoCd=1172401117-00&ServiceCd=410&Type=search" }, "geometry": { "type": "Point", "coordinates": [ 139.327074399999987, 35.9395483 ] } },
{ "type": "Feature", "properties": { "内容": "なごみ空間工房【特定福祉用具販売】菅谷１４１－２", "url2": "https://www.kaigokensaku.mhlw.go.jp/11/index.php?action_kouhyou_detail_004_kani=true&JigyosyoCd=1173201896-00&ServiceCd=410&Type=search" }, "geometry": { "type": "Point", "coordinates": [ 139.328075799999965, 36.0423146 ] } },
{ "type": "Feature", "properties": { "内容": "エール・ケア【特定福祉用具販売】埼玉県比企郡小川町大塚33-1", "url2": "https://www.kaigokensaku.mhlw.go.jp/11/index.php?action_kouhyou_detail_004_kani=true&JigyosyoCd=1173200682-00&ServiceCd=410&Type=search" }, "geometry": { "type": "Point", "coordinates": [ 139.260716950861678, 36.056212256488735 ] } },
{ "type": "Feature", "properties": { "内容": "Ａｃｔｉｖｅ　Ｗｈｅｅｌｃｈａｉｒ【特定福祉用具販売】埼玉県児玉郡上里町七本木3611-20", "url2": "https://www.kaigokensaku.mhlw.go.jp/11/index.php?action_kouhyou_detail_004_kani=true&JigyosyoCd=1174201747-00&ServiceCd=410&Type=search" }, "geometry": { "type": "Point", "coordinates": [ 139.157739901049808, 36.24282739238248 ] } },
{ "type": "Feature", "properties": { "内容": "グリーンケア　寄居店【特定福祉用具販売】埼玉県大里郡寄居町寄居1546番地1", "url2": "https://www.kaigokensaku.mhlw.go.jp/11/index.php?action_kouhyou_detail_004_kani=true&JigyosyoCd=1174501427-00&ServiceCd=410&Type=search" }, "geometry": { "type": "Point", "coordinates": [ 139.191418700000014, 36.1205166 ] } },
{ "type": "Feature", "properties": { "内容": "合同会社Win堂　さいたま営業所【特定福祉用具販売】埼玉県南埼玉郡宮代町百間4-3-30-3", "url2": "https://www.kaigokensaku.mhlw.go.jp/11/index.php?action_kouhyou_detail_004_kani=true&JigyosyoCd=1170501207-00&ServiceCd=410&Type=search" }, "geometry": { "type": "Point", "coordinates": [ 139.730689500000011, 36.0257444 ] } },
{ "type": "Feature", "properties": { "内容": "ケアレンタル東埼玉【特定福祉用具販売】埼玉県北葛飾郡杉戸町清地5-1-2", "url2": "https://www.kaigokensaku.mhlw.go.jp/11/index.php?action_kouhyou_detail_004_kani=true&JigyosyoCd=1171101460-00&ServiceCd=410&Type=search" }, "geometry": { "type": "Point", "coordinates": [ 139.737213022892746, 36.027785904157568 ] } },
{ "type": "Feature", "properties": { "内容": "福祉のサラダ館【特定福祉用具販売】埼玉県北葛飾郡松伏町松伏356", "url2": "https://www.kaigokensaku.mhlw.go.jp/11/index.php?action_kouhyou_detail_004_kani=true&JigyosyoCd=1171101726-00&ServiceCd=410&Type=search" }, "geometry": { "type": "Point", "coordinates": [ 139.8248695, 35.9330172 ] } }
]
}
