{
"type": "FeatureCollection",
"name": "geo_11_介護老人保健施設",
"crs": { "type": "name", "properties": { "name": "urn:ogc:def:crs:OGC:1.3:CRS84" } },
"features": [
{ "type": "Feature", "properties": { "内容": "介護老人保健施設　葵の園・大宮【介護老人保健施設】埼玉県さいたま市西区清河寺685-1", "url2": "https://www.kaigokensaku.mhlw.go.jp/11/index.php?action_kouhyou_detail_004_kani=true&JigyosyoCd=1156580118-00&ServiceCd=520&Type=search" }, "geometry": { "type": "Point", "coordinates": [ 139.582807699999989, 35.9336007 ] } },
{ "type": "Feature", "properties": { "内容": "ル・サンク湯澤【介護老人保健施設】埼玉県さいたま市西区三橋６丁目567", "url2": "https://www.kaigokensaku.mhlw.go.jp/11/index.php?action_kouhyou_detail_004_kani=true&JigyosyoCd=1156580167-00&ServiceCd=520&Type=search" }, "geometry": { "type": "Point", "coordinates": [ 139.591802251728836, 35.915901065946926 ] } },
{ "type": "Feature", "properties": { "内容": "高齢者ケアセンター　ゆらぎ【介護老人保健施設】埼玉県さいたま市西区西遊馬1556-1", "url2": "https://www.kaigokensaku.mhlw.go.jp/11/index.php?action_kouhyou_detail_004_kani=true&JigyosyoCd=1150380048-00&ServiceCd=520&Type=search" }, "geometry": { "type": "Point", "coordinates": [ 139.564767599999982, 35.9113325 ] } },
{ "type": "Feature", "properties": { "内容": "介護老人保健施設　春陽苑【介護老人保健施設】埼玉県さいたま市西区飯田新田91-1", "url2": "https://www.kaigokensaku.mhlw.go.jp/11/index.php?action_kouhyou_detail_004_kani=true&JigyosyoCd=1150380055-00&ServiceCd=520&Type=search" }, "geometry": { "type": "Point", "coordinates": [ 139.559774299999958, 35.8880939 ] } },
{ "type": "Feature", "properties": { "内容": "介護老人保健施設　びわの葉【介護老人保健施設】埼玉県さいたま市西区宝来1348-1", "url2": "https://www.kaigokensaku.mhlw.go.jp/11/index.php?action_kouhyou_detail_004_kani=true&JigyosyoCd=1156580142-00&ServiceCd=520&Type=search" }, "geometry": { "type": "Point", "coordinates": [ 139.561940877246087, 35.922366679937014 ] } },
{ "type": "Feature", "properties": { "内容": "医療法人社団松弘会　　トワーム指扇【介護老人保健施設】さいたま市西区宝来５９１", "url2": "https://www.kaigokensaku.mhlw.go.jp/11/index.php?action_kouhyou_detail_004_kani=true&JigyosyoCd=1156580001-00&ServiceCd=520&Type=search" }, "geometry": { "type": "Point", "coordinates": [ 139.5578789, 35.9269635 ] } },
{ "type": "Feature", "properties": { "内容": "介護老人保健施設　ハートランド大宮【介護老人保健施設】埼玉県さいたま市北区奈良町120－2", "url2": "https://www.kaigokensaku.mhlw.go.jp/11/index.php?action_kouhyou_detail_004_kani=true&JigyosyoCd=1156580134-00&ServiceCd=520&Type=search" }, "geometry": { "type": "Point", "coordinates": [ 139.597794900000054, 35.9515121 ] } },
{ "type": "Feature", "properties": { "内容": "介護老人保健施設　みやびの里【介護老人保健施設】埼玉県さいたま市北区別所町920", "url2": "https://www.kaigokensaku.mhlw.go.jp/11/index.php?action_kouhyou_detail_004_kani=true&JigyosyoCd=1156580047-00&ServiceCd=520&Type=search" }, "geometry": { "type": "Point", "coordinates": [ 139.590623100000016, 35.9578191 ] } },
{ "type": "Feature", "properties": { "内容": "介護老人保健施設ボヌール【介護老人保健施設】埼玉県さいたま市北区吉野町２丁目１３６５番地", "url2": "https://www.kaigokensaku.mhlw.go.jp/11/index.php?action_kouhyou_detail_004_kani=true&JigyosyoCd=1156580054-00&ServiceCd=520&Type=search" }, "geometry": { "type": "Point", "coordinates": [ 139.619120400000043, 35.9633026 ] } },
{ "type": "Feature", "properties": { "内容": "介護老人保健施設　高齢者ケアセンターのぞみ【介護老人保健施設】さいたま市見沼区片柳１３８７－１", "url2": "https://www.kaigokensaku.mhlw.go.jp/11/index.php?action_kouhyou_detail_004_kani=true&JigyosyoCd=1156580092-00&ServiceCd=520&Type=search" }, "geometry": { "type": "Point", "coordinates": [ 139.690285200000062, 35.9033136 ] } },
{ "type": "Feature", "properties": { "内容": "介護老人保健施設　大宮ナーシング・ピア【介護老人保健施設】さいたま市見沼区片柳1550番地大宮共立病院内　Ｂ館２階", "url2": "https://www.kaigokensaku.mhlw.go.jp/11/index.php?action_kouhyou_detail_004_kani=true&JigyosyoCd=1150380014-00&ServiceCd=520&Type=search" }, "geometry": { "type": "Point", "coordinates": [ 139.690947086616433, 35.904227112360914 ] } },
{ "type": "Feature", "properties": { "内容": "ハートケア東大宮【介護老人保健施設】埼玉県さいたま市見沼区大字風渡野４５", "url2": "https://www.kaigokensaku.mhlw.go.jp/11/index.php?action_kouhyou_detail_004_kani=true&JigyosyoCd=1156580021-00&ServiceCd=520&Type=search" }, "geometry": { "type": "Point", "coordinates": [ 139.673877400000038, 35.9373896 ] } },
{ "type": "Feature", "properties": { "内容": "介護老人保健施設　あすか【介護老人保健施設】さいたま市見沼区染谷3丁目430番地１", "url2": "https://www.kaigokensaku.mhlw.go.jp/11/index.php?action_kouhyou_detail_004_kani=true&JigyosyoCd=1150380030-00&ServiceCd=520&Type=search" }, "geometry": { "type": "Point", "coordinates": [ 139.686513200000036, 35.9078463 ] } },
{ "type": "Feature", "properties": { "内容": "介護老人保健施設　アーバンみらいハートランド東大宮【介護老人保健施設】埼玉県さいたま市見沼区春野2-9-22番地", "url2": "https://www.kaigokensaku.mhlw.go.jp/11/index.php?action_kouhyou_detail_004_kani=true&JigyosyoCd=1156580062-00&ServiceCd=520&Type=search" }, "geometry": { "type": "Point", "coordinates": [ 139.660516799999982, 35.9576117 ] } },
{ "type": "Feature", "properties": { "内容": "介護老人保健施設ファインハイム【介護老人保健施設】埼玉県さいたま市桜区宿３７２－１", "url2": "https://www.kaigokensaku.mhlw.go.jp/11/index.php?action_kouhyou_detail_004_kani=true&JigyosyoCd=1156580013-00&ServiceCd=520&Type=search" }, "geometry": { "type": "Point", "coordinates": [ 139.594741699999986, 35.8768538 ] } },
{ "type": "Feature", "properties": { "内容": "介護老人保健施設うらわの里【介護老人保健施設】さいたま市桜区西堀８－４－１", "url2": "https://www.kaigokensaku.mhlw.go.jp/11/index.php?action_kouhyou_detail_004_kani=true&JigyosyoCd=1150180026-00&ServiceCd=520&Type=search" }, "geometry": { "type": "Point", "coordinates": [ 139.634666599999946, 35.8602624 ] } },
{ "type": "Feature", "properties": { "内容": "独立行政法人地域医療機能推進機構　埼玉メディカルセンター附属介護老人保健施設【介護老人保健施設】埼玉県さいたま市浦和区北浦和５丁目２番７号", "url2": "https://www.kaigokensaku.mhlw.go.jp/11/index.php?action_kouhyou_detail_004_kani=true&JigyosyoCd=1150180034-00&ServiceCd=520&Type=search" }, "geometry": { "type": "Point", "coordinates": [ 139.642909799999984, 35.8739527 ] } },
{ "type": "Feature", "properties": { "内容": "介護老人保健施設　葵の園・浦和【介護老人保健施設】埼玉県さいたま市南区内谷5-24-1", "url2": "https://www.kaigokensaku.mhlw.go.jp/11/index.php?action_kouhyou_detail_004_kani=true&JigyosyoCd=1156580159-00&ServiceCd=520&Type=search" }, "geometry": { "type": "Point", "coordinates": [ 139.6445679, 35.8304525 ] } },
{ "type": "Feature", "properties": { "内容": "エスポワールさいたま【介護老人保健施設】埼玉県さいたま市緑区大門1548-7", "url2": "https://www.kaigokensaku.mhlw.go.jp/11/index.php?action_kouhyou_detail_004_kani=true&JigyosyoCd=1156580126-00&ServiceCd=520&Type=search" }, "geometry": { "type": "Point", "coordinates": [ 139.7281381, 35.8827465 ] } },
{ "type": "Feature", "properties": { "内容": "介護老人保健施設あさがお【介護老人保健施設】埼玉県さいたま市緑区大崎３３８５－１", "url2": "https://www.kaigokensaku.mhlw.go.jp/11/index.php?action_kouhyou_detail_004_kani=true&JigyosyoCd=1156580100-00&ServiceCd=520&Type=search" }, "geometry": { "type": "Point", "coordinates": [ 139.716058, 35.8869493 ] } },
{ "type": "Feature", "properties": { "内容": "介護老人保健施設　尚和園アンシャンテ【介護老人保健施設】埼玉県さいたま市緑区原山3-15-31", "url2": "https://www.kaigokensaku.mhlw.go.jp/11/index.php?action_kouhyou_detail_004_kani=true&JigyosyoCd=1156580088-00&ServiceCd=520&Type=search" }, "geometry": { "type": "Point", "coordinates": [ 139.6754264, 35.8722395 ] } },
{ "type": "Feature", "properties": { "内容": "介護老人保健施設ソワンルミエ槻の森【介護老人保健施設】埼玉県さいたま市岩槻区平林寺１０８", "url2": "https://www.kaigokensaku.mhlw.go.jp/11/index.php?action_kouhyou_detail_004_kani=true&JigyosyoCd=1150780015-00&ServiceCd=520&Type=search" }, "geometry": { "type": "Point", "coordinates": [ 139.6701424, 35.964588 ] } },
{ "type": "Feature", "properties": { "内容": "介護老人保健施設　岩槻ライトケア【介護老人保健施設】埼玉県さいたま市岩槻区馬込１２９２", "url2": "https://www.kaigokensaku.mhlw.go.jp/11/index.php?action_kouhyou_detail_004_kani=true&JigyosyoCd=1150780023-00&ServiceCd=520&Type=search" }, "geometry": { "type": "Point", "coordinates": [ 139.659347, 35.9704268 ] } },
{ "type": "Feature", "properties": { "内容": "介護老人保健施設　エスポワール岩槻【介護老人保健施設】埼玉県さいたま市岩槻区表慈恩寺541-1", "url2": "https://www.kaigokensaku.mhlw.go.jp/11/index.php?action_kouhyou_detail_004_kani=true&JigyosyoCd=1156580183-00&ServiceCd=520&Type=search" }, "geometry": { "type": "Point", "coordinates": [ 139.711938, 35.9671011 ] } },
{ "type": "Feature", "properties": { "内容": "介護老人保健施設　川越ケアセンター【介護老人保健施設】埼玉県川越市下広谷527-1", "url2": "https://www.kaigokensaku.mhlw.go.jp/11/index.php?action_kouhyou_detail_004_kani=true&JigyosyoCd=1150480020-00&ServiceCd=520&Type=search" }, "geometry": { "type": "Point", "coordinates": [ 139.4339347, 35.9523383 ] } },
{ "type": "Feature", "properties": { "内容": "介護老人保健施設プライムケア川越【介護老人保健施設】埼玉県川越市天沼新田３０７－１", "url2": "https://www.kaigokensaku.mhlw.go.jp/11/index.php?action_kouhyou_detail_004_kani=true&JigyosyoCd=1150480012-00&ServiceCd=520&Type=search" }, "geometry": { "type": "Point", "coordinates": [ 139.432721, 35.9377742 ] } },
{ "type": "Feature", "properties": { "内容": "医療法人　泰一会　介護老人保健施設　はつかり【介護老人保健施設】埼玉県川越市大字松郷821-1", "url2": "https://www.kaigokensaku.mhlw.go.jp/11/index.php?action_kouhyou_detail_004_kani=true&JigyosyoCd=1150480091-00&ServiceCd=520&Type=search" }, "geometry": { "type": "Point", "coordinates": [ 139.498597088765678, 35.92203708628783 ] } },
{ "type": "Feature", "properties": { "内容": "介護老人保健施設　瑞穂の里【介護老人保健施設】埼玉県川越市中台元町1-16-11", "url2": "https://www.kaigokensaku.mhlw.go.jp/11/index.php?action_kouhyou_detail_004_kani=true&JigyosyoCd=1150480053-00&ServiceCd=520&Type=search" }, "geometry": { "type": "Point", "coordinates": [ 139.481750499999976, 35.8913385 ] } },
{ "type": "Feature", "properties": { "内容": "介護老人保健施設　ケアハイツ・川越【介護老人保健施設】埼玉県川越市古谷本郷１４７５－１", "url2": "https://www.kaigokensaku.mhlw.go.jp/11/index.php?action_kouhyou_detail_004_kani=true&JigyosyoCd=1150480046-00&ServiceCd=520&Type=search" }, "geometry": { "type": "Point", "coordinates": [ 139.551982800000019, 35.90167 ] } },
{ "type": "Feature", "properties": { "内容": "介護老人保健施設いぶき【介護老人保健施設】埼玉県川越市下小坂501-1", "url2": "https://www.kaigokensaku.mhlw.go.jp/11/index.php?action_kouhyou_detail_004_kani=true&JigyosyoCd=1150480109-00&ServiceCd=520&Type=search" }, "geometry": { "type": "Point", "coordinates": [ 139.45138510000001, 35.9466356 ] } },
{ "type": "Feature", "properties": { "内容": "介護老人保健施設　小江戸の郷【介護老人保健施設】埼玉県川越市上老袋86-1", "url2": "https://www.kaigokensaku.mhlw.go.jp/11/index.php?action_kouhyou_detail_004_kani=true&JigyosyoCd=1150480075-00&ServiceCd=520&Type=search" }, "geometry": { "type": "Point", "coordinates": [ 139.525114499999972, 35.9467374 ] } },
{ "type": "Feature", "properties": { "内容": "介護老人保健施設　ケアパーク江南【介護老人保健施設】埼玉県熊谷市江南中央2-7-8", "url2": "https://www.kaigokensaku.mhlw.go.jp/11/index.php?action_kouhyou_detail_004_kani=true&JigyosyoCd=1154580015-00&ServiceCd=520&Type=search" }, "geometry": { "type": "Point", "coordinates": [ 139.339440500000023, 36.1137884 ] } },
{ "type": "Feature", "properties": { "内容": "介護老人保健施設　葵の園・熊谷【介護老人保健施設】埼玉県熊谷市善ケ島1324-1", "url2": "https://www.kaigokensaku.mhlw.go.jp/11/index.php?action_kouhyou_detail_004_kani=true&JigyosyoCd=1153180037-00&ServiceCd=520&Type=search" }, "geometry": { "type": "Point", "coordinates": [ 139.395092200000022, 36.2210295 ] } },
{ "type": "Feature", "properties": { "内容": "介護老人保健施設はなぶさ【介護老人保健施設】埼玉県熊谷市玉井３３６番地１", "url2": "https://www.kaigokensaku.mhlw.go.jp/11/index.php?action_kouhyou_detail_004_kani=true&JigyosyoCd=1153180015-00&ServiceCd=520&Type=search" }, "geometry": { "type": "Point", "coordinates": [ 139.35114550000003, 36.1707314 ] } },
{ "type": "Feature", "properties": { "内容": "介護老人保健施設　トワーム熊谷【介護老人保健施設】埼玉県熊谷市小曽根３３７－１", "url2": "https://www.kaigokensaku.mhlw.go.jp/11/index.php?action_kouhyou_detail_004_kani=true&JigyosyoCd=1153100019-00&ServiceCd=520&Type=search" }, "geometry": { "type": "Point", "coordinates": [ 139.390134499999931, 36.173785 ] } },
{ "type": "Feature", "properties": { "内容": "ぬくもり【介護老人保健施設】熊谷市石原５１０", "url2": "https://www.kaigokensaku.mhlw.go.jp/11/index.php?action_kouhyou_detail_004_kani=true&JigyosyoCd=1153180023-00&ServiceCd=520&Type=search" }, "geometry": { "type": "Point", "coordinates": [ 139.371172900000033, 36.1562528 ] } },
{ "type": "Feature", "properties": { "内容": "介護老人保健施設　ミレニアムマッシーランド【介護老人保健施設】埼玉県川口市新井宿802-5", "url2": "https://www.kaigokensaku.mhlw.go.jp/11/index.php?action_kouhyou_detail_004_kani=true&JigyosyoCd=1150280024-00&ServiceCd=520&Type=search" }, "geometry": { "type": "Point", "coordinates": [ 139.7287725, 35.8423961 ] } },
{ "type": "Feature", "properties": { "内容": "介護老人保健施設厚生会川口ケアセンター【介護老人保健施設】埼玉県川口市大字西新井宿１２７１－１", "url2": "https://www.kaigokensaku.mhlw.go.jp/11/index.php?action_kouhyou_detail_004_kani=true&JigyosyoCd=1150280032-00&ServiceCd=520&Type=search" }, "geometry": { "type": "Point", "coordinates": [ 139.73631869999997, 35.8525506 ] } },
{ "type": "Feature", "properties": { "内容": "介護老人保健施設　かわぐちナーシングホーム【介護老人保健施設】埼玉県川口市大字西新井宿1022番地の1", "url2": "https://www.kaigokensaku.mhlw.go.jp/11/index.php?action_kouhyou_detail_004_kani=true&JigyosyoCd=1150280137-00&ServiceCd=520&Type=search" }, "geometry": { "type": "Point", "coordinates": [ 139.7315941, 35.8521966 ] } },
{ "type": "Feature", "properties": { "内容": "老健ねぎしケアセンター【介護老人保健施設】埼玉県川口市安行領根岸２３５３", "url2": "https://www.kaigokensaku.mhlw.go.jp/11/index.php?action_kouhyou_detail_004_kani=true&JigyosyoCd=1150280040-00&ServiceCd=520&Type=search" }, "geometry": { "type": "Point", "coordinates": [ 139.723523, 35.8431291 ] } },
{ "type": "Feature", "properties": { "内容": "介護老人保健施設みぬま【介護老人保健施設】埼玉県川口市木曽呂1347老人保健施設みぬま", "url2": "https://www.kaigokensaku.mhlw.go.jp/11/index.php?action_kouhyou_detail_004_kani=true&JigyosyoCd=1150280016-00&ServiceCd=520&Type=search" }, "geometry": { "type": "Point", "coordinates": [ 139.715790700000014, 35.8594486 ] } },
{ "type": "Feature", "properties": { "内容": "介護老人保健施設　グリーンビレッジ安行【介護老人保健施設】埼玉県川口市大字安行１１４５番地", "url2": "https://www.kaigokensaku.mhlw.go.jp/11/index.php?action_kouhyou_detail_004_kani=true&JigyosyoCd=1150280057-00&ServiceCd=520&Type=search" }, "geometry": { "type": "Point", "coordinates": [ 139.758041899999967, 35.8497295 ] } },
{ "type": "Feature", "properties": { "内容": "介護老人保健施設グリーンピア【介護老人保健施設】行田市須加1531", "url2": "https://www.kaigokensaku.mhlw.go.jp/11/index.php?action_kouhyou_detail_004_kani=true&JigyosyoCd=1153780020-00&ServiceCd=520&Type=search" }, "geometry": { "type": "Point", "coordinates": [ 139.489318649737584, 36.184352624540935 ] } },
{ "type": "Feature", "properties": { "内容": "社会医療法人　壮幸会　老人保健施設ハートフル行田【介護老人保健施設】埼玉県行田市下忍1157-1", "url2": "https://www.kaigokensaku.mhlw.go.jp/11/index.php?action_kouhyou_detail_004_kani=true&JigyosyoCd=1153780012-00&ServiceCd=520&Type=search" }, "geometry": { "type": "Point", "coordinates": [ 139.461787800000025, 36.1185018 ] } },
{ "type": "Feature", "properties": { "内容": "介護老人保健施設うらら【介護老人保健施設】秩父市中村町3-6-24", "url2": "https://www.kaigokensaku.mhlw.go.jp/11/index.php?action_kouhyou_detail_004_kani=true&JigyosyoCd=1154980025-00&ServiceCd=520&Type=search" }, "geometry": { "type": "Point", "coordinates": [ 139.073867599999971, 36.0002957 ] } },
{ "type": "Feature", "properties": { "内容": "介護老人保健施設エスポワール秩父【介護老人保健施設】埼玉県秩父市寺尾2744", "url2": "https://www.kaigokensaku.mhlw.go.jp/11/index.php?action_kouhyou_detail_004_kani=true&JigyosyoCd=1154980039-00&ServiceCd=520&Type=search" }, "geometry": { "type": "Point", "coordinates": [ 139.078965399999987, 36.0256705 ] } },
{ "type": "Feature", "properties": { "内容": "介護老人保険施設　遊【介護老人保健施設】埼玉県所沢市東狭山ヶ丘4-2666-1", "url2": "https://www.kaigokensaku.mhlw.go.jp/11/index.php?action_kouhyou_detail_004_kani=true&JigyosyoCd=1152580088-00&ServiceCd=520&Type=search" }, "geometry": { "type": "Point", "coordinates": [ 139.428641, 35.8098225 ] } },
{ "type": "Feature", "properties": { "内容": "介護老人保健施設　みかじま【介護老人保健施設】埼玉県所沢市三ケ島５丁目１６３６番地", "url2": "https://www.kaigokensaku.mhlw.go.jp/11/index.php?action_kouhyou_detail_004_kani=true&JigyosyoCd=1152580070-00&ServiceCd=520&Type=search" }, "geometry": { "type": "Point", "coordinates": [ 139.404227100000071, 35.7972041 ] } },
{ "type": "Feature", "properties": { "内容": "介護老人保健施設　ケアステーション所沢【介護老人保健施設】埼玉県所沢市東狭山ヶ丘6-2823-13", "url2": "https://www.kaigokensaku.mhlw.go.jp/11/index.php?action_kouhyou_detail_004_kani=true&JigyosyoCd=1152580025-00&ServiceCd=520&Type=search" }, "geometry": { "type": "Point", "coordinates": [ 139.424713200000042, 35.8157635 ] } },
{ "type": "Feature", "properties": { "内容": "介護老人保健施設　所沢ロイヤルの丘【介護老人保健施設】埼玉県所沢市北野三丁目１番地１６", "url2": "https://www.kaigokensaku.mhlw.go.jp/11/index.php?action_kouhyou_detail_004_kani=true&JigyosyoCd=1152580059-00&ServiceCd=520&Type=search" }, "geometry": { "type": "Point", "coordinates": [ 139.42025620000004, 35.797024 ] } },
{ "type": "Feature", "properties": { "内容": "エスポワール所沢【介護老人保健施設】埼玉県所沢市下富１３１０－１５", "url2": "https://www.kaigokensaku.mhlw.go.jp/11/index.php?action_kouhyou_detail_004_kani=true&JigyosyoCd=1152580062-00&ServiceCd=520&Type=search" }, "geometry": { "type": "Point", "coordinates": [ 139.456493799999947, 35.8240986 ] } },
{ "type": "Feature", "properties": { "内容": "介護老人保健施設さんとめ【介護老人保健施設】埼玉県所沢市中富1617", "url2": "https://www.kaigokensaku.mhlw.go.jp/11/index.php?action_kouhyou_detail_004_kani=true&JigyosyoCd=1152580033-00&ServiceCd=520&Type=search" }, "geometry": { "type": "Point", "coordinates": [ 139.483444400000053, 35.8150616 ] } },
{ "type": "Feature", "properties": { "内容": "飯能市東吾野医療介護センター【介護老人保健施設】飯能市大字虎秀25-1飯能市東吾野医療介護センター", "url2": "https://www.kaigokensaku.mhlw.go.jp/11/index.php?action_kouhyou_detail_004_kani=true&JigyosyoCd=1152680045-00&ServiceCd=520&Type=search" }, "geometry": { "type": "Point", "coordinates": [ 139.26064759999997, 35.8946973 ] } },
{ "type": "Feature", "properties": { "内容": "介護老人保健施設　飯能リハビリ館【介護老人保健施設】埼玉県飯能市下畑296", "url2": "https://www.kaigokensaku.mhlw.go.jp/11/index.php?action_kouhyou_detail_004_kani=true&JigyosyoCd=1152680023-00&ServiceCd=520&Type=search" }, "geometry": { "type": "Point", "coordinates": [ 139.293970899999977, 35.8362016 ] } },
{ "type": "Feature", "properties": { "内容": "飯能ケアセンター　楠苑【介護老人保健施設】飯能市大字落合458番地1", "url2": "https://www.kaigokensaku.mhlw.go.jp/11/index.php?action_kouhyou_detail_004_kani=true&JigyosyoCd=1152680015-00&ServiceCd=520&Type=search" }, "geometry": { "type": "Point", "coordinates": [ 139.313496189549227, 35.836299964409086 ] } },
{ "type": "Feature", "properties": { "内容": "介護老人保健施設　ケア・ビレッジ　シャローム【介護老人保健施設】埼玉県加須市大字岡古井７３番地", "url2": "https://www.kaigokensaku.mhlw.go.jp/11/index.php?action_kouhyou_detail_004_kani=true&JigyosyoCd=1153880010-00&ServiceCd=520&Type=search" }, "geometry": { "type": "Point", "coordinates": [ 139.575608099999954, 36.1378143 ] } },
{ "type": "Feature", "properties": { "内容": "介護老人保健施設　虹の園【介護老人保健施設】埼玉県加須市上崎２０４７番地１", "url2": "https://www.kaigokensaku.mhlw.go.jp/11/index.php?action_kouhyou_detail_004_kani=true&JigyosyoCd=1153680022-00&ServiceCd=520&Type=search" }, "geometry": { "type": "Point", "coordinates": [ 139.54819539999994, 36.1112919 ] } },
{ "type": "Feature", "properties": { "内容": "老人保健施設　彩の苑【介護老人保健施設】埼玉県本庄市千代田1-1-21", "url2": "https://www.kaigokensaku.mhlw.go.jp/11/index.php?action_kouhyou_detail_004_kani=true&JigyosyoCd=1154380028-00&ServiceCd=520&Type=search" }, "geometry": { "type": "Point", "coordinates": [ 139.182271799999967, 36.2396758 ] } },
{ "type": "Feature", "properties": { "内容": "介護老人保健施設本庄ナーシングホーム【介護老人保健施設】埼玉県本庄市小島五丁目６番１号", "url2": "https://www.kaigokensaku.mhlw.go.jp/11/index.php?action_kouhyou_detail_004_kani=true&JigyosyoCd=1154380010-00&ServiceCd=520&Type=search" }, "geometry": { "type": "Point", "coordinates": [ 139.175158499999952, 36.2487194 ] } },
{ "type": "Feature", "properties": { "内容": "介護老人保健施設　わかばの丘【介護老人保健施設】埼玉県東松山市毛塚773", "url2": "https://www.kaigokensaku.mhlw.go.jp/11/index.php?action_kouhyou_detail_004_kani=true&JigyosyoCd=1153380033-00&ServiceCd=520&Type=search" }, "geometry": { "type": "Point", "coordinates": [ 139.398327900000027, 35.9939315 ] } },
{ "type": "Feature", "properties": { "内容": "介護老人保健施設東松山市総合福祉エリア【介護老人保健施設】埼玉県東松山市大字松山２１８３", "url2": "https://www.kaigokensaku.mhlw.go.jp/11/index.php?action_kouhyou_detail_004_kani=true&JigyosyoCd=1153380041-00&ServiceCd=520&Type=search" }, "geometry": { "type": "Point", "coordinates": [ 139.40182470000002, 36.0528113 ] } },
{ "type": "Feature", "properties": { "内容": "介護老人保健施設　ちとせ【介護老人保健施設】埼玉県春日部市下大増新田81-1", "url2": "https://www.kaigokensaku.mhlw.go.jp/11/index.php?action_kouhyou_detail_004_kani=true&JigyosyoCd=1150680017-00&ServiceCd=520&Type=search" }, "geometry": { "type": "Point", "coordinates": [ 139.741108, 35.955753 ] } },
{ "type": "Feature", "properties": { "内容": "介護老人保健施設　葵の園・春日部【介護老人保健施設】埼玉県春日部市金崎71-1", "url2": "https://www.kaigokensaku.mhlw.go.jp/11/index.php?action_kouhyou_detail_004_kani=true&JigyosyoCd=1150680070-00&ServiceCd=520&Type=search" }, "geometry": { "type": "Point", "coordinates": [ 139.798460699999964, 35.9938584 ] } },
{ "type": "Feature", "properties": { "内容": "介護老人保健施設　葵の園・春日部(ユニット)【介護老人保健施設】埼玉県春日部市金崎71-1", "url2": "https://www.kaigokensaku.mhlw.go.jp/11/index.php?action_kouhyou_detail_004_kani=true&JigyosyoCd=1150680088-00&ServiceCd=520&Type=search" }, "geometry": { "type": "Point", "coordinates": [ 139.798460699999964, 35.9938584 ] } },
{ "type": "Feature", "properties": { "内容": "介護老人保健施設　春日部ロイヤルケアセンター【介護老人保健施設】埼玉県春日部市藤塚2622番2", "url2": "https://www.kaigokensaku.mhlw.go.jp/11/index.php?action_kouhyou_detail_004_kani=true&JigyosyoCd=1150680025-00&ServiceCd=520&Type=search" }, "geometry": { "type": "Point", "coordinates": [ 139.783362799999963, 35.9637757 ] } },
{ "type": "Feature", "properties": { "内容": "介護老人保健施設　かがやき【介護老人保健施設】埼玉県狭山市大字下奥富６８８", "url2": "https://www.kaigokensaku.mhlw.go.jp/11/index.php?action_kouhyou_detail_004_kani=true&JigyosyoCd=1152780013-00&ServiceCd=520&Type=search" }, "geometry": { "type": "Point", "coordinates": [ 139.433587799999941, 35.8812943 ] } },
{ "type": "Feature", "properties": { "内容": "介護老人保健施設愛【介護老人保健施設】埼玉県狭山市大字水野５９６番地", "url2": "https://www.kaigokensaku.mhlw.go.jp/11/index.php?action_kouhyou_detail_004_kani=true&JigyosyoCd=1152780035-00&ServiceCd=520&Type=search" }, "geometry": { "type": "Point", "coordinates": [ 139.4457721, 35.8316366 ] } },
{ "type": "Feature", "properties": { "内容": "介護老人保健施設　狭山ケアセンター【介護老人保健施設】狭山市北入曽1443-7", "url2": "https://www.kaigokensaku.mhlw.go.jp/11/index.php?action_kouhyou_detail_004_kani=true&JigyosyoCd=1152780021-00&ServiceCd=520&Type=search" }, "geometry": { "type": "Point", "coordinates": [ 139.43704230000003, 35.8258873 ] } },
{ "type": "Feature", "properties": { "内容": "介護老人保健施設カノープス・羽生【介護老人保健施設】羽生市大字本川俣１３０５番地", "url2": "https://www.kaigokensaku.mhlw.go.jp/11/index.php?action_kouhyou_detail_004_kani=true&JigyosyoCd=1153980018-00&ServiceCd=520&Type=search" }, "geometry": { "type": "Point", "coordinates": [ 139.534198300000071, 36.1887992 ] } },
{ "type": "Feature", "properties": { "内容": "介護老人保健施設あいの郷【介護老人保健施設】埼玉県羽生市桑崎196-1", "url2": "https://www.kaigokensaku.mhlw.go.jp/11/index.php?action_kouhyou_detail_004_kani=true&JigyosyoCd=1153980030-00&ServiceCd=520&Type=search" }, "geometry": { "type": "Point", "coordinates": [ 139.5183752, 36.1776303 ] } },
{ "type": "Feature", "properties": { "内容": "鴻巣介護老人保健施設こうのとり【介護老人保健施設】埼玉県鴻巣市八幡田８６８－１", "url2": "https://www.kaigokensaku.mhlw.go.jp/11/index.php?action_kouhyou_detail_004_kani=true&JigyosyoCd=1151780022-00&ServiceCd=520&Type=search" }, "geometry": { "type": "Point", "coordinates": [ 139.502768800000013, 36.0732653 ] } },
{ "type": "Feature", "properties": { "内容": "介護老人保健施設　鴻巣フラワーパレス【介護老人保健施設】埼玉県鴻巣市市ノ縄２５０番地1", "url2": "https://www.kaigokensaku.mhlw.go.jp/11/index.php?action_kouhyou_detail_004_kani=true&JigyosyoCd=1151780014-00&ServiceCd=520&Type=search" }, "geometry": { "type": "Point", "coordinates": [ 139.508840100000043, 36.0771178 ] } },
{ "type": "Feature", "properties": { "内容": "介護老人保健施設　秋桜【介護老人保健施設】埼玉県鴻巣市前砂９８０－１", "url2": "https://www.kaigokensaku.mhlw.go.jp/11/index.php?action_kouhyou_detail_004_kani=true&JigyosyoCd=1151380013-00&ServiceCd=520&Type=search" }, "geometry": { "type": "Point", "coordinates": [ 139.468072099999972, 36.0894365 ] } },
{ "type": "Feature", "properties": { "内容": "こうのすナーシングホーム共生園【介護老人保健施設】鴻巣市下谷409-1", "url2": "https://www.kaigokensaku.mhlw.go.jp/11/index.php?action_kouhyou_detail_004_kani=true&JigyosyoCd=1151780030-00&ServiceCd=520&Type=search" }, "geometry": { "type": "Point", "coordinates": [ 139.546785486508156, 36.051684143721133 ] } },
{ "type": "Feature", "properties": { "内容": "介護老人保健施設FOMA・なごみ【介護老人保健施設】埼玉県深谷市新戒413-1", "url2": "https://www.kaigokensaku.mhlw.go.jp/11/index.php?action_kouhyou_detail_004_kani=true&JigyosyoCd=1154680021-00&ServiceCd=520&Type=search" }, "geometry": { "type": "Point", "coordinates": [ 139.292723099999989, 36.2287911 ] } },
{ "type": "Feature", "properties": { "内容": "老人保健施設　はなみずき【介護老人保健施設】埼玉県深谷市柏合1041-1", "url2": "https://www.kaigokensaku.mhlw.go.jp/11/index.php?action_kouhyou_detail_004_kani=true&JigyosyoCd=1154680013-00&ServiceCd=520&Type=search" }, "geometry": { "type": "Point", "coordinates": [ 139.261034800000061, 36.1850807 ] } },
{ "type": "Feature", "properties": { "内容": "介護老人保健施設あねとす【介護老人保健施設】埼玉県深谷市人見1975番地", "url2": "https://www.kaigokensaku.mhlw.go.jp/11/index.php?action_kouhyou_detail_004_kani=true&JigyosyoCd=1154680043-00&ServiceCd=520&Type=search" }, "geometry": { "type": "Point", "coordinates": [ 139.264045912140404, 36.162085883481851 ] } },
{ "type": "Feature", "properties": { "内容": "介護療養型老人保健施設アルメリア【介護老人保健施設】埼玉県深谷市人見2031番地", "url2": "https://www.kaigokensaku.mhlw.go.jp/11/index.php?action_kouhyou_detail_004_kani=true&JigyosyoCd=1154680035-00&ServiceCd=520&Type=search" }, "geometry": { "type": "Point", "coordinates": [ 139.263302299999964, 36.1637693 ] } },
{ "type": "Feature", "properties": { "内容": "医療法人　藤仁会　介護老人保健施設　ふれあいの郷あげお【介護老人保健施設】埼玉県上尾市平方1915", "url2": "https://www.kaigokensaku.mhlw.go.jp/11/index.php?action_kouhyou_detail_004_kani=true&JigyosyoCd=1151680040-00&ServiceCd=520&Type=search" }, "geometry": { "type": "Point", "coordinates": [ 139.550073600000019, 35.9484793 ] } },
{ "type": "Feature", "properties": { "内容": "介護老人保健施設　エルサ上尾【介護老人保健施設】埼玉県上尾市藤波３－２６５－１", "url2": "https://www.kaigokensaku.mhlw.go.jp/11/index.php?action_kouhyou_detail_004_kani=true&JigyosyoCd=1151680032-00&ServiceCd=520&Type=search" }, "geometry": { "type": "Point", "coordinates": [ 139.549203499999976, 35.9907339 ] } },
{ "type": "Feature", "properties": { "内容": "介護老人保健施設ハーティハイム【介護老人保健施設】埼玉県上尾市大字平方３１４７番地３", "url2": "https://www.kaigokensaku.mhlw.go.jp/11/index.php?action_kouhyou_detail_004_kani=true&JigyosyoCd=1151680024-00&ServiceCd=520&Type=search" }, "geometry": { "type": "Point", "coordinates": [ 139.552429, 35.9512566 ] } },
{ "type": "Feature", "properties": { "内容": "介護老人保健施設　あげお愛友の里【介護老人保健施設】上尾市西門前字南前６３６", "url2": "https://www.kaigokensaku.mhlw.go.jp/11/index.php?action_kouhyou_detail_004_kani=true&JigyosyoCd=1151680016-00&ServiceCd=520&Type=search" }, "geometry": { "type": "Point", "coordinates": [ 139.588194, 35.9910014 ] } },
{ "type": "Feature", "properties": { "内容": "医療法人財団明理会　介護老人保健施設　草加ロイヤルケアセンター【介護老人保健施設】埼玉県草加市柿木町123-2", "url2": "https://www.kaigokensaku.mhlw.go.jp/11/index.php?action_kouhyou_detail_004_kani=true&JigyosyoCd=1151880038-00&ServiceCd=520&Type=search" }, "geometry": { "type": "Point", "coordinates": [ 139.834546199999977, 35.8581031 ] } },
{ "type": "Feature", "properties": { "内容": "介護老人保健施設　翔寿苑【介護老人保健施設】埼玉県草加市青柳8-51-13", "url2": "https://www.kaigokensaku.mhlw.go.jp/11/index.php?action_kouhyou_detail_004_kani=true&JigyosyoCd=1151880012-00&ServiceCd=520&Type=search" }, "geometry": { "type": "Point", "coordinates": [ 139.819213799999943, 35.8606219 ] } },
{ "type": "Feature", "properties": { "内容": "医療法人社団友勝会　介護老人保健施設みどりの館【介護老人保健施設】草加市谷塚町2000番地", "url2": "https://www.kaigokensaku.mhlw.go.jp/11/index.php?action_kouhyou_detail_004_kani=true&JigyosyoCd=1151880020-00&ServiceCd=520&Type=search" }, "geometry": { "type": "Point", "coordinates": [ 139.7916702, 35.8219689 ] } },
{ "type": "Feature", "properties": { "内容": "医療法人社団　葵会　介護老人保健施設　葵の園・越谷【介護老人保健施設】越谷市七左町六丁目100番地1", "url2": "https://www.kaigokensaku.mhlw.go.jp/11/index.php?action_kouhyou_detail_004_kani=true&JigyosyoCd=1150880050-00&ServiceCd=520&Type=search" }, "geometry": { "type": "Point", "coordinates": [ 139.773886800000014, 35.8772159 ] } },
{ "type": "Feature", "properties": { "内容": "介護老人保健施設　エスポワール越谷【介護老人保健施設】埼玉県越谷市大字大竹712", "url2": "https://www.kaigokensaku.mhlw.go.jp/11/index.php?action_kouhyou_detail_004_kani=true&JigyosyoCd=1150880084-00&ServiceCd=520&Type=search" }, "geometry": { "type": "Point", "coordinates": [ 139.766684383467094, 35.92347881621393 ] } },
{ "type": "Feature", "properties": { "内容": "介護老人保健施設シルバーケア敬愛【介護老人保健施設】越谷市平方２７２番地１", "url2": "https://www.kaigokensaku.mhlw.go.jp/11/index.php?action_kouhyou_detail_004_kani=true&JigyosyoCd=1150880013-00&ServiceCd=520&Type=search" }, "geometry": { "type": "Point", "coordinates": [ 139.778868800000026, 35.9569821 ] } },
{ "type": "Feature", "properties": { "内容": "介護老人保健施設　憩いの里【介護老人保健施設】埼玉県越谷市増森1-85", "url2": "https://www.kaigokensaku.mhlw.go.jp/11/index.php?action_kouhyou_detail_004_kani=true&JigyosyoCd=1150880039-00&ServiceCd=520&Type=search" }, "geometry": { "type": "Point", "coordinates": [ 139.8207903, 35.9003807 ] } },
{ "type": "Feature", "properties": { "内容": "介護老人保健施設　とまりや【介護老人保健施設】埼玉県越谷市谷中町四丁目２９３番地１", "url2": "https://www.kaigokensaku.mhlw.go.jp/11/index.php?action_kouhyou_detail_004_kani=true&JigyosyoCd=1150880043-00&ServiceCd=520&Type=search" }, "geometry": { "type": "Point", "coordinates": [ 139.7645903, 35.8831146 ] } },
{ "type": "Feature", "properties": { "内容": "介護老人保健施設　南面【介護老人保健施設】埼玉県越谷市七左町４丁目１６１番地", "url2": "https://www.kaigokensaku.mhlw.go.jp/11/index.php?action_kouhyou_detail_004_kani=true&JigyosyoCd=1150880021-00&ServiceCd=520&Type=search" }, "geometry": { "type": "Point", "coordinates": [ 139.7699874, 35.8714665 ] } },
{ "type": "Feature", "properties": { "内容": "介護老人保健施設　葵の園・越谷レイクタウン【介護老人保健施設】埼玉県越谷市東町5-155-1", "url2": "https://www.kaigokensaku.mhlw.go.jp/11/index.php?action_kouhyou_detail_004_kani=true&JigyosyoCd=1150880068-00&ServiceCd=520&Type=search" }, "geometry": { "type": "Point", "coordinates": [ 139.8351457, 35.8740399 ] } },
{ "type": "Feature", "properties": { "内容": "介護老人保健施設　グリーンビレッジ蕨【介護老人保健施設】埼玉県蕨市北町五丁目13番6号", "url2": "https://www.kaigokensaku.mhlw.go.jp/11/index.php?action_kouhyou_detail_004_kani=true&JigyosyoCd=1151480017-00&ServiceCd=520&Type=search" }, "geometry": { "type": "Point", "coordinates": [ 139.668686500000035, 35.8344074 ] } },
{ "type": "Feature", "properties": { "内容": "戸田市立介護老人保健施設【介護老人保健施設】戸田市美女木４－２０－６", "url2": "https://www.kaigokensaku.mhlw.go.jp/11/index.php?action_kouhyou_detail_004_kani=true&JigyosyoCd=1151980010-00&ServiceCd=520&Type=search" }, "geometry": { "type": "Point", "coordinates": [ 139.645147299999962, 35.8211449 ] } },
{ "type": "Feature", "properties": { "内容": "医療法人髙仁会　介護老人保健施設コスモス苑【介護老人保健施設】埼玉県戸田市新曽南3−6−23", "url2": "https://www.kaigokensaku.mhlw.go.jp/11/index.php?action_kouhyou_detail_004_kani=true&JigyosyoCd=1151980036-00&ServiceCd=520&Type=search" }, "geometry": { "type": "Point", "coordinates": [ 139.6673424, 35.8046004 ] } },
{ "type": "Feature", "properties": { "内容": "介護老人保健施設　ゆりの木【介護老人保健施設】埼玉県入間市宮寺3187番地31", "url2": "https://www.kaigokensaku.mhlw.go.jp/11/index.php?action_kouhyou_detail_004_kani=true&JigyosyoCd=1152880037-00&ServiceCd=520&Type=search" }, "geometry": { "type": "Point", "coordinates": [ 139.375581600000032, 35.8106294 ] } },
{ "type": "Feature", "properties": { "内容": "介護老人保健施設　ケアセンターなごみ【介護老人保健施設】埼玉県入間市大字小谷田１２５８番地１", "url2": "https://www.kaigokensaku.mhlw.go.jp/11/index.php?action_kouhyou_detail_004_kani=true&JigyosyoCd=1152880011-00&ServiceCd=520&Type=search" }, "geometry": { "type": "Point", "coordinates": [ 139.375015, 35.8110654 ] } },
{ "type": "Feature", "properties": { "内容": "介護老人保健施設　アヴニール【介護老人保健施設】埼玉県入間市大字二本木1082-1", "url2": "https://www.kaigokensaku.mhlw.go.jp/11/index.php?action_kouhyou_detail_004_kani=true&JigyosyoCd=1152880029-00&ServiceCd=520&Type=search" }, "geometry": { "type": "Point", "coordinates": [ 139.3582666, 35.7960723 ] } },
{ "type": "Feature", "properties": { "内容": "医療法人泰一会　　介護老人保健施設いるまの里【介護老人保健施設】埼玉県入間市野田１６３０", "url2": "https://www.kaigokensaku.mhlw.go.jp/11/index.php?action_kouhyou_detail_004_kani=true&JigyosyoCd=1152880058-00&ServiceCd=520&Type=search" }, "geometry": { "type": "Point", "coordinates": [ 139.34677970000007, 35.847538 ] } },
{ "type": "Feature", "properties": { "内容": "介護老人保健施設　ケアライフ朝霞【介護老人保健施設】埼玉県朝霞市溝沼２－４－１０", "url2": "https://www.kaigokensaku.mhlw.go.jp/11/index.php?action_kouhyou_detail_004_kani=true&JigyosyoCd=1152180016-00&ServiceCd=520&Type=search" }, "geometry": { "type": "Point", "coordinates": [ 139.589669599999979, 35.8009406 ] } },
{ "type": "Feature", "properties": { "内容": "介護老人保健施設　つつじの郷【介護老人保健施設】埼玉県朝霞市下内間木１３６３－１", "url2": "https://www.kaigokensaku.mhlw.go.jp/11/index.php?action_kouhyou_detail_004_kani=true&JigyosyoCd=1152180024-00&ServiceCd=520&Type=search" }, "geometry": { "type": "Point", "coordinates": [ 139.6176527, 35.817756 ] } },
{ "type": "Feature", "properties": { "内容": "介護老人保健施設　グリーンビレッジ朝霞台【介護老人保健施設】埼玉県朝霞市大字宮戸3番地", "url2": "https://www.kaigokensaku.mhlw.go.jp/11/index.php?action_kouhyou_detail_004_kani=true&JigyosyoCd=1152180004-00&ServiceCd=520&Type=search" }, "geometry": { "type": "Point", "coordinates": [ 139.602095011097731, 35.820805129132872 ] } },
{ "type": "Feature", "properties": { "内容": "介護老人保健施設　志木瑞穂の里【介護老人保健施設】埼玉県志木市上宗岡２丁目２０−１７", "url2": "https://www.kaigokensaku.mhlw.go.jp/11/index.php?action_kouhyou_detail_004_kani=true&JigyosyoCd=1152280010-00&ServiceCd=520&Type=search" }, "geometry": { "type": "Point", "coordinates": [ 139.581371600000011, 35.8498679 ] } },
{ "type": "Feature", "properties": { "内容": "老人保健施設ナーシングホーム和光【介護老人保健施設】和光市新倉８－２３－１", "url2": "https://www.kaigokensaku.mhlw.go.jp/11/index.php?action_kouhyou_detail_004_kani=true&JigyosyoCd=1152380026-00&ServiceCd=520&Type=search" }, "geometry": { "type": "Point", "coordinates": [ 139.632010199999968, 35.8017751 ] } },
{ "type": "Feature", "properties": { "内容": "介護老人保健施設　四季の里【介護老人保健施設】埼玉県新座市北野２－１４－８", "url2": "https://www.kaigokensaku.mhlw.go.jp/11/index.php?action_kouhyou_detail_004_kani=true&JigyosyoCd=1155180021-00&ServiceCd=520&Type=search" }, "geometry": { "type": "Point", "coordinates": [ 139.562281736312457, 35.817319142797594 ] } },
{ "type": "Feature", "properties": { "内容": "介護老人保健施設　新座園【介護老人保健施設】新座市野火止４－１４－２０", "url2": "https://www.kaigokensaku.mhlw.go.jp/11/index.php?action_kouhyou_detail_004_kani=true&JigyosyoCd=1155180013-00&ServiceCd=520&Type=search" }, "geometry": { "type": "Point", "coordinates": [ 139.552989499999967, 35.7994962 ] } },
{ "type": "Feature", "properties": { "内容": "介護老人保健施設　ルーエハイム【介護老人保健施設】埼玉県桶川市川田谷４９４８－１", "url2": "https://www.kaigokensaku.mhlw.go.jp/11/index.php?action_kouhyou_detail_004_kani=true&JigyosyoCd=1155280011-00&ServiceCd=520&Type=search" }, "geometry": { "type": "Point", "coordinates": [ 139.518902600000047, 35.9943739 ] } },
{ "type": "Feature", "properties": { "内容": "介護老人保健施設　葵の園・桶川【従来型】【介護老人保健施設】倉田2208-1", "url2": "https://www.kaigokensaku.mhlw.go.jp/11/index.php?action_kouhyou_detail_004_kani=true&JigyosyoCd=1155280041-00&ServiceCd=520&Type=search" }, "geometry": { "type": "Point", "coordinates": [ 133.955476, 34.6349268 ] } },
{ "type": "Feature", "properties": { "内容": "介護老人保健施設　葵の園・桶川【ユニット型】【介護老人保健施設】倉田2208-1", "url2": "https://www.kaigokensaku.mhlw.go.jp/11/index.php?action_kouhyou_detail_004_kani=true&JigyosyoCd=1155280033-00&ServiceCd=520&Type=search" }, "geometry": { "type": "Point", "coordinates": [ 133.955476, 34.6349268 ] } },
{ "type": "Feature", "properties": { "内容": "介護老人保健施設　ハートランド桶川【介護老人保健施設】埼玉県桶川市坂田1725", "url2": "https://www.kaigokensaku.mhlw.go.jp/11/index.php?action_kouhyou_detail_004_kani=true&JigyosyoCd=1155280029-00&ServiceCd=520&Type=search" }, "geometry": { "type": "Point", "coordinates": [ 139.561398700000041, 36.0113488 ] } },
{ "type": "Feature", "properties": { "内容": "介護老人保健施設　鶴寿の里ナーシングホーム【介護老人保健施設】久喜市北青柳１３８５－２", "url2": "https://www.kaigokensaku.mhlw.go.jp/11/index.php?action_kouhyou_detail_004_kani=true&JigyosyoCd=1150980011-00&ServiceCd=520&Type=search" }, "geometry": { "type": "Point", "coordinates": [ 139.660649425131169, 36.052333666299397 ] } },
{ "type": "Feature", "properties": { "内容": "介護老人保健施設　栗橋ナーシングホーム翔裕園【介護老人保健施設】久喜市小右衛門951-1", "url2": "https://www.kaigokensaku.mhlw.go.jp/11/index.php?action_kouhyou_detail_004_kani=true&JigyosyoCd=1151180041-00&ServiceCd=520&Type=search" }, "geometry": { "type": "Point", "coordinates": [ 139.716093, 36.1170784 ] } },
{ "type": "Feature", "properties": { "内容": "介護老人保健施設　桜田【介護老人保健施設】埼玉県久喜市東大輪2039-4", "url2": "https://www.kaigokensaku.mhlw.go.jp/11/index.php?action_kouhyou_detail_004_kani=true&JigyosyoCd=1151100011-00&ServiceCd=520&Type=search" }, "geometry": { "type": "Point", "coordinates": [ 139.67544410000005, 36.0969102 ] } },
{ "type": "Feature", "properties": { "内容": "介護老人保健施設　みやじま【介護老人保健施設】埼玉県久喜市菖蒲町菖蒲４０２８", "url2": "https://www.kaigokensaku.mhlw.go.jp/11/index.php?action_kouhyou_detail_004_kani=true&JigyosyoCd=1150580019-00&ServiceCd=520&Type=search" }, "geometry": { "type": "Point", "coordinates": [ 139.6121511, 36.0717493 ] } },
{ "type": "Feature", "properties": { "内容": "カントリーハーベスト北本【介護老人保健施設】埼玉県北本市石戸宿5-236", "url2": "https://www.kaigokensaku.mhlw.go.jp/11/index.php?action_kouhyou_detail_004_kani=true&JigyosyoCd=1155380027-00&ServiceCd=520&Type=search" }, "geometry": { "type": "Point", "coordinates": [ 139.509091399999988, 36.0019931 ] } },
{ "type": "Feature", "properties": { "内容": "介護老人保健施設　いこいの家【介護老人保健施設】北本市本町６－２３２", "url2": "https://www.kaigokensaku.mhlw.go.jp/11/index.php?action_kouhyou_detail_004_kani=true&JigyosyoCd=1155380019-00&ServiceCd=520&Type=search" }, "geometry": { "type": "Point", "coordinates": [ 139.528139, 36.0272872 ] } },
{ "type": "Feature", "properties": { "内容": "介護老人保健施設　ケアセンター八潮【介護老人保健施設】埼玉県八潮市鶴ヶ曽根１１８４－４", "url2": "https://www.kaigokensaku.mhlw.go.jp/11/index.php?action_kouhyou_detail_004_kani=true&JigyosyoCd=1151080019-00&ServiceCd=520&Type=search" }, "geometry": { "type": "Point", "coordinates": [ 139.8365387, 35.8266742 ] } },
{ "type": "Feature", "properties": { "内容": "介護老人保健施設　富士見の里【介護老人保健施設】富士見市みどり野南３－１", "url2": "https://www.kaigokensaku.mhlw.go.jp/11/index.php?action_kouhyou_detail_004_kani=true&JigyosyoCd=1152980019-00&ServiceCd=520&Type=search" }, "geometry": { "type": "Point", "coordinates": [ 139.56330550000007, 35.8661104 ] } },
{ "type": "Feature", "properties": { "内容": "医療法人恵雄会　介護老人保健施設　鶴瀬台の里【介護老人保健施設】埼玉県富士見市鶴瀬西2-8-32", "url2": "https://www.kaigokensaku.mhlw.go.jp/11/index.php?action_kouhyou_detail_004_kani=true&JigyosyoCd=1152980049-00&ServiceCd=520&Type=search" }, "geometry": { "type": "Point", "coordinates": [ 139.533654679623396, 35.84617810917667 ] } },
{ "type": "Feature", "properties": { "内容": "介護老人保健施設三郷ケアセンター【介護老人保健施設】埼玉県三郷市南蓮沼２６０－２", "url2": "https://www.kaigokensaku.mhlw.go.jp/11/index.php?action_kouhyou_detail_004_kani=true&JigyosyoCd=1151280015-00&ServiceCd=520&Type=search" }, "geometry": { "type": "Point", "coordinates": [ 139.87126330000001, 35.8469496 ] } },
{ "type": "Feature", "properties": { "内容": "蓮田ナーシングホーム翔裕園【介護老人保健施設】埼玉県蓮田市大字閏戸字吹上１８２６－１", "url2": "https://www.kaigokensaku.mhlw.go.jp/11/index.php?action_kouhyou_detail_004_kani=true&JigyosyoCd=1155780010-00&ServiceCd=520&Type=search" }, "geometry": { "type": "Point", "coordinates": [ 139.643012441696982, 36.002320776188149 ] } },
{ "type": "Feature", "properties": { "内容": "医療法人名圭会　介護老人保健施設ケアタウンゆうゆう【介護老人保健施設】埼玉県蓮田市南新宿994-1", "url2": "https://www.kaigokensaku.mhlw.go.jp/11/index.php?action_kouhyou_detail_004_kani=true&JigyosyoCd=1155780024-00&ServiceCd=520&Type=search" }, "geometry": { "type": "Point", "coordinates": [ 139.664365800000041, 36.0061388 ] } },
{ "type": "Feature", "properties": { "内容": "介護老人保健施設　すみよし【介護老人保健施設】埼玉県坂戸市塚越７６９番地", "url2": "https://www.kaigokensaku.mhlw.go.jp/11/index.php?action_kouhyou_detail_004_kani=true&JigyosyoCd=1156080030-00&ServiceCd=520&Type=search" }, "geometry": { "type": "Point", "coordinates": [ 139.42035850000002, 35.9728841 ] } },
{ "type": "Feature", "properties": { "内容": "介護老人保健施設　はつらつ【介護老人保健施設】埼玉県坂戸市本町2-13", "url2": "https://www.kaigokensaku.mhlw.go.jp/11/index.php?action_kouhyou_detail_004_kani=true&JigyosyoCd=1156080014-00&ServiceCd=520&Type=search" }, "geometry": { "type": "Point", "coordinates": [ 139.393703122090187, 35.961507527538714 ] } },
{ "type": "Feature", "properties": { "内容": "介護老人保健施設やまぶきの郷【介護老人保健施設】埼玉県坂戸市多和目３３０番地", "url2": "https://www.kaigokensaku.mhlw.go.jp/11/index.php?action_kouhyou_detail_004_kani=true&JigyosyoCd=1156080022-00&ServiceCd=520&Type=search" }, "geometry": { "type": "Point", "coordinates": [ 139.344271700000036, 35.9223157 ] } },
{ "type": "Feature", "properties": { "内容": "介護老人保健施設幸手ナーシングホーム【介護老人保健施設】埼玉県幸手市東３丁目１番５号", "url2": "https://www.kaigokensaku.mhlw.go.jp/11/index.php?action_kouhyou_detail_004_kani=true&JigyosyoCd=1156180012-00&ServiceCd=520&Type=search" }, "geometry": { "type": "Point", "coordinates": [ 139.7233, 36.0743559 ] } },
{ "type": "Feature", "properties": { "内容": "介護老人保健施設　鶴ヶ島ケアホーム【介護老人保健施設】埼玉県鶴ヶ島市脚折１８７７介護老人保健施設鶴ヶ島ケアホーム", "url2": "https://www.kaigokensaku.mhlw.go.jp/11/index.php?action_kouhyou_detail_004_kani=true&JigyosyoCd=1156280010-00&ServiceCd=520&Type=search" }, "geometry": { "type": "Point", "coordinates": [ 139.385587699999974, 35.9349952 ] } },
{ "type": "Feature", "properties": { "内容": "介護老人保健施設　日高の里【介護老人保健施設】埼玉県日高市大字久保９６－１", "url2": "https://www.kaigokensaku.mhlw.go.jp/11/index.php?action_kouhyou_detail_004_kani=true&JigyosyoCd=1156380018-00&ServiceCd=520&Type=search" }, "geometry": { "type": "Point", "coordinates": [ 139.3005948, 35.8830514 ] } },
{ "type": "Feature", "properties": { "内容": "介護老人保健施設　ケアリングよしかわ【介護老人保健施設】埼玉県吉川市八子新田５２９", "url2": "https://www.kaigokensaku.mhlw.go.jp/11/index.php?action_kouhyou_detail_004_kani=true&JigyosyoCd=1156480016-00&ServiceCd=520&Type=search" }, "geometry": { "type": "Point", "coordinates": [ 139.866046800000049, 35.9153009 ] } },
{ "type": "Feature", "properties": { "内容": "社会福祉法人秋桜園　介護老人保健施設　秋桜の里【介護老人保健施設】埼玉県ふじみ野市福岡142-1", "url2": "https://www.kaigokensaku.mhlw.go.jp/11/index.php?action_kouhyou_detail_004_kani=true&JigyosyoCd=1153080047-00&ServiceCd=520&Type=search" }, "geometry": { "type": "Point", "coordinates": [ 139.546298100000058, 35.8740176 ] } },
{ "type": "Feature", "properties": { "内容": "介護老人保健施設上福岡リハケアセンター【介護老人保健施設】埼玉県ふじみ野市福岡新田１０８－１", "url2": "https://www.kaigokensaku.mhlw.go.jp/11/index.php?action_kouhyou_detail_004_kani=true&JigyosyoCd=1153080025-00&ServiceCd=520&Type=search" }, "geometry": { "type": "Point", "coordinates": [ 139.541120592260512, 35.876769124230208 ] } },
{ "type": "Feature", "properties": { "内容": "ふじみ野介護老人保健施設　ベテラン館【介護老人保健施設】埼玉県ふじみ野市亀久保1833番地5", "url2": "https://www.kaigokensaku.mhlw.go.jp/11/index.php?action_kouhyou_detail_004_kani=true&JigyosyoCd=1153080054-00&ServiceCd=520&Type=search" }, "geometry": { "type": "Point", "coordinates": [ 139.49456710000004, 35.8595066 ] } },
{ "type": "Feature", "properties": { "内容": "介護老人保健施設　イムスケアふじみの【介護老人保健施設】埼玉県ふじみ野市鶴ヶ岡５－６－５８", "url2": "https://www.kaigokensaku.mhlw.go.jp/11/index.php?action_kouhyou_detail_004_kani=true&JigyosyoCd=1153080039-00&ServiceCd=520&Type=search" }, "geometry": { "type": "Point", "coordinates": [ 139.495291800000018, 35.8659614 ] } },
{ "type": "Feature", "properties": { "内容": "介護老人保健施設　ぽっかぽか【介護老人保健施設】白岡市上野田357-1", "url2": "https://www.kaigokensaku.mhlw.go.jp/11/index.php?action_kouhyou_detail_004_kani=true&JigyosyoCd=1150580027-00&ServiceCd=520&Type=search" }, "geometry": { "type": "Point", "coordinates": [ 139.684097, 36.0172952 ] } },
{ "type": "Feature", "properties": { "内容": "医療法人社団　愛友会　介護老人保健施設　一心館【介護老人保健施設】埼玉県北足立郡伊奈町小室８１１３番地", "url2": "https://www.kaigokensaku.mhlw.go.jp/11/index.php?action_kouhyou_detail_004_kani=true&JigyosyoCd=1153080017-00&ServiceCd=520&Type=search" }, "geometry": { "type": "Point", "coordinates": [ 139.628215400000045, 35.9992819 ] } },
{ "type": "Feature", "properties": { "内容": "エムズガーデン【介護老人保健施設】埼玉県入間郡三芳町北永井890-2", "url2": "https://www.kaigokensaku.mhlw.go.jp/11/index.php?action_kouhyou_detail_004_kani=true&JigyosyoCd=1152480040-00&ServiceCd=520&Type=search" }, "geometry": { "type": "Point", "coordinates": [ 139.5154723, 35.8455891 ] } },
{ "type": "Feature", "properties": { "内容": "介護老人保健施設むさしの苑【介護老人保健施設】埼玉県入間郡三芳町上富1784-7", "url2": "https://www.kaigokensaku.mhlw.go.jp/11/index.php?action_kouhyou_detail_004_kani=true&JigyosyoCd=1152480028-00&ServiceCd=520&Type=search" }, "geometry": { "type": "Point", "coordinates": [ 139.492592100000024, 35.8409755 ] } },
{ "type": "Feature", "properties": { "内容": "介護老人保健施設　埼玉ロイヤルケアセンター【介護老人保健施設】入間郡三芳町上富2181-5", "url2": "https://www.kaigokensaku.mhlw.go.jp/11/index.php?action_kouhyou_detail_004_kani=true&JigyosyoCd=1152480010-00&ServiceCd=520&Type=search" }, "geometry": { "type": "Point", "coordinates": [ 139.5045834, 35.8414897 ] } },
{ "type": "Feature", "properties": { "内容": "介護老人保健施設　薫風園【介護老人保健施設】埼玉県入間郡毛呂山町大字毛呂本郷字沢又６９１番地", "url2": "https://www.kaigokensaku.mhlw.go.jp/11/index.php?action_kouhyou_detail_004_kani=true&JigyosyoCd=1152480036-00&ServiceCd=520&Type=search" }, "geometry": { "type": "Point", "coordinates": [ 139.306654, 35.9381802 ] } },
{ "type": "Feature", "properties": { "内容": "医療法人　昭友会　介護老人保健施設　いづみケアセンター【介護老人保健施設】埼玉県比企郡滑川町和泉８７３", "url2": "https://www.kaigokensaku.mhlw.go.jp/11/index.php?action_kouhyou_detail_004_kani=true&JigyosyoCd=1153280013-00&ServiceCd=520&Type=search" }, "geometry": { "type": "Point", "coordinates": [ 139.33144249999998, 36.0841039 ] } },
{ "type": "Feature", "properties": { "内容": "医療法人　啓仁会　介護老人保健施設　平成の森【介護老人保健施設】埼玉県比企郡川島町大字畑中４７８番地１", "url2": "https://www.kaigokensaku.mhlw.go.jp/11/index.php?action_kouhyou_detail_004_kani=true&JigyosyoCd=1153280021-00&ServiceCd=520&Type=search" }, "geometry": { "type": "Point", "coordinates": [ 139.490094699999986, 35.991899 ] } },
{ "type": "Feature", "properties": { "内容": "介護老人保健施設もえぎ野【介護老人保健施設】埼玉県比企郡吉見町大字久米田８５９－１", "url2": "https://www.kaigokensaku.mhlw.go.jp/11/index.php?action_kouhyou_detail_004_kani=true&JigyosyoCd=1153280035-00&ServiceCd=520&Type=search" }, "geometry": { "type": "Point", "coordinates": [ 139.444053700000069, 36.040211 ] } },
{ "type": "Feature", "properties": { "内容": "介護老人保健施設　なでしこ【介護老人保健施設】埼玉県秩父郡横瀬町大字横瀬5850", "url2": "https://www.kaigokensaku.mhlw.go.jp/11/index.php?action_kouhyou_detail_004_kani=true&JigyosyoCd=1154880027-00&ServiceCd=520&Type=search" }, "geometry": { "type": "Point", "coordinates": [ 139.109038700000042, 36.0047457 ] } },
{ "type": "Feature", "properties": { "内容": "縄文の里　長瀞倶楽部【介護老人保健施設】埼玉県秩父郡長瀞町岩田587番地", "url2": "https://www.kaigokensaku.mhlw.go.jp/11/index.php?action_kouhyou_detail_004_kani=true&JigyosyoCd=1154880007-00&ServiceCd=520&Type=search" }, "geometry": { "type": "Point", "coordinates": [ 139.124231399999985, 36.1295401 ] } },
{ "type": "Feature", "properties": { "内容": "介護老人保健施設　みどうの杜【介護老人保健施設】埼玉県秩父郡東秩父村大字御堂１４５６－４", "url2": "https://www.kaigokensaku.mhlw.go.jp/11/index.php?action_kouhyou_detail_004_kani=true&JigyosyoCd=1154880019-00&ServiceCd=520&Type=search" }, "geometry": { "type": "Point", "coordinates": [ 139.201300599999968, 36.052732 ] } },
{ "type": "Feature", "properties": { "内容": "老人保健施設　かみかわ【介護老人保健施設】埼玉県児玉郡神川町大字新里2783-5", "url2": "https://www.kaigokensaku.mhlw.go.jp/11/index.php?action_kouhyou_detail_004_kani=true&JigyosyoCd=1154280012-00&ServiceCd=520&Type=search" }, "geometry": { "type": "Point", "coordinates": [ 139.093766100000039, 36.1961227 ] } },
{ "type": "Feature", "properties": { "内容": "介護老人保健施設　かみさとナーシングホーム【介護老人保健施設】埼玉県児玉郡上里町金久保１３３６", "url2": "https://www.kaigokensaku.mhlw.go.jp/11/index.php?action_kouhyou_detail_004_kani=true&JigyosyoCd=1154280020-00&ServiceCd=520&Type=search" }, "geometry": { "type": "Point", "coordinates": [ 139.145741899999962, 36.2620671 ] } },
{ "type": "Feature", "properties": { "内容": "介護老人保健施設　逍遥の郷【介護老人保健施設】埼玉県大里郡寄居町大字折原2482", "url2": "https://www.kaigokensaku.mhlw.go.jp/11/index.php?action_kouhyou_detail_004_kani=true&JigyosyoCd=1154580023-00&ServiceCd=520&Type=search" }, "geometry": { "type": "Point", "coordinates": [ 139.174314399999957, 36.1057418 ] } },
{ "type": "Feature", "properties": { "内容": "介護老人保健施設やまざくら【介護老人保健施設】埼玉県大里郡寄居町末野2109", "url2": "https://www.kaigokensaku.mhlw.go.jp/11/index.php?action_kouhyou_detail_004_kani=true&JigyosyoCd=1154580031-00&ServiceCd=520&Type=search" }, "geometry": { "type": "Point", "coordinates": [ 139.165133400000059, 36.124789 ] } },
{ "type": "Feature", "properties": { "内容": "公設宮代福祉医療センター介護老人保健施設六花【介護老人保健施設】埼玉県南埼玉郡宮代町大字須賀１７７", "url2": "https://www.kaigokensaku.mhlw.go.jp/11/index.php?action_kouhyou_detail_004_kani=true&JigyosyoCd=1150580035-00&ServiceCd=520&Type=search" }, "geometry": { "type": "Point", "coordinates": [ 139.71924403306582, 36.021112954974562 ] } },
{ "type": "Feature", "properties": { "内容": "医療法人社団一恵会　介護老人保健施設　はーとぴあ【介護老人保健施設】埼玉県南埼玉郡宮代町字山崎472番地", "url2": "https://www.kaigokensaku.mhlw.go.jp/11/index.php?action_kouhyou_detail_004_kani=true&JigyosyoCd=1150580049-00&ServiceCd=520&Type=search" }, "geometry": { "type": "Point", "coordinates": [ 139.724860300000046, 36.01223 ] } },
{ "type": "Feature", "properties": { "内容": "介護老人保健施設なのはなの里【介護老人保健施設】埼玉県北葛飾郡松伏町大字金杉1908", "url2": "https://www.kaigokensaku.mhlw.go.jp/11/index.php?action_kouhyou_detail_004_kani=true&JigyosyoCd=1151180058-00&ServiceCd=520&Type=search" }, "geometry": { "type": "Point", "coordinates": [ 139.826379, 35.9474285 ] } },
{ "type": "Feature", "properties": { "内容": "介護老人保健施設あすかHOUSE松伏【介護老人保健施設】埼玉県北葛飾郡松伏町上赤岩７５２－１", "url2": "https://www.kaigokensaku.mhlw.go.jp/11/index.php?action_kouhyou_detail_004_kani=true&JigyosyoCd=1151180025-00&ServiceCd=520&Type=search" }, "geometry": { "type": "Point", "coordinates": [ 139.822222600000032, 35.9153949 ] } }
]
}
