{
"type": "FeatureCollection",
"name": "geo_11_特別支援学校",
"crs": { "type": "name", "properties": { "name": "urn:ogc:def:crs:EPSG::6668" } },
"features": [
{ "type": "Feature", "properties": { "P29_001": "11102", "P29_002": "E111110000011", "P29_003": "16012", "P29_004": "埼玉大学教育学部附属特別支援学校", "P29_005": "埼玉県さいたま市北区日進町2-480", "P29_006": "1", "P29_007": "0", "P29_008": "00", "P29_009": null }, "geometry": { "type": "Point", "coordinates": [ 139.610793265042872, 35.926314212330468 ] } },
{ "type": "Feature", "properties": { "P29_001": "11201", "P29_002": "E111230000017", "P29_003": "16012", "P29_004": "埼玉県立特別支援学校塙保己一学園", "P29_005": "埼玉県川越市笠幡85-1", "P29_006": "2", "P29_007": "0", "P29_008": "00", "P29_009": null }, "geometry": { "type": "Point", "coordinates": [ 139.419935959367706, 35.908504137055886 ] } },
{ "type": "Feature", "properties": { "P29_001": "11102", "P29_002": "E111230000026", "P29_003": "16012", "P29_004": "埼玉県立特別支援学校大宮ろう学園", "P29_005": "埼玉県さいたま市北区植竹町2-68", "P29_006": "2", "P29_007": "0", "P29_008": "00", "P29_009": null }, "geometry": { "type": "Point", "coordinates": [ 139.62577100202904, 35.931619000229105 ] } },
{ "type": "Feature", "properties": { "P29_001": "11239", "P29_002": "E111230000035", "P29_003": "16012", "P29_004": "埼玉県立特別支援学校坂戸ろう学園", "P29_005": "埼玉県坂戸市鎌倉町14-1", "P29_006": "2", "P29_007": "0", "P29_008": "00", "P29_009": null }, "geometry": { "type": "Point", "coordinates": [ 139.405374997572494, 35.9665239998372 ] } },
{ "type": "Feature", "properties": { "P29_001": "11238", "P29_002": "E111230000044", "P29_003": "16012", "P29_004": "埼玉県立蓮田特別支援学校", "P29_005": "埼玉県蓮田市黒浜4088-4", "P29_006": "2", "P29_007": "0", "P29_008": "00", "P29_009": null }, "geometry": { "type": "Point", "coordinates": [ 139.673895893081692, 35.998630944328262 ] } },
{ "type": "Feature", "properties": { "P29_001": "11202", "P29_002": "E111230000053", "P29_003": "16012", "P29_004": "埼玉県立熊谷特別支援学校", "P29_005": "埼玉県熊谷市川原明戸605", "P29_006": "2", "P29_007": "0", "P29_008": "00", "P29_009": null }, "geometry": { "type": "Point", "coordinates": [ 139.317095995778089, 36.140582996331297 ] } },
{ "type": "Feature", "properties": { "P29_001": "11222", "P29_002": "E111230000062", "P29_003": "16012", "P29_004": "埼玉県立越谷特別支援学校", "P29_005": "埼玉県越谷市大字船渡500", "P29_006": "2", "P29_007": "0", "P29_008": "00", "P29_009": null }, "geometry": { "type": "Point", "coordinates": [ 139.795438004358601, 35.932477996464151 ] } },
{ "type": "Feature", "properties": { "P29_001": "11229", "P29_002": "E111230000071", "P29_003": "16012", "P29_004": "埼玉県立和光特別支援学校", "P29_005": "埼玉県和光市広沢4-3", "P29_006": "2", "P29_007": "0", "P29_008": "00", "P29_009": null }, "geometry": { "type": "Point", "coordinates": [ 139.60213799828756, 35.778609998532467 ] } },
{ "type": "Feature", "properties": { "P29_001": "11242", "P29_002": "E111230000080", "P29_003": "16012", "P29_004": "埼玉県立日高特別支援学校", "P29_005": "埼玉県日高市高富59-1", "P29_006": "2", "P29_007": "0", "P29_008": "00", "P29_009": null }, "geometry": { "type": "Point", "coordinates": [ 139.388180995404468, 35.881232003537299 ] } },
{ "type": "Feature", "properties": { "P29_001": "11442", "P29_002": "E111230000099", "P29_003": "16012", "P29_004": "埼玉県立宮代特別支援学校", "P29_005": "埼玉県南埼玉郡宮代町字金原636-1", "P29_006": "2", "P29_007": "0", "P29_008": "00", "P29_009": null }, "geometry": { "type": "Point", "coordinates": [ 139.712042004392572, 36.011758001143853 ] } },
{ "type": "Feature", "properties": { "P29_001": "11346", "P29_002": "E111230000106", "P29_003": "16012", "P29_004": "埼玉県立川島ひばりが丘特別支援学校", "P29_005": "埼玉県比企郡川島町大字伊草780", "P29_006": "2", "P29_007": "0", "P29_008": "00", "P29_009": null }, "geometry": { "type": "Point", "coordinates": [ 139.485990769645184, 35.966133481906184 ] } },
{ "type": "Feature", "properties": { "P29_001": "11201", "P29_002": "E111230000115", "P29_003": "16012", "P29_004": "埼玉県立川越特別支援学校", "P29_005": "埼玉県川越市古谷上2690-1", "P29_006": "2", "P29_007": "0", "P29_008": "00", "P29_009": null }, "geometry": { "type": "Point", "coordinates": [ 139.524944998481658, 35.919812996665499 ] } },
{ "type": "Feature", "properties": { "P29_001": "11201", "P29_002": "E111230000124", "P29_003": "16012", "P29_004": "埼玉県立川越特別支援学校川越たかしな分校", "P29_005": "埼玉県川越市砂新田2564", "P29_006": "2", "P29_007": "0", "P29_008": "00", "P29_009": null }, "geometry": { "type": "Point", "coordinates": [ 139.488000544085878, 35.877546377072775 ] } },
{ "type": "Feature", "properties": { "P29_001": "11203", "P29_002": "E111230000133", "P29_003": "16012", "P29_004": "埼玉県立川口特別支援学校", "P29_005": "埼玉県川口市赤井1234", "P29_006": "2", "P29_007": "0", "P29_008": "00", "P29_009": null }, "geometry": { "type": "Point", "coordinates": [ 139.750596003225382, 35.833355999045764 ] } },
{ "type": "Feature", "properties": { "P29_001": "11229", "P29_002": "E111230000142", "P29_003": "16012", "P29_004": "埼玉県立和光南特別支援学校", "P29_005": "埼玉県和光市広沢4-5", "P29_006": "2", "P29_007": "0", "P29_008": "00", "P29_009": null }, "geometry": { "type": "Point", "coordinates": [ 139.602209966065089, 35.778943864942221 ] } },
{ "type": "Feature", "properties": { "P29_001": "11206", "P29_002": "E111230000151", "P29_003": "16012", "P29_004": "埼玉県立行田特別支援学校", "P29_005": "埼玉県行田市長野4235", "P29_006": "2", "P29_007": "0", "P29_008": "00", "P29_009": null }, "geometry": { "type": "Point", "coordinates": [ 139.472276999702586, 36.133365999406109 ] } },
{ "type": "Feature", "properties": { "P29_001": "11214", "P29_002": "E111230000160", "P29_003": "16012", "P29_004": "埼玉県立春日部特別支援学校", "P29_005": "埼玉県春日部市8-776-1", "P29_006": "2", "P29_007": "0", "P29_008": "00", "P29_009": null }, "geometry": { "type": "Point", "coordinates": [ 139.760810996102208, 35.989641004013905 ] } },
{ "type": "Feature", "properties": { "P29_001": "11207", "P29_002": "E111230000179", "P29_003": "16012", "P29_004": "埼玉県立秩父特別支援学校", "P29_005": "埼玉県秩父市大宮5676-1", "P29_006": "2", "P29_007": "0", "P29_008": "00", "P29_009": null }, "geometry": { "type": "Point", "coordinates": [ 139.099510480343127, 36.00592219319293 ] } },
{ "type": "Feature", "properties": { "P29_001": "11208", "P29_002": "E111230000188", "P29_003": "16012", "P29_004": "埼玉県立所沢特別支援学校", "P29_005": "埼玉県所沢市中富南1-1802-7", "P29_006": "2", "P29_007": "0", "P29_008": "00", "P29_009": null }, "geometry": { "type": "Point", "coordinates": [ 139.490840998917122, 35.809353997336459 ] } },
{ "type": "Feature", "properties": { "P29_001": "11237", "P29_002": "E111230000197", "P29_003": "16012", "P29_004": "埼玉県立三郷特別支援学校", "P29_005": "埼玉県三郷市駒形56", "P29_006": "2", "P29_007": "0", "P29_008": "00", "P29_009": null }, "geometry": { "type": "Point", "coordinates": [ 139.863862998220782, 35.847884999501858 ] } },
{ "type": "Feature", "properties": { "P29_001": "11211", "P29_002": "E111230000204", "P29_003": "16012", "P29_004": "埼玉県立本庄特別支援学校", "P29_005": "埼玉県本庄市栗崎828", "P29_006": "2", "P29_007": "0", "P29_008": "00", "P29_009": null }, "geometry": { "type": "Point", "coordinates": [ 139.187687996948284, 36.210823003191763 ] } },
{ "type": "Feature", "properties": { "P29_001": "11219", "P29_002": "E111230000213", "P29_003": "16012", "P29_004": "埼玉県立上尾特別支援学校", "P29_005": "埼玉県上尾市東町3-2009-3", "P29_006": "2", "P29_007": "0", "P29_008": "00", "P29_009": null }, "geometry": { "type": "Point", "coordinates": [ 139.604667141395623, 35.9762604988722 ] } },
{ "type": "Feature", "properties": { "P29_001": "11212", "P29_002": "E111230000222", "P29_003": "16012", "P29_004": "埼玉県立東松山特別支援学校", "P29_005": "埼玉県東松山市野田1306-1", "P29_006": "2", "P29_007": "0", "P29_008": "00", "P29_009": null }, "geometry": { "type": "Point", "coordinates": [ 139.385537657624241, 36.053036537244679 ] } },
{ "type": "Feature", "properties": { "P29_001": "11215", "P29_002": "E111230000231", "P29_003": "16012", "P29_004": "埼玉県立狭山特別支援学校", "P29_005": "埼玉県狭山市笹井2958", "P29_006": "2", "P29_007": "0", "P29_008": "00", "P29_009": null }, "geometry": { "type": "Point", "coordinates": [ 139.367836002040633, 35.84528500057916 ] } },
{ "type": "Feature", "properties": { "P29_001": "11109", "P29_002": "E111230000240", "P29_003": "16012", "P29_004": "埼玉県立浦和特別支援学校", "P29_005": "埼玉県さいたま市緑区大崎58", "P29_006": "2", "P29_007": "0", "P29_008": "00", "P29_009": null }, "geometry": { "type": "Point", "coordinates": [ 139.715790995912272, 35.881905001074394 ] } },
{ "type": "Feature", "properties": { "P29_001": "11232", "P29_002": "E111230000259", "P29_003": "16012", "P29_004": "埼玉県立久喜特別支援学校", "P29_005": "埼玉県久喜市上清久1100", "P29_006": "2", "P29_007": "0", "P29_008": "00", "P29_009": null }, "geometry": { "type": "Point", "coordinates": [ 139.648093997559243, 36.076379001394081 ] } },
{ "type": "Feature", "properties": { "P29_001": "11101", "P29_002": "E111230000268", "P29_003": "16012", "P29_004": "埼玉県立大宮北特別支援学校", "P29_005": "埼玉県さいたま市西区中釘2290-1", "P29_006": "2", "P29_007": "0", "P29_008": "00", "P29_009": null }, "geometry": { "type": "Point", "coordinates": [ 139.573881344411433, 35.943391738343102 ] } },
{ "type": "Feature", "properties": { "P29_001": "11101", "P29_002": "E111230000277", "P29_003": "16012", "P29_004": "埼玉県立大宮北特別支援学校さいたま西分校", "P29_005": "埼玉県さいたま市西区西遊馬1601", "P29_006": "2", "P29_007": "0", "P29_008": "00", "P29_009": null }, "geometry": { "type": "Point", "coordinates": [ 139.560298001050768, 35.909946998845697 ] } },
{ "type": "Feature", "properties": { "P29_001": "11222", "P29_002": "E111230000286", "P29_003": "16012", "P29_004": "埼玉県立越谷西特別支援学校", "P29_005": "埼玉県越谷市西新井850-1", "P29_006": "2", "P29_007": "0", "P29_008": "00", "P29_009": null }, "geometry": { "type": "Point", "coordinates": [ 139.753210001079395, 35.889369002643484 ] } },
{ "type": "Feature", "properties": { "P29_001": "11210", "P29_002": "E111230000295", "P29_003": "16012", "P29_004": "埼玉県立騎西特別支援学校", "P29_005": "埼玉県加須市上種足4-888-1", "P29_006": "2", "P29_007": "0", "P29_008": "00", "P29_009": null }, "geometry": { "type": "Point", "coordinates": [ 139.559144999339424, 36.084303997253784 ] } },
{ "type": "Feature", "properties": { "P29_001": "11326", "P29_002": "E111230000302", "P29_003": "16012", "P29_004": "埼玉県立毛呂山特別支援学校", "P29_005": "埼玉県入間郡毛呂山町川角1024-1", "P29_006": "2", "P29_007": "0", "P29_008": "00", "P29_009": null }, "geometry": { "type": "Point", "coordinates": [ 139.343187000409131, 35.957661996588918 ] } },
{ "type": "Feature", "properties": { "P29_001": "11106", "P29_002": "E111230000311", "P29_003": "16012", "P29_004": "埼玉県立特別支援学校さいたま桜高等学園", "P29_005": "埼玉県さいたま市桜区上大久保519-7", "P29_006": "2", "P29_007": "0", "P29_008": "00", "P29_009": null }, "geometry": { "type": "Point", "coordinates": [ 139.611874843800564, 35.869920554304521 ] } },
{ "type": "Feature", "properties": { "P29_001": "11216", "P29_002": "E111230000320", "P29_003": "16012", "P29_004": "埼玉県立特別支援学校羽生ふじ高等学園", "P29_005": "埼玉県羽生市下羽生320-1", "P29_006": "2", "P29_007": "0", "P29_008": "00", "P29_009": null }, "geometry": { "type": "Point", "coordinates": [ 139.552008996321973, 36.169267001207231 ] } },
{ "type": "Feature", "properties": { "P29_001": "11219", "P29_002": "E111230000339", "P29_003": "16012", "P29_004": "埼玉県立上尾かしの木特別支援学校", "P29_005": "埼玉県上尾市平塚1281-1", "P29_006": "2", "P29_007": "0", "P29_008": "00", "P29_009": null }, "geometry": { "type": "Point", "coordinates": [ 139.611605127217103, 35.987620213177713 ] } },
{ "type": "Feature", "properties": { "P29_001": "11208", "P29_002": "E111230000348", "P29_003": "16012", "P29_004": "埼玉県立所沢おおぞら特別支援学校", "P29_005": "埼玉県所沢市南永井619-7", "P29_006": "2", "P29_007": "0", "P29_008": "00", "P29_009": null }, "geometry": { "type": "Point", "coordinates": [ 139.524495339233141, 35.814581780701531 ] } },
{ "type": "Feature", "properties": { "P29_001": "11218", "P29_002": "E111230000357", "P29_003": "16012", "P29_004": "埼玉県立深谷はばたき特別支援学校", "P29_005": "埼玉県深谷市本田50", "P29_006": "2", "P29_007": "0", "P29_008": "00", "P29_009": null }, "geometry": { "type": "Point", "coordinates": [ 139.281025000453411, 36.131913004113152 ] } },
{ "type": "Feature", "properties": { "P29_001": "11221", "P29_002": "E111230000366", "P29_003": "16012", "P29_004": "埼玉県立草加かがやき特別支援学校", "P29_005": "埼玉県草加市松原4-6-1", "P29_006": "2", "P29_007": "0", "P29_008": "00", "P29_009": null }, "geometry": { "type": "Point", "coordinates": [ 139.788854998156239, 35.845812000966262 ] } },
{ "type": "Feature", "properties": { "P29_001": "11221", "P29_002": "E111230000375", "P29_003": "16012", "P29_004": "埼玉県立草加かがやき特別支援学校草加分校", "P29_005": "埼玉県草加市原町2-7-1", "P29_006": "2", "P29_007": "0", "P29_008": "00", "P29_009": null }, "geometry": { "type": "Point", "coordinates": [ 139.774512462071442, 35.847368640629604 ] } },
{ "type": "Feature", "properties": { "P29_001": "11225", "P29_002": "E111230000384", "P29_003": "16012", "P29_004": "埼玉県立入間わかくさ高等特別支援学校", "P29_005": "埼玉県入間市大字小谷田745-1", "P29_006": "2", "P29_007": "0", "P29_008": "00", "P29_009": null }, "geometry": { "type": "Point", "coordinates": [ 139.373449996793511, 35.81732900268937 ] } },
{ "type": "Feature", "properties": { "P29_001": "11105", "P29_002": "E111230000393", "P29_003": "16012", "P29_004": "埼玉県立けやき特別支援学校", "P29_005": "埼玉県さいたま市中央区新都心1-2", "P29_006": "2", "P29_007": "0", "P29_008": "00", "P29_009": null }, "geometry": { "type": "Point", "coordinates": [ 139.632332002219272, 35.891178001797741 ] } },
{ "type": "Feature", "properties": { "P29_001": "11301", "P29_002": "E111230000400", "P29_003": "16012", "P29_004": "埼玉県立けやき特別支援学校伊奈分校", "P29_005": "埼玉県北足立郡伊奈町大字小室818-2", "P29_006": "2", "P29_007": "0", "P29_008": "00", "P29_009": null }, "geometry": { "type": "Point", "coordinates": [ 139.620285284870903, 35.982690555454433 ] } },
{ "type": "Feature", "properties": { "P29_001": "11224", "P29_002": "E111230000419", "P29_003": "16012", "P29_004": "戸田かけはし高等特別支援学校", "P29_005": "埼玉県戸田市新曽1093-1", "P29_006": "2", "P29_007": "0", "P29_008": "00", "P29_009": null }, "geometry": { "type": "Point", "coordinates": [ 139.664590607572308, 35.81976512200459 ] } },
{ "type": "Feature", "properties": { "P29_001": "11465", "P29_002": "E111230000428", "P29_003": "16012", "P29_004": "越谷西特別支援学校松伏分校", "P29_005": "埼玉県北葛飾郡松伏町ゆめみ野東2-7-1", "P29_006": "2", "P29_007": "0", "P29_008": "00", "P29_009": null }, "geometry": { "type": "Point", "coordinates": [ 139.829793737499472, 35.924896130974524 ] } },
{ "type": "Feature", "properties": { "P29_001": "11342", "P29_002": "E111230000437", "P29_003": "16012", "P29_004": "東松山特別支援学校嵐山学園分校", "P29_005": "埼玉県比企郡嵐山町菅谷東原264-1", "P29_006": "2", "P29_007": "0", "P29_008": "00", "P29_009": null }, "geometry": { "type": "Point", "coordinates": [ 139.327492000904329, 36.036770995986508 ] } },
{ "type": "Feature", "properties": { "P29_001": "11442", "P29_002": "E111230000446", "P29_003": "16012", "P29_004": "埼玉県立春日部特別支援学校宮代分校", "P29_005": "埼玉県南埼玉郡宮代町字東611", "P29_006": "2", "P29_007": "0", "P29_008": "00", "P29_009": null }, "geometry": { "type": "Point", "coordinates": [ 139.732104571236647, 36.005882957494485 ] } },
{ "type": "Feature", "properties": { "P29_001": "11219", "P29_002": "E111230000455", "P29_003": "16012", "P29_004": "埼玉県立上尾特別支援学校上尾南分校", "P29_005": "埼玉県上尾市中新井585", "P29_006": "2", "P29_007": "0", "P29_008": "00", "P29_009": null }, "geometry": { "type": "Point", "coordinates": [ 139.585311694074619, 35.946673069848991 ] } },
{ "type": "Feature", "properties": { "P29_001": "11233", "P29_002": "E111230000464", "P29_003": "16012", "P29_004": "埼玉県立騎西特別支援学校北本分校", "P29_005": "埼玉県北本市古市場1-152", "P29_006": "2", "P29_007": "0", "P29_008": "00", "P29_009": null }, "geometry": { "type": "Point", "coordinates": [ 139.547496076726702, 36.044211813625331 ] } },
{ "type": "Feature", "properties": { "P29_001": "11110", "P29_002": "E111230000474", "P29_003": "16012", "P29_004": "埼玉県立岩槻はるかぜ特別支援学校", "P29_005": "埼玉県さいたま市岩槻区馬込11-2426-1", "P29_006": "2", "P29_007": "0", "P29_008": "00", "P29_009": null }, "geometry": { "type": "Point", "coordinates": [ 139.656700842081619, 35.968540002518694 ] } },
{ "type": "Feature", "properties": { "P29_001": "11203", "P29_002": "E111230000483", "P29_003": "16012", "P29_004": "埼玉県立川口特別支援学校鳩ヶ谷分校", "P29_005": "埼玉県川口市里225-1", "P29_006": "2", "P29_007": "0", "P29_008": "00", "P29_009": null }, "geometry": { "type": "Point", "coordinates": [ 139.726245095834827, 35.837436236257638 ] } },
{ "type": "Feature", "properties": { "P29_001": "11215", "P29_002": "E111230000492", "P29_003": "16012", "P29_004": "埼玉県立狭山特別支援学校狭山清陵分校", "P29_005": "埼玉県狭山市上奥富34-3", "P29_006": "2", "P29_007": "0", "P29_008": "00", "P29_009": null }, "geometry": { "type": "Point", "coordinates": [ 139.425411572200204, 35.874065011400745 ] } },
{ "type": "Feature", "properties": { "P29_001": "11246", "P29_002": "E111230000509", "P29_003": "16012", "P29_004": "埼玉県立久喜特別支援学校白岡分校", "P29_005": "埼玉県白岡市高岩275-1", "P29_006": "2", "P29_007": "0", "P29_008": "00", "P29_009": null }, "geometry": { "type": "Point", "coordinates": [ 139.675557557474747, 36.031894218081611 ] } },
{ "type": "Feature", "properties": { "P29_001": "11201", "P29_002": "E111240000016", "P29_003": "16012", "P29_004": "川越市立特別支援学校", "P29_005": "埼玉県川越市宮下町1-19-1", "P29_006": "3", "P29_007": "0", "P29_008": "00", "P29_009": null }, "geometry": { "type": "Point", "coordinates": [ 139.488903996144501, 35.925911997183576 ] } },
{ "type": "Feature", "properties": { "P29_001": "11235", "P29_002": "E111240000025", "P29_003": "16012", "P29_004": "富士見市立富士見特別支援学校", "P29_005": "埼玉県富士見市上南畑1317", "P29_006": "3", "P29_007": "0", "P29_008": "00", "P29_009": null }, "geometry": { "type": "Point", "coordinates": [ 139.564222001479692, 35.863516003057129 ] } },
{ "type": "Feature", "properties": { "P29_001": "11101", "P29_002": "E111240000034", "P29_003": "16012", "P29_004": "さいたま市立ひまわり特別支援学校", "P29_005": "埼玉県さいたま市西区三橋6-1587", "P29_006": "3", "P29_007": "0", "P29_008": "00", "P29_009": null }, "geometry": { "type": "Point", "coordinates": [ 139.590273004417043, 35.920758002155587 ] } },
{ "type": "Feature", "properties": { "P29_001": "11109", "P29_002": "E111240000043", "P29_003": "16012", "P29_004": "さいたま市立さくら草特別支援学校", "P29_005": "埼玉県さいたま市緑区三室636-80", "P29_006": "3", "P29_007": "0", "P29_008": "00", "P29_009": null }, "geometry": { "type": "Point", "coordinates": [ 139.674761767415532, 35.890999996522055 ] } },
{ "type": "Feature", "properties": { "P29_001": "11207", "P29_002": "E111320700028", "P29_003": "16012", "P29_004": "特別支援学校光の村秩父自然学園", "P29_005": "埼玉県秩父市大滝4783", "P29_006": "4", "P29_007": "0", "P29_008": "00", "P29_009": null }, "geometry": { "type": "Point", "coordinates": [ 138.968757000718227, 35.946650002750182 ] } }
]
}
