{
"type": "FeatureCollection",
"name": "geo_11_定期巡回・随時対応型訪問介護看護",
"crs": { "type": "name", "properties": { "name": "urn:ogc:def:crs:OGC:1.3:CRS84" } },
"features": [
{ "type": "Feature", "properties": { "内容": "医療生協おおみやヘルパーステーション【定期巡回・随時対応型訪問介護看護】埼玉県さいたま市西区指扇1070", "url": "https://www.kaigokensaku.mhlw.go.jp/11/index.php?action_kouhyou_detail_004_kani=true&JigyosyoCd=1196501439-00&ServiceCd=760&Type=search", "url2": "http:/www.mcp-saitama.or.jp" }, "geometry": { "type": "Point", "coordinates": [ 139.5786529, 35.9121722 ] } },
{ "type": "Feature", "properties": { "内容": "コウダイケアコールセンターさいたま【定期巡回・随時対応型訪問介護看護】櫛引町2-8702F", "url": "https://www.kaigokensaku.mhlw.go.jp/11/index.php?action_kouhyou_detail_004_kani=true&JigyosyoCd=1196501389-00&ServiceCd=760&Type=search", "url2": "https://koudai-care.co.jp/" }, "geometry": { "type": "Point", "coordinates": [ 139.606220400000012, 35.9218991 ] } },
{ "type": "Feature", "properties": { "内容": "ＳＯＭＰＯケア　大宮　定期巡回【定期巡回・随時対応型訪問介護看護】埼玉県さいたま市大宮区仲町3丁目13番地1住友生命大宮第2ビル1階", "url": "https://www.kaigokensaku.mhlw.go.jp/11/index.php?action_kouhyou_detail_004_kani=true&JigyosyoCd=1196500944-00&ServiceCd=760&Type=search", "url2": "http://www.sompocare.com" }, "geometry": { "type": "Point", "coordinates": [ 139.628833239055496, 35.905606561478592 ] } },
{ "type": "Feature", "properties": { "内容": "コンパス定期巡回【定期巡回・随時対応型訪問介護看護】埼玉県さいたま市大宮区桜木町4-783-4", "url": "https://www.kaigokensaku.mhlw.go.jp/11/index.php?action_kouhyou_detail_004_kani=true&JigyosyoCd=1196500928-00&ServiceCd=760&Type=search", "url2": "https://keigo-group.co.jp/" }, "geometry": { "type": "Point", "coordinates": [ 139.621402, 35.899609 ] } },
{ "type": "Feature", "properties": { "内容": "〇〇【定期巡回・随時対応型訪問介護看護】〇〇", "url": "https://www.kaigokensaku.mhlw.go.jp/11/index.php?action_kouhyou_detail_004_kani=true&JigyosyoCd=1171111111-00&ServiceCd=760&Type=search", "url2": null }, "geometry": { "type": "Point", "coordinates": [ 139.62564, 35.882946 ] } },
{ "type": "Feature", "properties": { "内容": "やさしい手白鍬定期巡回・随時対応型訪問介護看護事業所【定期巡回・随時対応型訪問介護看護】白鍬736-8センチュリーテラス白鍬", "url": "https://www.kaigokensaku.mhlw.go.jp/11/index.php?action_kouhyou_detail_004_kani=true&JigyosyoCd=1196500720-00&ServiceCd=760&Type=search", "url2": "https://search.yasashiite.com/detail/homonkaigo_shirakuwa/" }, "geometry": { "type": "Point", "coordinates": [ 139.60685680000006, 35.8833006 ] } },
{ "type": "Feature", "properties": { "内容": "医療生協ケアステーションうらしん【定期巡回・随時対応型訪問介護看護】埼玉県さいたま市浦和区北浦和3-10-4COOP未来館　２階", "url": "https://www.kaigokensaku.mhlw.go.jp/11/index.php?action_kouhyou_detail_004_kani=true&JigyosyoCd=1196501256-00&ServiceCd=760&Type=search", "url2": null }, "geometry": { "type": "Point", "coordinates": [ 139.645804199999986, 35.8740721 ] } },
{ "type": "Feature", "properties": { "内容": "明サポートヘルパーステーション【定期巡回・随時対応型訪問介護看護】埼玉県さいたま市緑区松木3-16-62階", "url": "https://www.kaigokensaku.mhlw.go.jp/11/index.php?action_kouhyou_detail_004_kani=true&JigyosyoCd=1196500738-00&ServiceCd=760&Type=search", "url2": "http://meiiken.or.jp" }, "geometry": { "type": "Point", "coordinates": [ 139.687999900000023, 35.8840742 ] } },
{ "type": "Feature", "properties": { "内容": "けあビジョン東岩槻【定期巡回・随時対応型訪問介護看護】埼玉県さいたま市岩槻区上野2-9-4103号", "url": "https://www.kaigokensaku.mhlw.go.jp/11/index.php?action_kouhyou_detail_004_kani=true&JigyosyoCd=1196500688-00&ServiceCd=760&Type=search", "url2": null }, "geometry": { "type": "Point", "coordinates": [ 139.6998896, 35.9716469 ] } },
{ "type": "Feature", "properties": { "内容": "定期巡回たかしな【定期巡回・随時対応型訪問介護看護】埼玉県川越市砂新田4-1-4ブランドールビル2階", "url": "https://www.kaigokensaku.mhlw.go.jp/11/index.php?action_kouhyou_detail_004_kani=true&JigyosyoCd=1190400661-00&ServiceCd=760&Type=search", "url2": "https://www.mcp-saitama.or.jp/" }, "geometry": { "type": "Point", "coordinates": [ 139.4924331, 35.8875033 ] } },
{ "type": "Feature", "properties": { "内容": "定期巡回・随時対応型訪問介護・看護　つどい南大塚【定期巡回・随時対応型訪問介護看護】埼玉県川越市南大塚3-17-18", "url": "https://www.kaigokensaku.mhlw.go.jp/11/index.php?action_kouhyou_detail_004_kani=true&JigyosyoCd=1190400521-00&ServiceCd=760&Type=search", "url2": "https://mcp-net.jp/service/regular-visits/regular-visits-saitama/rv-minamiohtsuka.html" }, "geometry": { "type": "Point", "coordinates": [ 139.4612428, 35.8886992 ] } },
{ "type": "Feature", "properties": { "内容": "医療法人　真正会　定期巡回・随時対応型訪問介護看護事業所コール【定期巡回・随時対応型訪問介護看護】川越市安比奈新田259-2", "url": "https://www.kaigokensaku.mhlw.go.jp/11/index.php?action_kouhyou_detail_004_kani=true&JigyosyoCd=1190400265-00&ServiceCd=760&Type=search", "url2": "http://www.kasumi-gr.com/index2.html" }, "geometry": { "type": "Point", "coordinates": [ 139.419041543655339, 35.904846758386654 ] } },
{ "type": "Feature", "properties": { "内容": "定期巡回・随時対応型訪問介護看護鯨井ナーシングホーム【定期巡回・随時対応型訪問介護看護】埼玉県川越市大字鯨井新田9-1鯨井ナーシングホーム", "url": "https://www.kaigokensaku.mhlw.go.jp/11/index.php?action_kouhyou_detail_004_kani=true&JigyosyoCd=1190400729-00&ServiceCd=760&Type=search", "url2": "http://www.kawatsuru-g.jp/kujirai/index.html" }, "geometry": { "type": "Point", "coordinates": [ 139.42282, 35.9351388 ] } },
{ "type": "Feature", "properties": { "内容": "やさしい手川越定期巡回・随時対応型訪問介護看護事業所【定期巡回・随時対応型訪問介護看護】埼玉県川越市菅原町23-11菅原町ビル2階", "url": "https://www.kaigokensaku.mhlw.go.jp/11/index.php?action_kouhyou_detail_004_kani=true&JigyosyoCd=1190400380-00&ServiceCd=760&Type=search", "url2": "http://www.yasashiite.com/" }, "geometry": { "type": "Point", "coordinates": [ 139.485040300000037, 35.9089848 ] } },
{ "type": "Feature", "properties": { "内容": "グリーンフォレストホームケアステーション【定期巡回・随時対応型訪問介護看護】埼玉県熊谷市広瀬800-2", "url": "https://www.kaigokensaku.mhlw.go.jp/11/index.php?action_kouhyou_detail_004_kani=true&JigyosyoCd=1193100193-00&ServiceCd=760&Type=search", "url2": "http://www.gfv.jp" }, "geometry": { "type": "Point", "coordinates": [ 139.353038400000059, 36.147467 ] } },
{ "type": "Feature", "properties": { "内容": "熊谷生協ヘルパーステーション【定期巡回・随時対応型訪問介護看護】埼玉県熊谷市上之3851-1介護複合施設くまここ", "url": "https://www.kaigokensaku.mhlw.go.jp/11/index.php?action_kouhyou_detail_004_kani=true&JigyosyoCd=1193100292-00&ServiceCd=760&Type=search", "url2": "http://www.mcp-saitama.or.jp" }, "geometry": { "type": "Point", "coordinates": [ 139.413749700000011, 36.1510891 ] } },
{ "type": "Feature", "properties": { "内容": "SOMPOケア川口東領家定期巡回【定期巡回・随時対応型訪問介護看護】埼玉県川口市東領家2-8-6そんぽの家S川口東領家", "url": "https://www.kaigokensaku.mhlw.go.jp/11/index.php?action_kouhyou_detail_004_kani=true&JigyosyoCd=1190201358-00&ServiceCd=760&Type=search", "url2": "https://www.sompocare.com/service/home/satsuki/H000361" }, "geometry": { "type": "Point", "coordinates": [ 139.7486778, 35.795202 ] } },
{ "type": "Feature", "properties": { "内容": "ケアセンタ－かがやき【定期巡回・随時対応型訪問介護看護】埼玉県川口市西青木５－１－４０", "url": "https://www.kaigokensaku.mhlw.go.jp/11/index.php?action_kouhyou_detail_004_kani=true&JigyosyoCd=1190200699-00&ServiceCd=760&Type=search", "url2": "https://www.mcp-saitama-kaigo.com/" }, "geometry": { "type": "Point", "coordinates": [ 139.71608636238085, 35.82094954514664 ] } },
{ "type": "Feature", "properties": { "内容": "定期巡回随時対応型訪問介護看護アットプレオ石神【定期巡回・随時対応型訪問介護看護】川口市　石神1573-10", "url": "https://www.kaigokensaku.mhlw.go.jp/11/index.php?action_kouhyou_detail_004_kani=true&JigyosyoCd=1190201309-00&ServiceCd=760&Type=search", "url2": null }, "geometry": { "type": "Point", "coordinates": [ 139.742342199999968, 35.856063299999981 ] } },
{ "type": "Feature", "properties": { "内容": "医療生協さいたまヘルパーステーションすこやか【定期巡回・随時対応型訪問介護看護】埼玉県川口市仲町１－３６", "url": "https://www.kaigokensaku.mhlw.go.jp/11/index.php?action_kouhyou_detail_004_kani=true&JigyosyoCd=1190201333-00&ServiceCd=760&Type=search", "url2": "https://kawaguchi-sukoyaka.com/" }, "geometry": { "type": "Point", "coordinates": [ 139.708300400000013, 35.8055787 ] } },
{ "type": "Feature", "properties": { "内容": "やさしい手川口三ツ和定期巡回・随時対応型訪問介護看護事業所【定期巡回・随時対応型訪問介護看護】埼玉県川口市三ツ和1-4-21グランドマストやさしえ川口三ツ和", "url": "https://www.kaigokensaku.mhlw.go.jp/11/index.php?action_kouhyou_detail_004_kani=true&JigyosyoCd=1190200624-00&ServiceCd=760&Type=search", "url2": "http://www.yasashiite.com/subdomains/sec_page/452/11/" }, "geometry": { "type": "Point", "coordinates": [ 139.740015200000016, 35.8234852 ] } },
{ "type": "Feature", "properties": { "内容": "ヘルパーステーション　いぶき【定期巡回・随時対応型訪問介護看護】川口市木曽呂1347", "url": "https://www.kaigokensaku.mhlw.go.jp/11/index.php?action_kouhyou_detail_004_kani=true&JigyosyoCd=1190200756-00&ServiceCd=760&Type=search", "url2": null }, "geometry": { "type": "Point", "coordinates": [ 139.715828699999946, 35.859491 ] } },
{ "type": "Feature", "properties": { "内容": "エイプレイス川口【定期巡回・随時対応型訪問介護看護】埼玉県川口市幸町2-15-8第Ⅱ福富ビル", "url": "https://www.kaigokensaku.mhlw.go.jp/11/index.php?action_kouhyou_detail_004_kani=true&JigyosyoCd=1190201028-00&ServiceCd=760&Type=search", "url2": "http://www.a-place.co.jp/" }, "geometry": { "type": "Point", "coordinates": [ 139.7202298, 35.8065003 ] } },
{ "type": "Feature", "properties": { "内容": "ケアーズ定期巡回・随時対応型訪問介護看護【定期巡回・随時対応型訪問介護看護】埼玉県川口市長蔵２－１－１８コモ・スクエアA号室", "url": "https://www.kaigokensaku.mhlw.go.jp/11/index.php?action_kouhyou_detail_004_kani=true&JigyosyoCd=1190201192-00&ServiceCd=760&Type=search", "url2": "https://kkcares.co.jp/" }, "geometry": { "type": "Point", "coordinates": [ 139.7571753, 35.861 ] } },
{ "type": "Feature", "properties": { "内容": "２４芝ケアステーション【定期巡回・随時対応型訪問介護看護】埼玉県川口市芝2-13-23ファミーユ伸和1階Ｃ", "url": "https://www.kaigokensaku.mhlw.go.jp/11/index.php?action_kouhyou_detail_004_kani=true&JigyosyoCd=1190200681-00&ServiceCd=760&Type=search", "url2": "http://24care.co.jp/" }, "geometry": { "type": "Point", "coordinates": [ 139.6982312, 35.831128 ] } },
{ "type": "Feature", "properties": { "内容": "緑風苑　定期巡回・随時対応型訪問介護看護【定期巡回・随時対応型訪問介護看護】埼玉県行田市佐間2-2-18", "url": "https://www.kaigokensaku.mhlw.go.jp/11/index.php?action_kouhyou_detail_004_kani=true&JigyosyoCd=1193700059-00&ServiceCd=760&Type=search", "url2": "http://www.seikoukai.com" }, "geometry": { "type": "Point", "coordinates": [ 139.46657642382516, 36.131593453344337 ] } },
{ "type": "Feature", "properties": { "内容": "ヘルパーステーションさきたま【定期巡回・随時対応型訪問介護看護】埼玉県行田市本丸18-3", "url": "https://www.kaigokensaku.mhlw.go.jp/11/index.php?action_kouhyou_detail_004_kani=true&JigyosyoCd=1193700067-00&ServiceCd=760&Type=search", "url2": null }, "geometry": { "type": "Point", "coordinates": [ 139.454215200000021, 36.137057 ] } },
{ "type": "Feature", "properties": { "内容": "生協ちちぶケアステーション【定期巡回・随時対応型訪問介護看護】埼玉県秩父市阿保町1-11", "url": "https://www.kaigokensaku.mhlw.go.jp/11/index.php?action_kouhyou_detail_004_kani=true&JigyosyoCd=1194900229-00&ServiceCd=760&Type=search", "url2": "https://www.mcp-saitama-kaigo.com/office/chichibu-care/" }, "geometry": { "type": "Point", "coordinates": [ 139.087446499999942, 36.0138529 ] } },
{ "type": "Feature", "properties": { "内容": "２４時間ホームケアほほえみ【定期巡回・随時対応型訪問介護看護】埼玉県所沢市小手指町４－１８－１", "url": "https://www.kaigokensaku.mhlw.go.jp/11/index.php?action_kouhyou_detail_004_kani=true&JigyosyoCd=1192500278-00&ServiceCd=760&Type=search", "url2": "http://www.kuwanomi.or.jp/" }, "geometry": { "type": "Point", "coordinates": [ 139.435813100000018, 35.7971186 ] } },
{ "type": "Feature", "properties": { "内容": "ライフアシスト　ロイヤルの園【定期巡回・随時対応型訪問介護看護】埼玉県所沢市北野三丁目1番地22", "url": "https://www.kaigokensaku.mhlw.go.jp/11/index.php?action_kouhyou_detail_004_kani=true&JigyosyoCd=1192500286-00&ServiceCd=760&Type=search", "url2": "http://www.wam-town.jp/tokorozawa-sono/" }, "geometry": { "type": "Point", "coordinates": [ 139.4191174, 35.7969323 ] } },
{ "type": "Feature", "properties": { "内容": "定期巡回ヘルパーステーションとこしん【定期巡回・随時対応型訪問介護看護】埼玉県所沢市宮本町2-23-34", "url": "https://www.kaigokensaku.mhlw.go.jp/11/index.php?action_kouhyou_detail_004_kani=true&JigyosyoCd=1192500401-00&ServiceCd=760&Type=search", "url2": "http://www.mcp-saitama-kaigo.com/office/tokoshin/" }, "geometry": { "type": "Point", "coordinates": [ 139.460767300000043, 35.7958169 ] } },
{ "type": "Feature", "properties": { "内容": "よしかわ訪問介護ステーション歩【定期巡回・随時対応型訪問介護看護】埼玉県所沢市東狭山ケ丘4-2660-3", "url": "https://www.kaigokensaku.mhlw.go.jp/11/index.php?action_kouhyou_detail_004_kani=true&JigyosyoCd=1192500393-00&ServiceCd=760&Type=search", "url2": null }, "geometry": { "type": "Point", "coordinates": [ 139.427810102491748, 35.808701481537398 ] } },
{ "type": "Feature", "properties": { "内容": "定期巡回・随時対応型訪問介護看護加須なでしこ【定期巡回・随時対応型訪問介護看護】埼玉県加須市諏訪2-2-9", "url": "https://www.kaigokensaku.mhlw.go.jp/11/index.php?action_kouhyou_detail_004_kani=true&JigyosyoCd=1193800099-00&ServiceCd=760&Type=search", "url2": null }, "geometry": { "type": "Point", "coordinates": [ 139.600636200000054, 36.130229899999989 ] } },
{ "type": "Feature", "properties": { "内容": "総合福祉エリアヘルパーステーション【定期巡回・随時対応型訪問介護看護】埼玉県東松山市大字松山2183", "url": "https://www.kaigokensaku.mhlw.go.jp/11/index.php?action_kouhyou_detail_004_kani=true&JigyosyoCd=1193300157-00&ServiceCd=760&Type=search", "url2": "http://www.smile-shakyo.jp/" }, "geometry": { "type": "Point", "coordinates": [ 139.40182470000002, 36.052811300000016 ] } },
{ "type": "Feature", "properties": { "内容": "医療生協ケアセンターひだまり【定期巡回・随時対応型訪問介護看護】埼玉県春日部市谷原2-4-12", "url": "https://www.kaigokensaku.mhlw.go.jp/11/index.php?action_kouhyou_detail_004_kani=true&JigyosyoCd=1190600443-00&ServiceCd=760&Type=search", "url2": "https://www.mcp-saitama-kaigo.com/office/hidamari/" }, "geometry": { "type": "Point", "coordinates": [ 139.7471807, 35.9714802 ] } },
{ "type": "Feature", "properties": { "内容": "あずみ苑ラ･テラス庄和【定期巡回・随時対応型訪問介護看護】埼玉県春日部市西金野井178-2あずみ苑ラ･テラス庄和", "url": "https://www.kaigokensaku.mhlw.go.jp/11/index.php?action_kouhyou_detail_004_kani=true&JigyosyoCd=1190600203-00&ServiceCd=760&Type=search", "url2": "http://www.azumien.jp/search/l_syowa/" }, "geometry": { "type": "Point", "coordinates": [ 139.811748599999987, 35.9856568 ] } },
{ "type": "Feature", "properties": { "内容": "定期巡回・随時対応サービス24こんぱす【定期巡回・随時対応型訪問介護看護】埼玉県春日部市薄谷78", "url": "https://www.kaigokensaku.mhlw.go.jp/11/index.php?action_kouhyou_detail_004_kani=true&JigyosyoCd=1190600344-00&ServiceCd=760&Type=search", "url2": "http://compass100.jp/" }, "geometry": { "type": "Point", "coordinates": [ 139.754347, 35.9568655 ] } },
{ "type": "Feature", "properties": { "内容": "在宅サポート２１狭山訪問看護ステーション【定期巡回・随時対応型訪問介護看護】埼玉県狭山市大字水野５９４", "url": "https://www.kaigokensaku.mhlw.go.jp/11/index.php?action_kouhyou_detail_004_kani=true&JigyosyoCd=1192700118-00&ServiceCd=760&Type=search", "url2": "http://www.syojukai.or.jp" }, "geometry": { "type": "Point", "coordinates": [ 139.446626189688118, 35.832003502269835 ] } },
{ "type": "Feature", "properties": { "内容": "定期巡回・随時対応型訪問介護看護なでしこ【定期巡回・随時対応型訪問介護看護】埼玉県鴻巣市生出塚1丁目1番3号", "url": "https://www.kaigokensaku.mhlw.go.jp/11/index.php?action_kouhyou_detail_004_kani=true&JigyosyoCd=1191700176-00&ServiceCd=760&Type=search", "url2": "https://nadeshiko365.jp/" }, "geometry": { "type": "Point", "coordinates": [ 139.524782801821857, 36.062700689803314 ] } },
{ "type": "Feature", "properties": { "内容": "在宅介護　深谷２４【定期巡回・随時対応型訪問介護看護】埼玉県深谷市柏合９５１－１", "url": "https://www.kaigokensaku.mhlw.go.jp/11/index.php?action_kouhyou_detail_004_kani=true&JigyosyoCd=1194600381-00&ServiceCd=760&Type=search", "url2": "https：//lifeplanーkaigo.jp" }, "geometry": { "type": "Point", "coordinates": [ 139.257581108598316, 36.181315578517037 ] } },
{ "type": "Feature", "properties": { "内容": "そよ風定期巡回　にしあげお【定期巡回・随時対応型訪問介護看護】埼玉県上尾市上野55-2西上尾ホスピスケア　そよ風", "url": "https://www.kaigokensaku.mhlw.go.jp/11/index.php?action_kouhyou_detail_004_kani=true&JigyosyoCd=1191600285-00&ServiceCd=760&Type=search", "url2": "https://www.nishiageohpc@sykz.co.jp" }, "geometry": { "type": "Point", "coordinates": [ 139.5606626, 35.9497298 ] } },
{ "type": "Feature", "properties": { "内容": "訪問介護看護パストーン２４【定期巡回・随時対応型訪問介護看護】浅間台２－１７－１", "url": "https://www.kaigokensaku.mhlw.go.jp/11/index.php?action_kouhyou_detail_004_kani=true&JigyosyoCd=1191600152-00&ServiceCd=760&Type=search", "url2": "https://www.pastone.or.jp/" }, "geometry": { "type": "Point", "coordinates": [ 139.5743936, 35.9795933 ] } },
{ "type": "Feature", "properties": { "内容": "ヘルパーステーションかしの木【定期巡回・随時対応型訪問介護看護】埼玉県草加市草加1-8-13", "url": "https://www.kaigokensaku.mhlw.go.jp/11/index.php?action_kouhyou_detail_004_kani=true&JigyosyoCd=1191800398-00&ServiceCd=760&Type=search", "url2": "http://www.mcp-saitama.or.jp" }, "geometry": { "type": "Point", "coordinates": [ 139.8030771, 35.8354454 ] } },
{ "type": "Feature", "properties": { "内容": "SOMPOケア　北越谷　定期巡回【定期巡回・随時対応型訪問介護看護】北越谷1丁目18-2", "url": "https://www.kaigokensaku.mhlw.go.jp/11/index.php?action_kouhyou_detail_004_kani=true&JigyosyoCd=1190800514-00&ServiceCd=760&Type=search", "url2": "https//www.sompocare.com" }, "geometry": { "type": "Point", "coordinates": [ 139.781156599999946, 35.8962968 ] } },
{ "type": "Feature", "properties": { "内容": "定期巡回・随時対応サービス24こんぱす越谷【定期巡回・随時対応型訪問介護看護】埼玉県越谷市大沢4-19-43富士マンション1階", "url": "https://www.kaigokensaku.mhlw.go.jp/11/index.php?action_kouhyou_detail_004_kani=true&JigyosyoCd=1190800852-00&ServiceCd=760&Type=search", "url2": "https://compass100.jp/company/" }, "geometry": { "type": "Point", "coordinates": [ 139.787100257672108, 35.899774763758046 ] } },
{ "type": "Feature", "properties": { "内容": "定期巡回・随時対応型訪問介護看護　とまりや・ケアリンクステーション【定期巡回・随時対応型訪問介護看護】埼玉県越谷市谷中町四丁目293-1", "url": "https://www.kaigokensaku.mhlw.go.jp/11/index.php?action_kouhyou_detail_004_kani=true&JigyosyoCd=1190800415-00&ServiceCd=760&Type=search", "url2": "http://www.goseikai.jp/tomariya.html" }, "geometry": { "type": "Point", "coordinates": [ -8.24389, 53.41291 ] } },
{ "type": "Feature", "properties": { "内容": "ゆとり庵北越谷　定期巡回・随時対応型訪問介護看護【定期巡回・随時対応型訪問介護看護】埼玉県越谷市大字大道643番地地域密着複合施設　ゆとり庵北越谷", "url": "https://www.kaigokensaku.mhlw.go.jp/11/index.php?action_kouhyou_detail_004_kani=true&JigyosyoCd=1190800779-00&ServiceCd=760&Type=search", "url2": "https://hinode.or.jp/establishment/kitakoshigaya/" }, "geometry": { "type": "Point", "coordinates": [ 139.7580285, 35.922795 ] } },
{ "type": "Feature", "properties": { "内容": "ミアヘルサ定期巡回サービス朝霞【定期巡回・随時対応型訪問介護看護】埼玉県朝霞市三原1-11-22ミアヘルサ　オアシス朝霞", "url": "https://www.kaigokensaku.mhlw.go.jp/11/index.php?action_kouhyou_detail_004_kani=true&JigyosyoCd=1192100129-00&ServiceCd=760&Type=search", "url2": "https://www.merhalsa.jp" }, "geometry": { "type": "Point", "coordinates": [ 139.577781693874726, 35.812063342881451 ] } },
{ "type": "Feature", "properties": { "内容": "そよ風定期巡回　あさか【定期巡回・随時対応型訪問介護看護】埼玉県朝霞市溝沼1050-1朝霞ケアセンターそよ風", "url": "https://www.kaigokensaku.mhlw.go.jp/11/index.php?action_kouhyou_detail_004_kani=true&JigyosyoCd=1192100194-00&ServiceCd=760&Type=search", "url2": "https://www.sykz.co.jp/" }, "geometry": { "type": "Point", "coordinates": [ 139.5867742, 35.8066063 ] } },
{ "type": "Feature", "properties": { "内容": "志木ナーシングホーム【定期巡回・随時対応型訪問介護看護】埼玉県志木市柏町1-6-74", "url": "https://www.kaigokensaku.mhlw.go.jp/11/index.php?action_kouhyou_detail_004_kani=true&JigyosyoCd=1192200176-00&ServiceCd=760&Type=search", "url2": "http://www.kawatsuru-g.jp" }, "geometry": { "type": "Point", "coordinates": [ 139.5757524, 35.8368333 ] } },
{ "type": "Feature", "properties": { "内容": "ミアヘルサ定期巡回サービス和光【定期巡回・随時対応型訪問介護看護】埼玉県和光市新倉２－５－４９", "url": "https://www.kaigokensaku.mhlw.go.jp/11/index.php?action_kouhyou_detail_004_kani=true&JigyosyoCd=1192300109-00&ServiceCd=760&Type=search", "url2": "https://www.merhalsa.jp/" }, "geometry": { "type": "Point", "coordinates": [ 139.619608500000027, 35.7942286 ] } },
{ "type": "Feature", "properties": { "内容": "リーシェガーデン和光ケアセンター定期巡回・随時対応型訪問介護看護サービス【定期巡回・随時対応型訪問介護看護】埼玉県和光市丸山台2-11-1", "url": "https://www.kaigokensaku.mhlw.go.jp/11/index.php?action_kouhyou_detail_004_kani=true&JigyosyoCd=1192300083-00&ServiceCd=760&Type=search", "url2": "http://www.ej-welfare.jp" }, "geometry": { "type": "Point", "coordinates": [ 139.616978300000028, 35.784199500000014 ] } },
{ "type": "Feature", "properties": { "内容": "ＳＯＭＰＯケア　和光　定期巡回【定期巡回・随時対応型訪問介護看護】埼玉県和光市西大和団地6デュプレ西大和第4号棟第104号室", "url": "https://www.kaigokensaku.mhlw.go.jp/11/index.php?action_kouhyou_detail_004_kani=true&JigyosyoCd=1192300190-00&ServiceCd=760&Type=search", "url2": null }, "geometry": { "type": "Point", "coordinates": [ 139.608296276057445, 35.777806995665131 ] } },
{ "type": "Feature", "properties": { "内容": "定期巡回・随時対応サービス　ひのき和光ステーション【定期巡回・随時対応型訪問介護看護】埼玉県和光市南1-11-76第二福寿ビル101", "url": "https://www.kaigokensaku.mhlw.go.jp/11/index.php?action_kouhyou_detail_004_kani=true&JigyosyoCd=1192300281-00&ServiceCd=760&Type=search", "url2": null }, "geometry": { "type": "Point", "coordinates": [ 139.6140221, 35.7718624 ] } },
{ "type": "Feature", "properties": { "内容": "SOMPOケア新座定期巡回【定期巡回・随時対応型訪問介護看護】埼玉県新座市野火止6丁目6番12号", "url": "https://www.kaigokensaku.mhlw.go.jp/11/index.php?action_kouhyou_detail_004_kani=true&JigyosyoCd=1195100266-00&ServiceCd=760&Type=search", "url2": "https://www.sompocare.com" }, "geometry": { "type": "Point", "coordinates": [ 139.5633254, 35.8040085 ] } },
{ "type": "Feature", "properties": { "内容": "ミアヘルサ定期巡回サービス新座【定期巡回・随時対応型訪問介護看護】埼玉県新座市北野3-18-24", "url": "https://www.kaigokensaku.mhlw.go.jp/11/index.php?action_kouhyou_detail_004_kani=true&JigyosyoCd=1195100126-00&ServiceCd=760&Type=search", "url2": "www.merhalsa.jp" }, "geometry": { "type": "Point", "coordinates": [ 139.564949100000035, 35.8189355 ] } },
{ "type": "Feature", "properties": { "内容": "そよ風定期巡回にいざ【定期巡回・随時対応型訪問介護看護】埼玉県新座市野寺2-5-19", "url": "https://www.kaigokensaku.mhlw.go.jp/11/index.php?action_kouhyou_detail_004_kani=true&JigyosyoCd=1195100241-00&ServiceCd=760&Type=search", "url2": null }, "geometry": { "type": "Point", "coordinates": [ 139.559780100000012, 35.7662748 ] } },
{ "type": "Feature", "properties": { "内容": "定期巡回・随時対応型訪問介護看護あんど【定期巡回・随時対応型訪問介護看護】鴨川1-20-2ﾌｭｰﾁｬ鴨川105", "url": "https://www.kaigokensaku.mhlw.go.jp/11/index.php?action_kouhyou_detail_004_kani=true&JigyosyoCd=1195200108-00&ServiceCd=760&Type=search", "url2": null }, "geometry": { "type": "Point", "coordinates": [ 140.099032200000011, 35.1133206 ] } },
{ "type": "Feature", "properties": { "内容": "なでしこ【定期巡回・随時対応型訪問介護看護】埼玉県桶川市東2-11-3東ハイツ１　101号室", "url": "https://www.kaigokensaku.mhlw.go.jp/11/index.php?action_kouhyou_detail_004_kani=true&JigyosyoCd=1195200124-00&ServiceCd=760&Type=search", "url2": null }, "geometry": { "type": "Point", "coordinates": [ 139.570954699999987, 35.9992299 ] } },
{ "type": "Feature", "properties": { "内容": "定期巡回・随時対応型訪問介護看護　心支【定期巡回・随時対応型訪問介護看護】埼玉県久喜市本町6ｰ15ｰ12", "url": "https://www.kaigokensaku.mhlw.go.jp/11/index.php?action_kouhyou_detail_004_kani=true&JigyosyoCd=1190900140-00&ServiceCd=760&Type=search", "url2": "https://myplace-kcm.co.jp/" }, "geometry": { "type": "Point", "coordinates": [ 139.665521133914325, 36.073487438362406 ] } },
{ "type": "Feature", "properties": { "内容": "ケアサポート笑夢【定期巡回・随時対応型訪問介護看護】下石戸下516-44あきのハイツ101", "url": "https://www.kaigokensaku.mhlw.go.jp/11/index.php?action_kouhyou_detail_004_kani=true&JigyosyoCd=1195300163-00&ServiceCd=760&Type=search", "url2": "https://emusmiledream1219.wixsite.com/emu1219" }, "geometry": { "type": "Point", "coordinates": [ 139.5425032, 36.0149922 ] } },
{ "type": "Feature", "properties": { "内容": "定期巡回・随時対応型訪問看護介護事業所　あんど【定期巡回・随時対応型訪問介護看護】埼玉県北本市中央３丁目７９番地１", "url": "https://www.kaigokensaku.mhlw.go.jp/11/index.php?action_kouhyou_detail_004_kani=true&JigyosyoCd=1195300155-00&ServiceCd=760&Type=search", "url2": null }, "geometry": { "type": "Point", "coordinates": [ 139.531281, 36.03078690000001 ] } },
{ "type": "Feature", "properties": { "内容": "定期巡回随時対応型　訪問介護看護【定期巡回・随時対応型訪問介護看護】埼玉県富士見市羽沢3-1-27", "url": "https://www.kaigokensaku.mhlw.go.jp/11/index.php?action_kouhyou_detail_004_kani=true&JigyosyoCd=1192900213-00&ServiceCd=760&Type=search", "url2": "http://www.kawaturu-g.jp/" }, "geometry": { "type": "Point", "coordinates": [ 139.544929599999932, 35.8560891 ] } },
{ "type": "Feature", "properties": { "内容": "みさとロイヤル定期巡回・随時対応型訪問介護看護ステーション【定期巡回・随時対応型訪問介護看護】埼玉県三郷市新和5-244", "url": "https://www.kaigokensaku.mhlw.go.jp/11/index.php?action_kouhyou_detail_004_kani=true&JigyosyoCd=1191200169-00&ServiceCd=760&Type=search", "url2": "http://www.ims.gr.jp/saitama_misato/" }, "geometry": { "type": "Point", "coordinates": [ 139.880299700000023, 35.8102658 ] } },
{ "type": "Feature", "properties": { "内容": "けあビジョン蓮田【定期巡回・随時対応型訪問介護看護】埼玉県蓮田市東6－2－11会田ビル2F", "url": "https://www.kaigokensaku.mhlw.go.jp/11/index.php?action_kouhyou_detail_004_kani=true&JigyosyoCd=1195700107-00&ServiceCd=760&Type=search", "url2": "http://www.visualvision.co.jp" }, "geometry": { "type": "Point", "coordinates": [ 139.6533483, 35.9795014 ] } },
{ "type": "Feature", "properties": { "内容": "定期巡回・随時対応型訪問介護看護　かおる【定期巡回・随時対応型訪問介護看護】埼玉県坂戸市薬師町19-4梅仲荘102", "url": "https://www.kaigokensaku.mhlw.go.jp/11/index.php?action_kouhyou_detail_004_kani=true&JigyosyoCd=1196000184-00&ServiceCd=760&Type=search", "url2": null }, "geometry": { "type": "Point", "coordinates": [ 139.400726546912523, 35.96960830037289 ] } },
{ "type": "Feature", "properties": { "内容": "定期巡回つどい幸手中央【定期巡回・随時対応型訪問介護看護】埼玉県幸手市東1-8-32", "url": "https://www.kaigokensaku.mhlw.go.jp/11/index.php?action_kouhyou_detail_004_kani=true&JigyosyoCd=1196100109-00&ServiceCd=760&Type=search", "url2": "http：//www.mcp-net.jp/" }, "geometry": { "type": "Point", "coordinates": [ 139.719442716532967, 36.068599821717775 ] } },
{ "type": "Feature", "properties": { "内容": "テパエ鶴ヶ島定期巡回サービス【定期巡回・随時対応型訪問介護看護】埼玉県鶴ヶ島市太田ヶ谷432-2", "url": "https://www.kaigokensaku.mhlw.go.jp/11/index.php?action_kouhyou_detail_004_kani=true&JigyosyoCd=1196200156-00&ServiceCd=760&Type=search", "url2": "nino-nino.biz" }, "geometry": { "type": "Point", "coordinates": [ 139.40342320000002, 35.92748 ] } },
{ "type": "Feature", "properties": { "内容": "定期巡回・随時対応型訪問介護看護ベルグルー【定期巡回・随時対応型訪問介護看護】鶴ヶ島市脚折1377番地76サンハイム101", "url": "https://www.kaigokensaku.mhlw.go.jp/11/index.php?action_kouhyou_detail_004_kani=true&JigyosyoCd=1196200198-00&ServiceCd=760&Type=search", "url2": "http://belgrue.moo.jp/" }, "geometry": { "type": "Point", "coordinates": [ 139.4030998, 35.9442119 ] } },
{ "type": "Feature", "properties": { "内容": "ＮＰＯ法人介護の手【定期巡回・随時対応型訪問介護看護】埼玉県日高市大字鹿山２０１番地１１", "url": "https://www.kaigokensaku.mhlw.go.jp/11/index.php?action_kouhyou_detail_004_kani=true&JigyosyoCd=1196300089-00&ServiceCd=760&Type=search", "url2": "https://sapotokaeru.crayonsite.net" }, "geometry": { "type": "Point", "coordinates": [ 139.3397977, 35.8936354 ] } },
{ "type": "Feature", "properties": { "内容": "いなほの定期巡回サービス【定期巡回・随時対応型訪問介護看護】埼玉県白岡市小久喜942-8", "url": "https://www.kaigokensaku.mhlw.go.jp/11/index.php?action_kouhyou_detail_004_kani=true&JigyosyoCd=1196600041-00&ServiceCd=760&Type=search", "url2": "https://inaho.or.jp/" }, "geometry": { "type": "Point", "coordinates": [ 139.66547847986007, 36.014208962784231 ] } },
{ "type": "Feature", "properties": { "内容": "サザンケア株式会社【定期巡回・随時対応型訪問介護看護】埼玉県入間郡毛呂山町前久保南３丁目１９番地１", "url": "https://www.kaigokensaku.mhlw.go.jp/11/index.php?action_kouhyou_detail_004_kani=true&JigyosyoCd=1192400008-00&ServiceCd=760&Type=search", "url2": "https://www.southerncare-moroyama.com/" }, "geometry": { "type": "Point", "coordinates": [ 139.324300435581961, 35.945955186072744 ] } },
{ "type": "Feature", "properties": { "内容": "定期巡回・随時対応型訪問介護看護事業所森林【定期巡回・随時対応型訪問介護看護】埼玉県比企郡滑川町羽尾1041番地7", "url": "https://www.kaigokensaku.mhlw.go.jp/11/index.php?action_kouhyou_detail_004_kani=true&JigyosyoCd=1193200001-00&ServiceCd=760&Type=search", "url2": "http://ｗｗｗ.kokoro.or.jp" }, "geometry": { "type": "Point", "coordinates": [ 139.3720975, 36.0499602 ] } },
{ "type": "Feature", "properties": { "内容": "あじさいケアセンター【定期巡回・随時対応型訪問介護看護】埼玉県児玉郡上里町金久保777", "url": "https://www.kaigokensaku.mhlw.go.jp/11/index.php?action_kouhyou_detail_004_kani=true&JigyosyoCd=1194200174-00&ServiceCd=760&Type=search", "url2": "www.wf-meiseikai.or.jp" }, "geometry": { "type": "Point", "coordinates": [ 139.132240300000035, 36.2653941 ] } },
{ "type": "Feature", "properties": { "内容": "シルバータウンあかつき【定期巡回・随時対応型訪問介護看護】埼玉県大里郡寄居町鉢形３１７９－２", "url": "https://www.kaigokensaku.mhlw.go.jp/11/index.php?action_kouhyou_detail_004_kani=true&JigyosyoCd=1194500110-00&ServiceCd=760&Type=search", "url2": "http://www.gh-akatuki.net/" }, "geometry": { "type": "Point", "coordinates": [ 139.1979569, 36.0985819 ] } },
{ "type": "Feature", "properties": { "内容": "定期巡回訪問介護看護シールズ【定期巡回・随時対応型訪問介護看護】埼玉県南埼玉郡宮代町川端3丁目3番5号", "url": "https://www.kaigokensaku.mhlw.go.jp/11/index.php?action_kouhyou_detail_004_kani=true&JigyosyoCd=1190500106-00&ServiceCd=760&Type=search", "url2": "https://shields-recruit.com/" }, "geometry": { "type": "Point", "coordinates": [ 139.741583520237725, 36.004816018921943 ] } }
]
}
