{
"type": "FeatureCollection",
"name": "geo_11_認知症対応型通所介護",
"crs": { "type": "name", "properties": { "name": "urn:ogc:def:crs:OGC:1.3:CRS84" } },
"features": [
{ "type": "Feature", "properties": { "内容": "まみや倶楽部【認知症対応型通所介護】さいたま市西区西遊馬1320-1", "url": "https://www.kaigokensaku.mhlw.go.jp/11/index.php?action_kouhyou_detail_004_kani=true&JigyosyoCd=1176503157-00&ServiceCd=720&Type=search", "url2": "https://hakushinkai.jp/" }, "geometry": { "type": "Point", "coordinates": [ 139.562707162457286, 35.913733842624517 ] } },
{ "type": "Feature", "properties": { "内容": "大宮諏訪の苑　ﾃﾞｲｻｰﾋﾞｽｾﾝﾀｰ【認知症対応型通所介護】埼玉県さいたま市大宮区三橋4丁目875-2特別養護老人ホーム　大宮諏訪の苑", "url": "https://www.kaigokensaku.mhlw.go.jp/11/index.php?action_kouhyou_detail_004_kani=true&JigyosyoCd=1196500837-00&ServiceCd=720&Type=search", "url2": "http://suwanoen.jp/" }, "geometry": { "type": "Point", "coordinates": [ 139.60433450000005, 35.890873 ] } },
{ "type": "Feature", "properties": { "内容": "敬寿園デイサービスセンター【認知症対応型通所介護】さいたま市見沼区大字片柳１２９８番地", "url": "https://www.kaigokensaku.mhlw.go.jp/11/index.php?action_kouhyou_detail_004_kani=true&JigyosyoCd=1170300444-00&ServiceCd=720&Type=search", "url2": "https://www.keijuen.info/" }, "geometry": { "type": "Point", "coordinates": [ 139.694096, 35.8978199 ] } },
{ "type": "Feature", "properties": { "内容": "認知症デイサービス・桜の宿【認知症対応型通所介護】埼玉県さいたま市桜区宿140-1", "url": "https://www.kaigokensaku.mhlw.go.jp/11/index.php?action_kouhyou_detail_004_kani=true&JigyosyoCd=1196500977-00&ServiceCd=720&Type=search", "url2": "https://e-life-sp-co-jp.sakura.ne.jp" }, "geometry": { "type": "Point", "coordinates": [ 139.59839409999995, 35.8762095 ] } },
{ "type": "Feature", "properties": { "内容": "デイサービス第２さくら【認知症対応型通所介護】埼玉県さいたま市浦和区上木崎6-9-3", "url": "https://www.kaigokensaku.mhlw.go.jp/11/index.php?action_kouhyou_detail_004_kani=true&JigyosyoCd=1176500823-00&ServiceCd=720&Type=search", "url2": "http://www.net-sakura.jp" }, "geometry": { "type": "Point", "coordinates": [ 139.6516226, 35.8832599 ] } },
{ "type": "Feature", "properties": { "内容": "青木リハビリセンター東浦和【認知症対応型通所介護】大谷口５７０２", "url": "https://www.kaigokensaku.mhlw.go.jp/11/index.php?action_kouhyou_detail_004_kani=true&JigyosyoCd=1196500571-00&ServiceCd=720&Type=search", "url2": "www.aoki-chuoclinic.com/reha_higashiurawa.htm" }, "geometry": { "type": "Point", "coordinates": [ 139.690822799999978, 35.8543305 ] } },
{ "type": "Feature", "properties": { "内容": "ケアセンター　ソワン【認知症対応型通所介護】文蔵４－３－５", "url": "https://www.kaigokensaku.mhlw.go.jp/11/index.php?action_kouhyou_detail_004_kani=true&JigyosyoCd=1196500712-00&ServiceCd=720&Type=search", "url2": null }, "geometry": { "type": "Point", "coordinates": [ 139.670182200000028, 35.8397412 ] } },
{ "type": "Feature", "properties": { "内容": "あすなろホーム浦和【認知症対応型通所介護】埼玉県さいたま市南区辻7-13-15あすなろホーム浦和", "url": "https://www.kaigokensaku.mhlw.go.jp/11/index.php?action_kouhyou_detail_004_kani=true&JigyosyoCd=1196500027-00&ServiceCd=720&Type=search", "url2": "http://www.i-ll-group.co.jp" }, "geometry": { "type": "Point", "coordinates": [ 139.665325599999989, 35.8326709 ] } },
{ "type": "Feature", "properties": { "内容": "愛の家グループホーム岩槻城北【認知症対応型通所介護】埼玉県さいたま市岩槻区大字岩槻6796", "url": "https://www.kaigokensaku.mhlw.go.jp/11/index.php?action_kouhyou_detail_004_kani=true&JigyosyoCd=1196500159-00&ServiceCd=720&Type=search", "url2": "www.mcsg.co.jp/" }, "geometry": { "type": "Point", "coordinates": [ 139.695132599999965, 35.9642549 ] } },
{ "type": "Feature", "properties": { "内容": "愛の家デイサービス川越今福【認知症対応型通所介護】川越市今福729番地10", "url": "https://www.kaigokensaku.mhlw.go.jp/11/index.php?action_kouhyou_detail_004_kani=true&JigyosyoCd=1190400646-00&ServiceCd=720&Type=search", "url2": "https://mcs-ainoie.com/search/saitama/kawagoeshi/gh095/" }, "geometry": { "type": "Point", "coordinates": [ 139.4681912, 35.8826604 ] } },
{ "type": "Feature", "properties": { "内容": "デイサービス福音の園・川越第二【認知症対応型通所介護】埼玉県川越市萱沼２６９２番地１デイサービス福音の園・川越第二", "url": "https://www.kaigokensaku.mhlw.go.jp/11/index.php?action_kouhyou_detail_004_kani=true&JigyosyoCd=1190400638-00&ServiceCd=720&Type=search", "url2": "https://www.gospelgarden-fukuinnnoso.com/" }, "geometry": { "type": "Point", "coordinates": [ 139.5495168, 35.8899617 ] } },
{ "type": "Feature", "properties": { "内容": "デイサービスだいね川越府川【認知症対応型通所介護】埼玉県川越市府川145-1", "url": "https://www.kaigokensaku.mhlw.go.jp/11/index.php?action_kouhyou_detail_004_kani=true&JigyosyoCd=1190400208-00&ServiceCd=720&Type=search", "url2": "www.daineinc.com" }, "geometry": { "type": "Point", "coordinates": [ 139.48737559999995, 35.9447672 ] } },
{ "type": "Feature", "properties": { "内容": "デイサービス　みなみかぜ【認知症対応型通所介護】埼玉県川越市大字吉田２０４番地２", "url": "https://www.kaigokensaku.mhlw.go.jp/11/index.php?action_kouhyou_detail_004_kani=true&JigyosyoCd=1170400376-00&ServiceCd=720&Type=search", "url2": "http://www.minamikaze.or.jp/index.html" }, "geometry": { "type": "Point", "coordinates": [ 139.426018800000065, 35.9286754 ] } },
{ "type": "Feature", "properties": { "内容": "医療法人　健友会　デイサービスあっぷる【認知症対応型通所介護】小ケ谷77-5", "url": "https://www.kaigokensaku.mhlw.go.jp/11/index.php?action_kouhyou_detail_004_kani=true&JigyosyoCd=1190400026-00&ServiceCd=720&Type=search", "url2": "http://www.k-kenyukai.or.jp" }, "geometry": { "type": "Point", "coordinates": [ 139.4555973, 35.9140437 ] } },
{ "type": "Feature", "properties": { "内容": "デイサービスみずほ【認知症対応型通所介護】埼玉県川越市中台元町1丁目16番地11", "url": "https://www.kaigokensaku.mhlw.go.jp/11/index.php?action_kouhyou_detail_004_kani=true&JigyosyoCd=1190400018-00&ServiceCd=720&Type=search", "url2": "http://www.mizuhokai.or.jp" }, "geometry": { "type": "Point", "coordinates": [ 139.481750499999947, 35.8913385 ] } },
{ "type": "Feature", "properties": { "内容": "クイーンズビラ地域密着型認知症デイサービスセンター【認知症対応型通所介護】埼玉県熊谷市太井１７７７－１クイーンズビラ", "url": "https://www.kaigokensaku.mhlw.go.jp/11/index.php?action_kouhyou_detail_004_kani=true&JigyosyoCd=1193100177-00&ServiceCd=720&Type=search", "url2": "http://www.queensvilla.com" }, "geometry": { "type": "Point", "coordinates": [ 139.421531400000049, 36.1177339 ] } },
{ "type": "Feature", "properties": { "内容": "彩華園デイサービスセンター【認知症対応型通所介護】埼玉県熊谷市上川上２６６", "url": "https://www.kaigokensaku.mhlw.go.jp/11/index.php?action_kouhyou_detail_004_kani=true&JigyosyoCd=1193100110-00&ServiceCd=720&Type=search", "url2": "http://park16.wakwak.com/~saikaen/" }, "geometry": { "type": "Point", "coordinates": [ 139.414936799999964, 36.166706 ] } },
{ "type": "Feature", "properties": { "内容": "デイサービスまぁむ川口前川（認知症対応型）【認知症対応型通所介護】埼玉県川口市前上町6-34", "url": "https://www.kaigokensaku.mhlw.go.jp/11/index.php?action_kouhyou_detail_004_kani=true&JigyosyoCd=1190200723-00&ServiceCd=720&Type=search", "url2": null }, "geometry": { "type": "Point", "coordinates": [ 139.712577, 35.8347552 ] } },
{ "type": "Feature", "properties": { "内容": "地域密着型デイサービスまぁむ川口本町【認知症対応型通所介護】本町2-4-17", "url": "https://www.kaigokensaku.mhlw.go.jp/11/index.php?action_kouhyou_detail_004_kani=true&JigyosyoCd=1190200715-00&ServiceCd=720&Type=search", "url2": "www.mom-care.jp" }, "geometry": { "type": "Point", "coordinates": [ 139.725879599999985, 35.8001726 ] } },
{ "type": "Feature", "properties": { "内容": "緑風苑デイサービスセンター蜜柑【認知症対応型通所介護】埼玉県行田市大字須加１５３１介護老人保健施設グリーンピア", "url": "https://www.kaigokensaku.mhlw.go.jp/11/index.php?action_kouhyou_detail_004_kani=true&JigyosyoCd=1193700141-00&ServiceCd=720&Type=search", "url2": "seikoukai.com" }, "geometry": { "type": "Point", "coordinates": [ 139.4879684, 36.1846374 ] } },
{ "type": "Feature", "properties": { "内容": "有限会社グループホーム上野　デイサービス　陽だまりの家【認知症対応型通所介護】埼玉県秩父市大宮　5533-1", "url": "https://www.kaigokensaku.mhlw.go.jp/11/index.php?action_kouhyou_detail_004_kani=true&JigyosyoCd=1194900104-00&ServiceCd=720&Type=search", "url2": "http://www.chichibu.ne.jp/~hidamari" }, "geometry": { "type": "Point", "coordinates": [ 139.0952513, 36.0089373 ] } },
{ "type": "Feature", "properties": { "内容": "デイサービスふたば【認知症対応型通所介護】埼玉県秩父市小柱１９０－１", "url": "https://www.kaigokensaku.mhlw.go.jp/11/index.php?action_kouhyou_detail_004_kani=true&JigyosyoCd=1194900153-00&ServiceCd=720&Type=search", "url2": "www.aoba-home.com" }, "geometry": { "type": "Point", "coordinates": [ 139.085864600000036, 36.0657514 ] } },
{ "type": "Feature", "properties": { "内容": "愛の家デイサービス所沢小手指【認知症対応型通所介護】埼玉県所沢市小手指元町三丁目6番地3", "url": "https://www.kaigokensaku.mhlw.go.jp/11/index.php?action_kouhyou_detail_004_kani=true&JigyosyoCd=1192500260-00&ServiceCd=720&Type=search", "url2": "http://www.mcsg.co.jp/" }, "geometry": { "type": "Point", "coordinates": [ 139.4321007, 35.7931989 ] } },
{ "type": "Feature", "properties": { "内容": "デイホーム花みずきの家【認知症対応型通所介護】所沢市上新井５－７８－５花みずきの家", "url": "https://www.kaigokensaku.mhlw.go.jp/11/index.php?action_kouhyou_detail_004_kani=true&JigyosyoCd=1192500104-00&ServiceCd=720&Type=search", "url2": "https://hanamizukinoie.jp" }, "geometry": { "type": "Point", "coordinates": [ 139.447748100000013, 35.799721 ] } },
{ "type": "Feature", "properties": { "内容": "ケアネット21株式会社【認知症対応型通所介護】埼玉県所沢市荒幡131番地の5", "url": "https://www.kaigokensaku.mhlw.go.jp/11/index.php?action_kouhyou_detail_004_kani=true&JigyosyoCd=1192500724-00&ServiceCd=720&Type=search", "url2": null }, "geometry": { "type": "Point", "coordinates": [ 139.4524993, 35.7822128 ] } },
{ "type": "Feature", "properties": { "内容": "デイケアホーム　ケア・リンク【認知症対応型通所介護】所沢市中富南3-16-1", "url": "https://www.kaigokensaku.mhlw.go.jp/11/index.php?action_kouhyou_detail_004_kani=true&JigyosyoCd=1192500203-00&ServiceCd=720&Type=search", "url2": "dai.care.home.care.link.24.06@gmail.com" }, "geometry": { "type": "Point", "coordinates": [ 139.491021600000067, 35.8121872 ] } },
{ "type": "Feature", "properties": { "内容": "りらいふ【認知症対応型通所介護】埼玉県所沢市山口5257-3", "url": "https://www.kaigokensaku.mhlw.go.jp/11/index.php?action_kouhyou_detail_004_kani=true&JigyosyoCd=1192500229-00&ServiceCd=720&Type=search", "url2": "https://www.relife-web.info/" }, "geometry": { "type": "Point", "coordinates": [ 139.431919364418036, 35.78098371979037 ] } },
{ "type": "Feature", "properties": { "内容": "デイサービスセンター麦倉ひばりの里【認知症対応型通所介護】埼玉県加須市麦倉２１１６番地２", "url": "https://www.kaigokensaku.mhlw.go.jp/11/index.php?action_kouhyou_detail_004_kani=true&JigyosyoCd=1193800040-00&ServiceCd=720&Type=search", "url2": "http://www.hibarinosato.com/" }, "geometry": { "type": "Point", "coordinates": [ 139.643061399999965, 36.1845106 ] } },
{ "type": "Feature", "properties": { "内容": "デイサービスセンタージャム【認知症対応型通所介護】埼玉県本庄市西五十子446番15", "url": "https://www.kaigokensaku.mhlw.go.jp/11/index.php?action_kouhyou_detail_004_kani=true&JigyosyoCd=1194300040-00&ServiceCd=720&Type=search", "url2": null }, "geometry": { "type": "Point", "coordinates": [ 139.202386400000023, 36.2221422 ] } },
{ "type": "Feature", "properties": { "内容": "ライフタウン輝里【認知症対応型通所介護】埼玉県東松山市上唐子１５２３－１", "url": "https://www.kaigokensaku.mhlw.go.jp/11/index.php?action_kouhyou_detail_004_kani=true&JigyosyoCd=1193300116-00&ServiceCd=720&Type=search", "url2": "http://www.lifeairi.com" }, "geometry": { "type": "Point", "coordinates": [ 139.330760020901494, 36.038163016505109 ] } },
{ "type": "Feature", "properties": { "内容": "愛の家デイサービス春日部一ノ割【認知症対応型通所介護】埼玉県春日部市一ノ割1000－4木造平屋建て", "url": "https://www.kaigokensaku.mhlw.go.jp/11/index.php?action_kouhyou_detail_004_kani=true&JigyosyoCd=1190600112-00&ServiceCd=720&Type=search", "url2": "http://www.mcsg.co.jp" }, "geometry": { "type": "Point", "coordinates": [ 139.75653669999997, 35.9586025 ] } },
{ "type": "Feature", "properties": { "内容": "あすなろホーム庄和【認知症対応型通所介護】埼玉県春日部市西金野井169-5", "url": "https://www.kaigokensaku.mhlw.go.jp/11/index.php?action_kouhyou_detail_004_kani=true&JigyosyoCd=1171100751-00&ServiceCd=720&Type=search", "url2": "http://www.i-ll-group.co.jp" }, "geometry": { "type": "Point", "coordinates": [ 139.811248699999965, 35.9849929 ] } },
{ "type": "Feature", "properties": { "内容": "デイサービスセンター　さくら【認知症対応型通所介護】埼玉県狭山市加佐志104番", "url": "https://www.kaigokensaku.mhlw.go.jp/11/index.php?action_kouhyou_detail_004_kani=true&JigyosyoCd=1172700583-00&ServiceCd=720&Type=search", "url2": "http://www.sakura-toku.com/" }, "geometry": { "type": "Point", "coordinates": [ 139.43373280000003, 35.8675545 ] } },
{ "type": "Feature", "properties": { "内容": "デイサービスリアン【認知症対応型通所介護】埼玉県狭山市北入曽1522-16", "url": "https://www.kaigokensaku.mhlw.go.jp/11/index.php?action_kouhyou_detail_004_kani=true&JigyosyoCd=1192700142-00&ServiceCd=720&Type=search", "url2": "https://www.koai.co.jp/" }, "geometry": { "type": "Point", "coordinates": [ 139.444787677862536, 35.831633851337955 ] } },
{ "type": "Feature", "properties": { "内容": "認知症対応型デイサービスつばさ弐番館【認知症対応型通所介護】埼玉県狭山市柏原1661番地１グループホームつばさ弐番館", "url": "https://www.kaigokensaku.mhlw.go.jp/11/index.php?action_kouhyou_detail_004_kani=true&JigyosyoCd=1192700241-00&ServiceCd=720&Type=search", "url2": null }, "geometry": { "type": "Point", "coordinates": [ 139.4060328, 35.8846585 ] } },
{ "type": "Feature", "properties": { "内容": "デイサービスセンター　須影ほのぼのホーム【認知症対応型通所介護】埼玉県羽生市大字下川崎字八幡前394番1", "url": "https://www.kaigokensaku.mhlw.go.jp/11/index.php?action_kouhyou_detail_004_kani=true&JigyosyoCd=1193900162-00&ServiceCd=720&Type=search", "url2": "https://sukage-honobono.com/" }, "geometry": { "type": "Point", "coordinates": [ 139.549763500000012, 36.143262300000011 ] } },
{ "type": "Feature", "properties": { "内容": "エンゼルデイサービスセンター山河【認知症対応型通所介護】埼玉県深谷市山河３１０", "url": "https://www.kaigokensaku.mhlw.go.jp/11/index.php?action_kouhyou_detail_004_kani=true&JigyosyoCd=1194600167-00&ServiceCd=720&Type=search", "url2": "http://www.enzel.jp/" }, "geometry": { "type": "Point", "coordinates": [ 139.228014199999961, 36.1983122 ] } },
{ "type": "Feature", "properties": { "内容": "デイサービスセンター　パストーン浅間台【認知症対応型通所介護】埼玉県上尾市浅間台２－１７－１", "url": "https://www.kaigokensaku.mhlw.go.jp/11/index.php?action_kouhyou_detail_004_kani=true&JigyosyoCd=1191600020-00&ServiceCd=720&Type=search", "url2": "https://www.pastone.or.jp/" }, "geometry": { "type": "Point", "coordinates": [ 139.574354299999982, 35.9797384 ] } },
{ "type": "Feature", "properties": { "内容": "デイサービスセンター　ケアサポートそうか新善【認知症対応型通所介護】草加市新善町224-1", "url": "https://www.kaigokensaku.mhlw.go.jp/11/index.php?action_kouhyou_detail_004_kani=true&JigyosyoCd=1191800125-00&ServiceCd=720&Type=search", "url2": "http://www.care-support.biz" }, "geometry": { "type": "Point", "coordinates": [ 139.783184099999971, 35.8476035 ] } },
{ "type": "Feature", "properties": { "内容": "ケアサポートそうか瀬崎　平成２６年新規事業所【認知症対応型通所介護】草加市瀬崎２－４６－１５", "url": "https://www.kaigokensaku.mhlw.go.jp/11/index.php?action_kouhyou_detail_004_kani=true&JigyosyoCd=1191800190-00&ServiceCd=720&Type=search", "url2": "http//www.care-support.biz" }, "geometry": { "type": "Point", "coordinates": [ 139.806988600000068, 35.8136427 ] } },
{ "type": "Feature", "properties": { "内容": "デイサービスセンターてしろのにわ【認知症対応型通所介護】埼玉県草加市手代2-12-11", "url": "https://www.kaigokensaku.mhlw.go.jp/11/index.php?action_kouhyou_detail_004_kani=true&JigyosyoCd=1191800034-00&ServiceCd=720&Type=search", "url2": "http://www.shinko-kai.or.jp" }, "geometry": { "type": "Point", "coordinates": [ 139.814618200000041, 35.8225386 ] } },
{ "type": "Feature", "properties": { "内容": "なでしこ【認知症対応型通所介護】越谷市大沢4-19-41ウイング越谷１階", "url": "https://www.kaigokensaku.mhlw.go.jp/11/index.php?action_kouhyou_detail_004_kani=true&JigyosyoCd=1170801268-00&ServiceCd=720&Type=search", "url2": null }, "geometry": { "type": "Point", "coordinates": [ 139.786676200000016, 35.8994841 ] } },
{ "type": "Feature", "properties": { "内容": "こしがや翔裕館【認知症対応型通所介護】平方2815－1", "url": "https://www.kaigokensaku.mhlw.go.jp/11/index.php?action_kouhyou_detail_004_kani=true&JigyosyoCd=1190800712-00&ServiceCd=720&Type=search", "url2": "https：//www.sanga-kaigo.co.jp" }, "geometry": { "type": "Point", "coordinates": [ 139.783943099999988, 35.9466941 ] } },
{ "type": "Feature", "properties": { "内容": "越谷なごみの郷【認知症対応型通所介護】埼玉県越谷市川柳町３－５５－１", "url": "https://www.kaigokensaku.mhlw.go.jp/11/index.php?action_kouhyou_detail_004_kani=true&JigyosyoCd=1190800092-00&ServiceCd=720&Type=search", "url2": "http://www.k-nagomi.or.jp" }, "geometry": { "type": "Point", "coordinates": [ 139.812957504178939, 35.863730725281883 ] } },
{ "type": "Feature", "properties": { "内容": "あすなろホーム越谷【認知症対応型通所介護】埼玉県越谷市平方393-2あすなろホーム越谷", "url": "https://www.kaigokensaku.mhlw.go.jp/11/index.php?action_kouhyou_detail_004_kani=true&JigyosyoCd=1170801201-00&ServiceCd=720&Type=search", "url2": "http：//www.i-ll-group.co.jp" }, "geometry": { "type": "Point", "coordinates": [ 139.784249100000011, 35.9553381 ] } },
{ "type": "Feature", "properties": { "内容": "健康アカデミー別邸【認知症対応型通所介護】埼玉県越谷市蒲生寿町４－２８", "url": "https://www.kaigokensaku.mhlw.go.jp/11/index.php?action_kouhyou_detail_004_kani=true&JigyosyoCd=1190800258-00&ServiceCd=720&Type=search", "url2": "http://kenkou-academy.co.jp" }, "geometry": { "type": "Point", "coordinates": [ 139.794089922090166, 35.867964473733672 ] } },
{ "type": "Feature", "properties": { "内容": "健康アカデミー本邸【認知症対応型通所介護】埼玉県越谷市蒲生寿町５－７越谷メディカルビル３階", "url": "https://www.kaigokensaku.mhlw.go.jp/11/index.php?action_kouhyou_detail_004_kani=true&JigyosyoCd=1170800922-00&ServiceCd=720&Type=search", "url2": "http://www.kenkou-academy.co.jp" }, "geometry": { "type": "Point", "coordinates": [ 139.794266800000059, 35.8677034 ] } },
{ "type": "Feature", "properties": { "内容": "いきいきタウンとだ【認知症対応型通所介護】埼玉県戸田市喜沢南2-5-23", "url": "https://www.kaigokensaku.mhlw.go.jp/11/index.php?action_kouhyou_detail_004_kani=true&JigyosyoCd=1171900564-00&ServiceCd=720&Type=search", "url2": "http://www.ikiikitown-toda.com/" }, "geometry": { "type": "Point", "coordinates": [ 139.6913075, 35.8070316 ] } },
{ "type": "Feature", "properties": { "内容": "ふれあいランド戸田【認知症対応型通所介護】埼玉県戸田市大字上戸田５番地の４", "url": "https://www.kaigokensaku.mhlw.go.jp/11/index.php?action_kouhyou_detail_004_kani=true&JigyosyoCd=1171900168-00&ServiceCd=720&Type=search", "url2": "https://www.toda-fukushinomori.or.jp" }, "geometry": { "type": "Point", "coordinates": [ 139.673731099999941, 35.8145438 ] } },
{ "type": "Feature", "properties": { "内容": "デイサービスセンターもみじ【認知症対応型通所介護】埼玉県戸田市笹目南町20-24横山ハイツ　1階", "url": "https://www.kaigokensaku.mhlw.go.jp/11/index.php?action_kouhyou_detail_004_kani=true&JigyosyoCd=1171900283-00&ServiceCd=720&Type=search", "url2": null }, "geometry": { "type": "Point", "coordinates": [ 139.653210700000045, 35.812999 ] } },
{ "type": "Feature", "properties": { "内容": "デイサービスセンターひいらぎの里【認知症対応型通所介護】埼玉県朝霞市岡３－１７－６０", "url": "https://www.kaigokensaku.mhlw.go.jp/11/index.php?action_kouhyou_detail_004_kani=true&JigyosyoCd=1172100271-00&ServiceCd=720&Type=search", "url2": "http://www.hiiragi-sato.co.jp" }, "geometry": { "type": "Point", "coordinates": [ 139.605126299999938, 35.8095566 ] } },
{ "type": "Feature", "properties": { "内容": "デイサービスひいらぎの里　溝沼【認知症対応型通所介護】埼玉県朝霞市溝沼7-8-22", "url": "https://www.kaigokensaku.mhlw.go.jp/11/index.php?action_kouhyou_detail_004_kani=true&JigyosyoCd=1192100038-00&ServiceCd=720&Type=search", "url2": "http://www.hiiragi-sato.co.jp/" }, "geometry": { "type": "Point", "coordinates": [ 139.591014500000028, 35.8084802 ] } },
{ "type": "Feature", "properties": { "内容": "健康倶楽部志木幸町【認知症対応型通所介護】埼玉県志木市幸町２－４－１６", "url": "https://www.kaigokensaku.mhlw.go.jp/11/index.php?action_kouhyou_detail_004_kani=true&JigyosyoCd=1192200036-00&ServiceCd=720&Type=search", "url2": null }, "geometry": { "type": "Point", "coordinates": [ 139.568740199999979, 35.8259597 ] } },
{ "type": "Feature", "properties": { "内容": "ホーム下新倉【認知症対応型通所介護】和光市下新倉５－１３－１１", "url": "https://www.kaigokensaku.mhlw.go.jp/11/index.php?action_kouhyou_detail_004_kani=true&JigyosyoCd=1192300067-00&ServiceCd=720&Type=search", "url2": "http://suisei-kai.jp/" }, "geometry": { "type": "Point", "coordinates": [ 139.634737800000039, 35.7949234 ] } },
{ "type": "Feature", "properties": { "内容": "デイホームえん【認知症対応型通所介護】埼玉県新座市石神２－１－４", "url": "https://www.kaigokensaku.mhlw.go.jp/11/index.php?action_kouhyou_detail_004_kani=true&JigyosyoCd=1175100732-00&ServiceCd=720&Type=search", "url2": "htt://npoenn.com/" }, "geometry": { "type": "Point", "coordinates": [ 139.555575399999952, 35.7721273 ] } },
{ "type": "Feature", "properties": { "内容": "クイーンズビラ桶川地域密着型認知症対応型デイサービスセンター【認知症対応型通所介護】埼玉県桶川市坂田845-1", "url": "https://www.kaigokensaku.mhlw.go.jp/11/index.php?action_kouhyou_detail_004_kani=true&JigyosyoCd=1195200041-00&ServiceCd=720&Type=search", "url2": "okenin@queensvilla.com" }, "geometry": { "type": "Point", "coordinates": [ 139.578477186382969, 36.022259519811513 ] } },
{ "type": "Feature", "properties": { "内容": "有限会社てまり指定認知症対応型通所介護事業所【認知症対応型通所介護】埼玉県久喜市久喜東4-21-22", "url": "https://www.kaigokensaku.mhlw.go.jp/11/index.php?action_kouhyou_detail_004_kani=true&JigyosyoCd=1170900318-00&ServiceCd=720&Type=search", "url2": "http://temari-kaigo.net/" }, "geometry": { "type": "Point", "coordinates": [ 139.682551371163981, 36.054957178101525 ] } },
{ "type": "Feature", "properties": { "内容": "あすなろホーム　北本【認知症対応型通所介護】埼玉県北本市中丸4丁目51番5号", "url": "https://www.kaigokensaku.mhlw.go.jp/11/index.php?action_kouhyou_detail_004_kani=true&JigyosyoCd=1175300241-00&ServiceCd=720&Type=search", "url2": "http://www.i-ll-group.co.jp/ash/homeguide/kitamoto.html" }, "geometry": { "type": "Point", "coordinates": [ 139.548910100000057, 36.0253997 ] } },
{ "type": "Feature", "properties": { "内容": "デイサービスセンターえぶりわん鶴瀬Nisi【認知症対応型通所介護】埼玉県富士見市鶴瀬西２－８－２５", "url": "https://www.kaigokensaku.mhlw.go.jp/11/index.php?action_kouhyou_detail_004_kani=true&JigyosyoCd=1192900130-00&ServiceCd=720&Type=search", "url2": "https://turuse-takumi.jp" }, "geometry": { "type": "Point", "coordinates": [ 139.533847798672468, 35.845612821026641 ] } },
{ "type": "Feature", "properties": { "内容": "デイサービスセンターみずほ台【認知症対応型通所介護】埼玉県富士見市東みずほ台３－２１埼玉県富士見市立みずほ台小学校", "url": "https://www.kaigokensaku.mhlw.go.jp/11/index.php?action_kouhyou_detail_004_kani=true&JigyosyoCd=1172900308-00&ServiceCd=720&Type=search", "url2": "https://www.fujimi-shakyo.or.jp/" }, "geometry": { "type": "Point", "coordinates": [ 139.551937185983292, 35.844234455099397 ] } },
{ "type": "Feature", "properties": { "内容": "あすなろホーム　三郷【認知症対応型通所介護】埼玉県三郷市新和4-545-2", "url": "https://www.kaigokensaku.mhlw.go.jp/11/index.php?action_kouhyou_detail_004_kani=true&JigyosyoCd=1171200627-00&ServiceCd=720&Type=search", "url2": "http://www.ill-group.co.jp" }, "geometry": { "type": "Point", "coordinates": [ 139.886643, 35.8124491 ] } },
{ "type": "Feature", "properties": { "内容": "医療法人財団　健和会　認知症デイサービス　のどか（和）新みさと【認知症対応型通所介護】埼玉県三郷市采女1-762階", "url": "https://www.kaigokensaku.mhlw.go.jp/11/index.php?action_kouhyou_detail_004_kani=true&JigyosyoCd=1191200094-00&ServiceCd=720&Type=search", "url2": "http://nodoka.kenwa.or.jp/" }, "geometry": { "type": "Point", "coordinates": [ 139.859849377909853, 35.85774703172207 ] } },
{ "type": "Feature", "properties": { "内容": "地域密着型認知症デイサービスふれあい倶楽部・サテライト事業所和顔施【認知症対応型通所介護】三郷市早稲田3-26-3", "url": "https://www.kaigokensaku.mhlw.go.jp/11/index.php?action_kouhyou_detail_004_kani=true&JigyosyoCd=1171200791-00&ServiceCd=720&Type=search", "url2": "https://akashiakai.com/" }, "geometry": { "type": "Point", "coordinates": [ 139.88920870000004, 35.853599 ] } },
{ "type": "Feature", "properties": { "内容": "あすなろホーム幸手【認知症対応型通所介護】埼玉県幸手市南3-23-30", "url": "https://www.kaigokensaku.mhlw.go.jp/11/index.php?action_kouhyou_detail_004_kani=true&JigyosyoCd=1176100285-00&ServiceCd=720&Type=search", "url2": "http://www.i-ll-group.co.jp" }, "geometry": { "type": "Point", "coordinates": [ 139.710883200000012, 36.0726983 ] } },
{ "type": "Feature", "properties": { "内容": "デイサービスセンター雅【認知症対応型通所介護】埼玉県日高市高萩１７２８－５", "url": "https://www.kaigokensaku.mhlw.go.jp/11/index.php?action_kouhyou_detail_004_kani=true&JigyosyoCd=1196300048-00&ServiceCd=720&Type=search", "url2": "https://www.kouwakai-seigaen.com/" }, "geometry": { "type": "Point", "coordinates": [ 139.373753599999986, 35.9056562 ] } },
{ "type": "Feature", "properties": { "内容": "デイサービスセンター「けやきの家」【認知症対応型通所介護】埼玉県入間郡三芳町北永井２５６－４", "url": "https://www.kaigokensaku.mhlw.go.jp/11/index.php?action_kouhyou_detail_004_kani=true&JigyosyoCd=1172400812-00&ServiceCd=720&Type=search", "url2": "http://ameblo.jp/keyaki3232/" }, "geometry": { "type": "Point", "coordinates": [ 139.515180899027996, 35.836122150841817 ] } },
{ "type": "Feature", "properties": { "内容": "あったかデイ毛呂山【認知症対応型通所介護】埼玉県入間郡毛呂山町若山1-12-9", "url": "https://www.kaigokensaku.mhlw.go.jp/11/index.php?action_kouhyou_detail_004_kani=true&JigyosyoCd=1192400107-00&ServiceCd=720&Type=search", "url2": "http//attakahome.com/" }, "geometry": { "type": "Point", "coordinates": [ 139.3278175, 35.9423993 ] } },
{ "type": "Feature", "properties": { "内容": "デイサービス　梅こよみ【認知症対応型通所介護】大字国神854-6", "url": "https://www.kaigokensaku.mhlw.go.jp/11/index.php?action_kouhyou_detail_004_kani=true&JigyosyoCd=1194800064-00&ServiceCd=720&Type=search", "url2": "umekoyomi.com" }, "geometry": { "type": "Point", "coordinates": [ 139.088771400000013, 36.0823847 ] } },
{ "type": "Feature", "properties": { "内容": "グループホームあかつき【認知症対応型通所介護】埼玉県大里郡寄居町鉢形３１７８－８", "url": "https://www.kaigokensaku.mhlw.go.jp/11/index.php?action_kouhyou_detail_004_kani=true&JigyosyoCd=1174500478-00&ServiceCd=720&Type=search", "url2": "http://www.gh-akatuki.com/" }, "geometry": { "type": "Point", "coordinates": [ 139.197793, 36.0982709 ] } }
]
}
