{
"type": "FeatureCollection",
"name": "geo_11_小規模多機能型居宅介護",
"crs": { "type": "name", "properties": { "name": "urn:ogc:def:crs:OGC:1.3:CRS84" } },
"features": [
{ "type": "Feature", "properties": { "内容": "小規模多機能型居宅介護　扇の森【小規模多機能型居宅介護】埼玉県さいたま市西区中釘2345‐1", "url": "https://www.kaigokensaku.mhlw.go.jp/11/index.php?action_kouhyou_detail_004_kani=true&JigyosyoCd=1196500407-00&ServiceCd=730&Type=search", "url2": "http://www.oginomori.jp/" }, "geometry": { "type": "Point", "coordinates": [ 139.569136500000013, 35.9245442 ] } },
{ "type": "Feature", "properties": { "内容": "小規模多機能　まごころ【小規模多機能型居宅介護】本郷町730番地", "url": "https://www.kaigokensaku.mhlw.go.jp/11/index.php?action_kouhyou_detail_004_kani=true&JigyosyoCd=1196500530-00&ServiceCd=730&Type=search", "url2": "http://shincare-style.co.jp/magokoro/" }, "geometry": { "type": "Point", "coordinates": [ 139.621095800000035, 35.9437479 ] } },
{ "type": "Feature", "properties": { "内容": "小規模多機能多機能型居宅介護かえりえ上小町【小規模多機能型居宅介護】上小町1481-1", "url": "https://www.kaigokensaku.mhlw.go.jp/11/index.php?action_kouhyou_detail_004_kani=true&JigyosyoCd=1196500985-00&ServiceCd=730&Type=search", "url2": "https://search.yasashiite.com/detail/syotaki_kamikocho/" }, "geometry": { "type": "Point", "coordinates": [ 139.615174599999989, 35.8950529 ] } },
{ "type": "Feature", "properties": { "内容": "おたっしゃ倶楽部　おおみや【小規模多機能型居宅介護】埼玉県さいたま市大宮区吉敷町3-57-1", "url": "https://www.kaigokensaku.mhlw.go.jp/11/index.php?action_kouhyou_detail_004_kani=true&JigyosyoCd=1196501017-00&ServiceCd=730&Type=search", "url2": "http://www.otassyaclub.jp" }, "geometry": { "type": "Point", "coordinates": [ 139.632041091857246, 35.899700830203564 ] } },
{ "type": "Feature", "properties": { "内容": "ヒューマンライフケア　見沼の宿【小規模多機能型居宅介護】埼玉県さいたま市見沼区南中野1038-1", "url": "https://www.kaigokensaku.mhlw.go.jp/11/index.php?action_kouhyou_detail_004_kani=true&JigyosyoCd=1196500472-00&ServiceCd=730&Type=search", "url2": "http://hlc.athuman.com/" }, "geometry": { "type": "Point", "coordinates": [ 139.6666315, 35.914294900000016 ] } },
{ "type": "Feature", "properties": { "内容": "小多機かえりえ大和田【小規模多機能型居宅介護】埼玉県さいたま市大和田町1丁目525-1", "url": "https://www.kaigokensaku.mhlw.go.jp/11/index.php?action_kouhyou_detail_004_kani=true&JigyosyoCd=1196500993-00&ServiceCd=730&Type=search", "url2": "http://www.yasashiite.com" }, "geometry": { "type": "Point", "coordinates": [ 139.646073800000067, 35.9248315 ] } },
{ "type": "Feature", "properties": { "内容": "敬寿園七里ホーム小規模多機能型居宅介護事業所アレーズ【小規模多機能型居宅介護】さいたま市見沼区大谷2022-1", "url": "https://www.kaigokensaku.mhlw.go.jp/11/index.php?action_kouhyou_detail_004_kani=true&JigyosyoCd=1196500605-00&ServiceCd=730&Type=search", "url2": "https://www.keijuen.info/nanasato" }, "geometry": { "type": "Point", "coordinates": [ 139.674733045816083, 35.925722954052368 ] } },
{ "type": "Feature", "properties": { "内容": "愛・小規模多機能与野【小規模多機能型居宅介護】八王子1-3-18", "url": "https://www.kaigokensaku.mhlw.go.jp/11/index.php?action_kouhyou_detail_004_kani=true&JigyosyoCd=1196501124-00&ServiceCd=730&Type=search", "url2": "https://i-sogofukushi.com/" }, "geometry": { "type": "Point", "coordinates": [ 139.326458699999989, 35.6528985 ] } },
{ "type": "Feature", "properties": { "内容": "愛・コミュニティホームさいたま田島【小規模多機能型居宅介護】埼玉県さいたま市桜区田島9-17-7", "url": "https://www.kaigokensaku.mhlw.go.jp/11/index.php?action_kouhyou_detail_004_kani=true&JigyosyoCd=1196500670-00&ServiceCd=730&Type=search", "url2": "https://i-sogofukushi.com/" }, "geometry": { "type": "Point", "coordinates": [ 139.622457, 35.845222300000017 ] } },
{ "type": "Feature", "properties": { "内容": "ヒューマンライフケア浦和の宿【小規模多機能型居宅介護】埼玉県さいたま市浦和区東高砂町4-1", "url": "https://www.kaigokensaku.mhlw.go.jp/11/index.php?action_kouhyou_detail_004_kani=true&JigyosyoCd=1196500589-00&ServiceCd=730&Type=search", "url2": "https://kaigo.human-lifecare.jp" }, "geometry": { "type": "Point", "coordinates": [ 139.6590048, 35.8567756 ] } },
{ "type": "Feature", "properties": { "内容": "小規模多機能まごころ浦和元町【小規模多機能型居宅介護】埼玉県さいたま市浦和区元町3-32-23", "url": "https://www.kaigokensaku.mhlw.go.jp/11/index.php?action_kouhyou_detail_004_kani=true&JigyosyoCd=1196501405-00&ServiceCd=730&Type=search", "url2": "https://shinken-net.jp/" }, "geometry": { "type": "Point", "coordinates": [ 139.6551256, 35.8740977 ] } },
{ "type": "Feature", "properties": { "内容": "ひゅーまんらいふけあむさしうらわのやど【小規模多機能型居宅介護】根岸5-2-15", "url": "https://www.kaigokensaku.mhlw.go.jp/11/index.php?action_kouhyou_detail_004_kani=true&JigyosyoCd=1196501215-00&ServiceCd=730&Type=search", "url2": "https://kaigo.human-lifecare.jp/facilities/sh021_MusashiUrawaSH/summary.html" }, "geometry": { "type": "Point", "coordinates": [ 139.656867299999988, 35.8445329 ] } },
{ "type": "Feature", "properties": { "内容": "パナソニック　エイジフリーケアセンターさいたま武蔵浦和・小規模多機能【小規模多機能型居宅介護】埼玉県さいたま市南区内谷6丁目2番26号パナソニックエイジフリーハウスさいたま武蔵浦和", "url": "https://www.kaigokensaku.mhlw.go.jp/11/index.php?action_kouhyou_detail_004_kani=true&JigyosyoCd=1196500845-00&ServiceCd=730&Type=search", "url2": "http://sumai.panasonic.jp/agefree/facility_care/agefree-house/saitamamusashiurawa/" }, "geometry": { "type": "Point", "coordinates": [ 139.646194, 35.8359901 ] } },
{ "type": "Feature", "properties": { "内容": "愛・小規模多機能中尾【小規模多機能型居宅介護】埼玉県さいたま市緑区中尾1338-1", "url": "https://www.kaigokensaku.mhlw.go.jp/11/index.php?action_kouhyou_detail_004_kani=true&JigyosyoCd=1196501280-00&ServiceCd=730&Type=search", "url2": "https://i-sogofukushi.com/" }, "geometry": { "type": "Point", "coordinates": [ 139.685846700000013, 35.8762396 ] } },
{ "type": "Feature", "properties": { "内容": "ミモザ岩槻加倉【小規模多機能型居宅介護】加倉五丁目8番85号", "url": "https://www.kaigokensaku.mhlw.go.jp/11/index.php?action_kouhyou_detail_004_kani=true&JigyosyoCd=1196501462-00&ServiceCd=730&Type=search", "url2": "http://www.mimoza-care.jp" }, "geometry": { "type": "Point", "coordinates": [ 139.692732799999987, 35.940917700000035 ] } },
{ "type": "Feature", "properties": { "内容": "ミモザ川越清水【小規模多機能型居宅介護】清水町9-7", "url": "https://www.kaigokensaku.mhlw.go.jp/11/index.php?action_kouhyou_detail_004_kani=true&JigyosyoCd=1190400349-00&ServiceCd=730&Type=search", "url2": "wwwmimoza-care.com" }, "geometry": { "type": "Point", "coordinates": [ 138.490099, 35.0059568 ] } },
{ "type": "Feature", "properties": { "内容": "医療法人西部診療所小規模多機能こあぜ【小規模多機能型居宅介護】埼玉県川越市鯨井１５７５－５", "url": "https://www.kaigokensaku.mhlw.go.jp/11/index.php?action_kouhyou_detail_004_kani=true&JigyosyoCd=1190400190-00&ServiceCd=730&Type=search", "url2": "https://seibu-hp.jp/" }, "geometry": { "type": "Point", "coordinates": [ 139.4451187, 35.9332491 ] } },
{ "type": "Feature", "properties": { "内容": "小規模多機能　こもれび【小規模多機能型居宅介護】埼玉県川越市大字的場２０９８番２２", "url": "https://www.kaigokensaku.mhlw.go.jp/11/index.php?action_kouhyou_detail_004_kani=true&JigyosyoCd=1190400141-00&ServiceCd=730&Type=search", "url2": null }, "geometry": { "type": "Point", "coordinates": [ 139.434295600000041, 35.9223547 ] } },
{ "type": "Feature", "properties": { "内容": "ミモザ川越石原【小規模多機能型居宅介護】埼玉県川越市石原町2-30-1", "url": "https://www.kaigokensaku.mhlw.go.jp/11/index.php?action_kouhyou_detail_004_kani=true&JigyosyoCd=1190400794-00&ServiceCd=730&Type=search", "url2": "www.mimoza-care.jp" }, "geometry": { "type": "Point", "coordinates": [ 139.4717532, 35.9267958 ] } },
{ "type": "Feature", "properties": { "内容": "小規模多機能型居宅介護事業所園【小規模多機能型居宅介護】埼玉県川越市安比奈新田293-3", "url": "https://www.kaigokensaku.mhlw.go.jp/11/index.php?action_kouhyou_detail_004_kani=true&JigyosyoCd=1190400745-00&ServiceCd=730&Type=search", "url2": "http://www.shinjukai.or.jp" }, "geometry": { "type": "Point", "coordinates": [ 139.417947876854811, 35.900194327782529 ] } },
{ "type": "Feature", "properties": { "内容": "ふれあい多居夢希【小規模多機能型居宅介護】埼玉県川越市宮元町4-8", "url": "https://www.kaigokensaku.mhlw.go.jp/11/index.php?action_kouhyou_detail_004_kani=true&JigyosyoCd=1190400323-00&ServiceCd=730&Type=search", "url2": "https://fureai-hiroba.co.jp" }, "geometry": { "type": "Point", "coordinates": [ -8.24389, 53.41291 ] } },
{ "type": "Feature", "properties": { "内容": "めぐみ　レストサポート【小規模多機能型居宅介護】埼玉県川越市南大塚1-8-38", "url": "https://www.kaigokensaku.mhlw.go.jp/11/index.php?action_kouhyou_detail_004_kani=true&JigyosyoCd=1190400562-00&ServiceCd=730&Type=search", "url2": "http://megumi-grace.com" }, "geometry": { "type": "Point", "coordinates": [ 139.454723300000012, 35.8959589 ] } },
{ "type": "Feature", "properties": { "内容": "多機能ホームあいりす【小規模多機能型居宅介護】石原町2-25-2", "url": "https://www.kaigokensaku.mhlw.go.jp/11/index.php?action_kouhyou_detail_004_kani=true&JigyosyoCd=1190400778-00&ServiceCd=730&Type=search", "url2": null }, "geometry": { "type": "Point", "coordinates": [ 139.47217040000001, 35.9287886 ] } },
{ "type": "Feature", "properties": { "内容": "小規模多機能型居宅介護ココロンの森【小規模多機能型居宅介護】埼玉県熊谷市柿沼898-１", "url": "https://www.kaigokensaku.mhlw.go.jp/11/index.php?action_kouhyou_detail_004_kani=true&JigyosyoCd=1193100359-00&ServiceCd=730&Type=search", "url2": "https://www.mcp-saitama.or.jp/" }, "geometry": { "type": "Point", "coordinates": [ 139.3814002, 36.1635238 ] } },
{ "type": "Feature", "properties": { "内容": "小規模多機能ホームよさげ家三ヶ尻【小規模多機能型居宅介護】熊谷市三ヶ尻１－１", "url": "https://www.kaigokensaku.mhlw.go.jp/11/index.php?action_kouhyou_detail_004_kani=true&JigyosyoCd=1193100219-00&ServiceCd=730&Type=search", "url2": "http://yosageya.com/content1.html" }, "geometry": { "type": "Point", "coordinates": [ 139.33423886560675, 36.155551163135691 ] } },
{ "type": "Feature", "properties": { "内容": "小規模多機能　ほほえみ【小規模多機能型居宅介護】埼玉県熊谷市弥藤吾５０", "url": "https://www.kaigokensaku.mhlw.go.jp/11/index.php?action_kouhyou_detail_004_kani=true&JigyosyoCd=1193100227-00&ServiceCd=730&Type=search", "url2": null }, "geometry": { "type": "Point", "coordinates": [ 139.374966399999948, 36.2218623 ] } },
{ "type": "Feature", "properties": { "内容": "小規模多機能ホーム　よさげ家　小島【小規模多機能型居宅介護】熊谷市小島３６５番地２", "url": "https://www.kaigokensaku.mhlw.go.jp/11/index.php?action_kouhyou_detail_004_kani=true&JigyosyoCd=1193100086-00&ServiceCd=730&Type=search", "url2": null }, "geometry": { "type": "Point", "coordinates": [ 139.335547200000065, 36.1541744 ] } },
{ "type": "Feature", "properties": { "内容": "小規模多機能ホーム里の家【小規模多機能型居宅介護】埼玉県熊谷市中恩田521番地", "url": "https://www.kaigokensaku.mhlw.go.jp/11/index.php?action_kouhyou_detail_004_kani=true&JigyosyoCd=1193100300-00&ServiceCd=730&Type=search", "url2": "https://www.satonoie.co.jp/" }, "geometry": { "type": "Point", "coordinates": [ 139.385450023695398, 36.112753716092641 ] } },
{ "type": "Feature", "properties": { "内容": "小規模多機能　すこやかホーム【小規模多機能型居宅介護】埼玉県川口市仲町１－３６", "url": "https://www.kaigokensaku.mhlw.go.jp/11/index.php?action_kouhyou_detail_004_kani=true&JigyosyoCd=1190201341-00&ServiceCd=730&Type=search", "url2": "https://kawaguchi-sukoyaka.com/" }, "geometry": { "type": "Point", "coordinates": [ 139.708300400000013, 35.8055787 ] } },
{ "type": "Feature", "properties": { "内容": "小規模多機能ホーム芝西【小規模多機能型居宅介護】さいたまけん　かわぐちし　しばふじ1-9-25埼玉県川口市芝富士1-9-25", "url": "https://www.kaigokensaku.mhlw.go.jp/11/index.php?action_kouhyou_detail_004_kani=true&JigyosyoCd=1190201242-00&ServiceCd=730&Type=search", "url2": null }, "geometry": { "type": "Point", "coordinates": [ 139.446600499999988, 35.9962513 ] } },
{ "type": "Feature", "properties": { "内容": "ヨウコーキャッスル鳩ヶ谷【小規模多機能型居宅介護】埼玉県川口市鳩ヶ谷本町3-24-8", "url": "https://www.kaigokensaku.mhlw.go.jp/11/index.php?action_kouhyou_detail_004_kani=true&JigyosyoCd=1190201366-00&ServiceCd=730&Type=search", "url2": "https://rehabili-youko.com/" }, "geometry": { "type": "Point", "coordinates": [ 139.74288356071321, 35.834366247008411 ] } },
{ "type": "Feature", "properties": { "内容": "小規模多機能サービスあいあい新郷【小規模多機能型居宅介護】埼玉県川口市江戸3-25-5あいあい新郷", "url": "https://www.kaigokensaku.mhlw.go.jp/11/index.php?action_kouhyou_detail_004_kani=true&JigyosyoCd=1190201051-00&ServiceCd=730&Type=search", "url2": "i-ai.co.jp" }, "geometry": { "type": "Point", "coordinates": [ 139.7534886, 35.8161693 ] } },
{ "type": "Feature", "properties": { "内容": "小規模多機能ホームうきしろ【小規模多機能型居宅介護】本丸18-3", "url": "https://www.kaigokensaku.mhlw.go.jp/11/index.php?action_kouhyou_detail_004_kani=true&JigyosyoCd=1193700125-00&ServiceCd=730&Type=search", "url2": null }, "geometry": { "type": "Point", "coordinates": [ 139.454107599999986, 36.1369896 ] } },
{ "type": "Feature", "properties": { "内容": "小規模多機能型居宅介護　楓の森【小規模多機能型居宅介護】埼玉県秩父市荒川上田野766番地1", "url": "https://www.kaigokensaku.mhlw.go.jp/11/index.php?action_kouhyou_detail_004_kani=true&JigyosyoCd=1194900138-00&ServiceCd=730&Type=search", "url2": "http://www.chichibu-seihoukai.ne" }, "geometry": { "type": "Point", "coordinates": [ 139.041766300000063, 35.9591918 ] } },
{ "type": "Feature", "properties": { "内容": "小規模多機能型居宅介護　生協花の木ホーム【小規模多機能型居宅介護】埼玉県秩父市上町1-12-11", "url": "https://www.kaigokensaku.mhlw.go.jp/11/index.php?action_kouhyou_detail_004_kani=true&JigyosyoCd=1194900260-00&ServiceCd=730&Type=search", "url2": "https://www.mcp-saitama-kaigo.com/office/chichibu-care/" }, "geometry": { "type": "Point", "coordinates": [ 139.077134300000012, 35.992487 ] } },
{ "type": "Feature", "properties": { "内容": "小規模多機能居宅介護施設　万葉の郷【小規模多機能型居宅介護】埼玉県秩父市下吉田7624-4", "url": "https://www.kaigokensaku.mhlw.go.jp/11/index.php?action_kouhyou_detail_004_kani=true&JigyosyoCd=1194900187-00&ServiceCd=730&Type=search", "url2": "http://www.shirasuna-keijien.or.jp/message/" }, "geometry": { "type": "Point", "coordinates": [ 139.034709701852449, 36.046864022571626 ] } },
{ "type": "Feature", "properties": { "内容": "多機能ホーム　なの花フォレスト【小規模多機能型居宅介護】埼玉県秩父市黒谷1387-1", "url": "https://www.kaigokensaku.mhlw.go.jp/11/index.php?action_kouhyou_detail_004_kani=true&JigyosyoCd=1194900112-00&ServiceCd=730&Type=search", "url2": "nanohanacare1@amail.plala.or.jp" }, "geometry": { "type": "Point", "coordinates": [ 139.11092210000001, 36.028609299999985 ] } },
{ "type": "Feature", "properties": { "内容": "多機能ホーム　りらふぉれすと【小規模多機能型居宅介護】埼玉県秩父市栃谷435-1", "url": "https://www.kaigokensaku.mhlw.go.jp/11/index.php?action_kouhyou_detail_004_kani=true&JigyosyoCd=1194900120-00&ServiceCd=730&Type=search", "url2": "nanohanacare1@amail.plala.or.jp" }, "geometry": { "type": "Point", "coordinates": [ 139.1190259, 36.0282614 ] } },
{ "type": "Feature", "properties": { "内容": "おおるりの里【小規模多機能型居宅介護】埼玉県秩父市寺尾３３７３－１", "url": "https://www.kaigokensaku.mhlw.go.jp/11/index.php?action_kouhyou_detail_004_kani=true&JigyosyoCd=1194900179-00&ServiceCd=730&Type=search", "url2": null }, "geometry": { "type": "Point", "coordinates": [ 139.073764701852383, 36.010546671915705 ] } },
{ "type": "Feature", "properties": { "内容": "小規模多機能型居宅介護ぽぷら【小規模多機能型居宅介護】埼玉県所沢市下富1070-1", "url": "https://www.kaigokensaku.mhlw.go.jp/11/index.php?action_kouhyou_detail_004_kani=true&JigyosyoCd=1192500617-00&ServiceCd=730&Type=search", "url2": "https://popura.video-c.jp" }, "geometry": { "type": "Point", "coordinates": [ 139.458293235582005, 35.833636956709029 ] } },
{ "type": "Feature", "properties": { "内容": "小規模多機能つどい東所沢【小規模多機能型居宅介護】埼玉県所沢市東所沢2-16-7", "url": "https://www.kaigokensaku.mhlw.go.jp/11/index.php?action_kouhyou_detail_004_kani=true&JigyosyoCd=1192500542-00&ServiceCd=730&Type=search", "url2": "http://www.mcp-net.jp" }, "geometry": { "type": "Point", "coordinates": [ 139.512058599999989, 35.8016668 ] } },
{ "type": "Feature", "properties": { "内容": "多機能ホーム　ゆう【小規模多機能型居宅介護】所沢市小手指元町１－９－２", "url": "https://www.kaigokensaku.mhlw.go.jp/11/index.php?action_kouhyou_detail_004_kani=true&JigyosyoCd=1192500120-00&ServiceCd=730&Type=search", "url2": "https://kuwanomikai.jp/" }, "geometry": { "type": "Point", "coordinates": [ 139.435438200000021, 35.7948661 ] } },
{ "type": "Feature", "properties": { "内容": "小規模多機能さんとめ【小規模多機能型居宅介護】埼玉県所沢市中富1622", "url": "https://www.kaigokensaku.mhlw.go.jp/11/index.php?action_kouhyou_detail_004_kani=true&JigyosyoCd=1192500369-00&ServiceCd=730&Type=search", "url2": "https://santome.mcp-saitamawest.jp/service/shokibo/" }, "geometry": { "type": "Point", "coordinates": [ 139.4813752, 35.8129896 ] } },
{ "type": "Feature", "properties": { "内容": "ニチイケアセンター東狭山ヶ丘【小規模多機能型居宅介護】埼玉県所沢市東狭山ヶ丘3-682-6", "url": "https://www.kaigokensaku.mhlw.go.jp/11/index.php?action_kouhyou_detail_004_kani=true&JigyosyoCd=1192500567-00&ServiceCd=730&Type=search", "url2": "https://www.nichii-kaigo.jp/base/base-result/05Q72/" }, "geometry": { "type": "Point", "coordinates": [ 139.4221694, 35.8148028 ] } },
{ "type": "Feature", "properties": { "内容": "小規模多機能ホーム　飛鳥野の森【小規模多機能型居宅介護】所沢市神米金505－1地域密着型高齢者施設　飛鳥野の森", "url": "https://www.kaigokensaku.mhlw.go.jp/11/index.php?action_kouhyou_detail_004_kani=true&JigyosyoCd=1192500070-00&ServiceCd=730&Type=search", "url2": "asukanonosato@mbn.nifty.com" }, "geometry": { "type": "Point", "coordinates": [ 139.454286582942132, 35.821628215894513 ] } },
{ "type": "Feature", "properties": { "内容": "ミモザ花咲　〔平成23年度新規事業所〕【小規模多機能型居宅介護】加須市北小浜146-7", "url": "https://www.kaigokensaku.mhlw.go.jp/11/index.php?action_kouhyou_detail_004_kani=true&JigyosyoCd=1193800057-00&ServiceCd=730&Type=search", "url2": "http://www.mimoza-care.jp/" }, "geometry": { "type": "Point", "coordinates": [ 139.615957868656324, 36.125778488377136 ] } },
{ "type": "Feature", "properties": { "内容": "あったかほーむ　下野堂【小規模多機能型居宅介護】埼玉県本庄市下野堂1丁目14番12", "url": "https://www.kaigokensaku.mhlw.go.jp/11/index.php?action_kouhyou_detail_004_kani=true&JigyosyoCd=1194300180-00&ServiceCd=730&Type=search", "url2": "www.fb-kaigo.co.jp/" }, "geometry": { "type": "Point", "coordinates": [ 139.166156199999932, 36.2494533 ] } },
{ "type": "Feature", "properties": { "内容": "しゃくなげ荘【小規模多機能型居宅介護】埼玉県本庄市前原2-2-33", "url": "https://www.kaigokensaku.mhlw.go.jp/11/index.php?action_kouhyou_detail_004_kani=true&JigyosyoCd=1194300081-00&ServiceCd=730&Type=search", "url2": null }, "geometry": { "type": "Point", "coordinates": [ 139.176991899999962, 36.2391174 ] } },
{ "type": "Feature", "properties": { "内容": "小規模多機能ホームひがしまつやま寿苑【小規模多機能型居宅介護】東松山市柏崎628-1", "url": "https://www.kaigokensaku.mhlw.go.jp/11/index.php?action_kouhyou_detail_004_kani=true&JigyosyoCd=1193300041-00&ServiceCd=730&Type=search", "url2": "http://care-net.biz//11/ihmk-jp" }, "geometry": { "type": "Point", "coordinates": [ 139.42189361045078, 36.027184684774674 ] } },
{ "type": "Feature", "properties": { "内容": "小規模多機能居宅介護あすみーる【小規模多機能型居宅介護】東松山市松葉町2－5－37", "url": "https://www.kaigokensaku.mhlw.go.jp/11/index.php?action_kouhyou_detail_004_kani=true&JigyosyoCd=1193300033-00&ServiceCd=730&Type=search", "url2": "http://www.smile-shakyo.jp/" }, "geometry": { "type": "Point", "coordinates": [ 139.395328799999987, 36.0409401 ] } },
{ "type": "Feature", "properties": { "内容": "小規模多機能きらら春日部【小規模多機能型居宅介護】埼玉県春日部市浜川戸1-5-10きらら春日部", "url": "https://www.kaigokensaku.mhlw.go.jp/11/index.php?action_kouhyou_detail_004_kani=true&JigyosyoCd=1190600195-00&ServiceCd=730&Type=search", "url2": "http://www.starts.co.jp/s-careservice" }, "geometry": { "type": "Point", "coordinates": [ 138.252924, 36.204824 ] } },
{ "type": "Feature", "properties": { "内容": "小規模多機能ひだまり【小規模多機能型居宅介護】埼玉県春日部市谷原2-4-7生協ケアホームひだまり　１階", "url": "https://www.kaigokensaku.mhlw.go.jp/11/index.php?action_kouhyou_detail_004_kani=true&JigyosyoCd=1190600419-00&ServiceCd=730&Type=search", "url2": "https://www.mcp-saitama-kaigo.co.jp" }, "geometry": { "type": "Point", "coordinates": [ 139.746681700000011, 35.9709398 ] } },
{ "type": "Feature", "properties": { "内容": "愛・小規模多機能豊野町【小規模多機能型居宅介護】埼玉県春日部市豊野町1-33-10", "url": "https://www.kaigokensaku.mhlw.go.jp/11/index.php?action_kouhyou_detail_004_kani=true&JigyosyoCd=1190600245-00&ServiceCd=730&Type=search", "url2": "https://i-sogofukushi.com/" }, "geometry": { "type": "Point", "coordinates": [ 139.789666176057381, 35.957729833195437 ] } },
{ "type": "Feature", "properties": { "内容": "多機能ホームつばさ弐番館【小規模多機能型居宅介護】埼玉県狭山市柏原1661-1", "url": "https://www.kaigokensaku.mhlw.go.jp/11/index.php?action_kouhyou_detail_004_kani=true&JigyosyoCd=1192700233-00&ServiceCd=730&Type=search", "url2": "http://www.aimshiki-kaigo.com" }, "geometry": { "type": "Point", "coordinates": [ 139.4060328, 35.8846585 ] } },
{ "type": "Feature", "properties": { "内容": "多機能ホームつばさ【小規模多機能型居宅介護】入間川3-12-10", "url": "https://www.kaigokensaku.mhlw.go.jp/11/index.php?action_kouhyou_detail_004_kani=true&JigyosyoCd=1192700167-00&ServiceCd=730&Type=search", "url2": "https://aimshiki-kaigo.com/" }, "geometry": { "type": "Point", "coordinates": [ 139.405983, 35.855386 ] } },
{ "type": "Feature", "properties": { "内容": "小規模多機能型居宅介護　ルミエール【小規模多機能型居宅介護】埼玉県羽生市上岩瀬1792-1", "url": "https://www.kaigokensaku.mhlw.go.jp/11/index.php?action_kouhyou_detail_004_kani=true&JigyosyoCd=1193900055-00&ServiceCd=730&Type=search", "url2": "www.lumie-re.com" }, "geometry": { "type": "Point", "coordinates": [ 139.5135659, 36.1623484 ] } },
{ "type": "Feature", "properties": { "内容": "あったかほーむ藤井【小規模多機能型居宅介護】埼玉県羽生市藤井上組357-1", "url": "https://www.kaigokensaku.mhlw.go.jp/11/index.php?action_kouhyou_detail_004_kani=true&JigyosyoCd=1193900105-00&ServiceCd=730&Type=search", "url2": "https://fb-kaigo.co.jp/" }, "geometry": { "type": "Point", "coordinates": [ 139.56171560000007, 36.1838226 ] } },
{ "type": "Feature", "properties": { "内容": "小松の里【小規模多機能型居宅介護】鴻巣市小松2-8-12", "url": "https://www.kaigokensaku.mhlw.go.jp/11/index.php?action_kouhyou_detail_004_kani=true&JigyosyoCd=1191700051-00&ServiceCd=730&Type=search", "url2": "http://komatunosato.com" }, "geometry": { "type": "Point", "coordinates": [ 139.526071900000034, 36.0405664 ] } },
{ "type": "Feature", "properties": { "内容": "くすの木【小規模多機能型居宅介護】鴻巣市屈巣2187-1", "url": "https://www.kaigokensaku.mhlw.go.jp/11/index.php?action_kouhyou_detail_004_kani=true&JigyosyoCd=1191700077-00&ServiceCd=730&Type=search", "url2": "http://www.justmystage.com/home/fureai/" }, "geometry": { "type": "Point", "coordinates": [ 139.509509100000059, 36.084464 ] } },
{ "type": "Feature", "properties": { "内容": "ふれあい館むくのき弐番館【小規模多機能型居宅介護】国済寺町2-2", "url": "https://www.kaigokensaku.mhlw.go.jp/11/index.php?action_kouhyou_detail_004_kani=true&JigyosyoCd=1194600399-00&ServiceCd=730&Type=search", "url2": "https://corporate.shinei-kai.com" }, "geometry": { "type": "Point", "coordinates": [ 139.308028, 36.189989 ] } },
{ "type": "Feature", "properties": { "内容": "多機能ケアさくらホーム【小規模多機能型居宅介護】埼玉県深谷市折之口７０２番地", "url": "https://www.kaigokensaku.mhlw.go.jp/11/index.php?action_kouhyou_detail_004_kani=true&JigyosyoCd=1194600126-00&ServiceCd=730&Type=search", "url2": "takinou@art-c.cojp" }, "geometry": { "type": "Point", "coordinates": [ 139.2881678, 36.1557425 ] } },
{ "type": "Feature", "properties": { "内容": "多機能ホームふれあい館むくのき【小規模多機能型居宅介護】埼玉県深谷市稲荷町２丁目７番地２２号", "url": "https://www.kaigokensaku.mhlw.go.jp/11/index.php?action_kouhyou_detail_004_kani=true&JigyosyoCd=1194600175-00&ServiceCd=730&Type=search", "url2": "http://www.shin-e.co.jp/mukunoki/" }, "geometry": { "type": "Point", "coordinates": [ 139.288196800000037, 36.1960884 ] } },
{ "type": "Feature", "properties": { "内容": "ぴぺっと【小規模多機能型居宅介護】埼玉県深谷市上柴町西３丁目８番地１３", "url": "https://www.kaigokensaku.mhlw.go.jp/11/index.php?action_kouhyou_detail_004_kani=true&JigyosyoCd=1194600159-00&ServiceCd=730&Type=search", "url2": null }, "geometry": { "type": "Point", "coordinates": [ 139.30233065344234, 36.183591182858095 ] } },
{ "type": "Feature", "properties": { "内容": "小規模多機能型居宅介護事業所舞姫【小規模多機能型居宅介護】深谷市小前田2671-1", "url": "https://www.kaigokensaku.mhlw.go.jp/11/index.php?action_kouhyou_detail_004_kani=true&JigyosyoCd=1194600084-00&ServiceCd=730&Type=search", "url2": "http://flowervilla.or.jp" }, "geometry": { "type": "Point", "coordinates": [ 139.21766619999994, 36.1339246 ] } },
{ "type": "Feature", "properties": { "内容": "多機能ホームのぞみ【小規模多機能型居宅介護】埼玉県上尾市小敷谷716-1", "url": "https://www.kaigokensaku.mhlw.go.jp/11/index.php?action_kouhyou_detail_004_kani=true&JigyosyoCd=1191600293-00&ServiceCd=730&Type=search", "url2": "https://ygood.jp/" }, "geometry": { "type": "Point", "coordinates": [ 139.5631404, 35.9582862 ] } },
{ "type": "Feature", "properties": { "内容": "多機能ホームたんとん【小規模多機能型居宅介護】上尾市西門前550-2多機能ホームたんとん", "url": "https://www.kaigokensaku.mhlw.go.jp/11/index.php?action_kouhyou_detail_004_kani=true&JigyosyoCd=1191600160-00&ServiceCd=730&Type=search", "url2": "koushiageo.t@sage.ocn.ne.jp" }, "geometry": { "type": "Point", "coordinates": [ 139.586304899999959, 35.9965703 ] } },
{ "type": "Feature", "properties": { "内容": "小規模多機能ふくしのまち北上尾【小規模多機能型居宅介護】埼玉県上尾市浅間台3-20-6", "url": "https://www.kaigokensaku.mhlw.go.jp/11/index.php?action_kouhyou_detail_004_kani=true&JigyosyoCd=1191600327-00&ServiceCd=730&Type=search", "url2": "https://www.saint-care.com/youism/" }, "geometry": { "type": "Point", "coordinates": [ 139.573199499999987, 35.9763265 ] } },
{ "type": "Feature", "properties": { "内容": "多機能ホームたんとん原市【小規模多機能型居宅介護】埼玉県上尾市原市1454－3", "url": "https://www.kaigokensaku.mhlw.go.jp/11/index.php?action_kouhyou_detail_004_kani=true&JigyosyoCd=1191600301-00&ServiceCd=730&Type=search", "url2": null }, "geometry": { "type": "Point", "coordinates": [ 139.6157455, 35.9751452 ] } },
{ "type": "Feature", "properties": { "内容": "ニチイケアセンター草加住吉【小規模多機能型居宅介護】埼玉県草加市住吉１－１１－３８", "url": "https://www.kaigokensaku.mhlw.go.jp/11/index.php?action_kouhyou_detail_004_kani=true&JigyosyoCd=1191800117-00&ServiceCd=730&Type=search", "url2": "http://www.nichiigakkan.co.jp" }, "geometry": { "type": "Point", "coordinates": [ 139.8044049, 35.8327895 ] } },
{ "type": "Feature", "properties": { "内容": "小規模多機能型居宅介護　ソラスト草加【小規模多機能型居宅介護】埼玉県草加市原町3-15-30", "url": "https://www.kaigokensaku.mhlw.go.jp/11/index.php?action_kouhyou_detail_004_kani=true&JigyosyoCd=1191800448-00&ServiceCd=730&Type=search", "url2": "https://solasto-kaigo.com/service/small/souka" }, "geometry": { "type": "Point", "coordinates": [ 139.774304, 35.8502648 ] } },
{ "type": "Feature", "properties": { "内容": "はなまるライフ草加松原【小規模多機能型居宅介護】埼玉県草加市松原2-1-2", "url": "https://www.kaigokensaku.mhlw.go.jp/11/index.php?action_kouhyou_detail_004_kani=true&JigyosyoCd=1191800299-00&ServiceCd=730&Type=search", "url2": "https://www.aiseifukushi.jp/" }, "geometry": { "type": "Point", "coordinates": [ 139.795733499999983, 35.843108 ] } },
{ "type": "Feature", "properties": { "内容": "小規模多機能ふくしのまち大袋【小規模多機能型居宅介護】埼玉県越谷市袋山1088-1", "url": "https://www.kaigokensaku.mhlw.go.jp/11/index.php?action_kouhyou_detail_004_kani=true&JigyosyoCd=1190800407-00&ServiceCd=730&Type=search", "url2": "https：//www.youism.saint-care.com" }, "geometry": { "type": "Point", "coordinates": [ 139.778149986508168, 35.9267293832891 ] } },
{ "type": "Feature", "properties": { "内容": "こしがや翔裕館【小規模多機能型居宅介護】埼玉県越谷市平方2815-1こしがや翔裕館", "url": "https://www.kaigokensaku.mhlw.go.jp/11/index.php?action_kouhyou_detail_004_kani=true&JigyosyoCd=1190800712-00&ServiceCd=730&Type=search", "url2": "https://sangajapan.jp/koshigaya/koshigaya01/" }, "geometry": { "type": "Point", "coordinates": [ 139.784019699999988, 35.9465897 ] } },
{ "type": "Feature", "properties": { "内容": "ＳＯＭＰＯケア北越谷小規模多機能【小規模多機能型居宅介護】埼玉県越谷市北越谷1-18-2", "url": "https://www.kaigokensaku.mhlw.go.jp/11/index.php?action_kouhyou_detail_004_kani=true&JigyosyoCd=1190800522-00&ServiceCd=730&Type=search", "url2": "https://www.sompocare.com/service/zaitaku/kaigo/Z000263" }, "geometry": { "type": "Point", "coordinates": [ 139.781169, 35.8962552 ] } },
{ "type": "Feature", "properties": { "内容": "ゆとり庵北越谷小規模多機能居宅介護【小規模多機能型居宅介護】埼玉県越谷市大字大道643番地", "url": "https://www.kaigokensaku.mhlw.go.jp/11/index.php?action_kouhyou_detail_004_kani=true&JigyosyoCd=1190800753-00&ServiceCd=730&Type=search", "url2": "https://hinode.or.jp/establishment/kitakoshigaya/" }, "geometry": { "type": "Point", "coordinates": [ 139.757181527858648, 35.921895184448474 ] } },
{ "type": "Feature", "properties": { "内容": "ニチイケアセンター越谷北　やわらぎ【小規模多機能型居宅介護】埼玉県越谷市千間台西2-23-5", "url": "https://www.kaigokensaku.mhlw.go.jp/11/index.php?action_kouhyou_detail_004_kani=true&JigyosyoCd=1190800225-00&ServiceCd=730&Type=search", "url2": "http：//www.nichiigakann.co.jp" }, "geometry": { "type": "Point", "coordinates": [ 139.767564099999987, 35.9297467 ] } },
{ "type": "Feature", "properties": { "内容": "小規模多機能型居宅介護　ゆとり庵北越谷別邸【小規模多機能型居宅介護】埼玉県越谷市大字袋山171番1", "url": "https://www.kaigokensaku.mhlw.go.jp/11/index.php?action_kouhyou_detail_004_kani=true&JigyosyoCd=1190800878-00&ServiceCd=730&Type=search", "url2": "https://hinode.or.jp/establishment/shoukibo-koshigayabettei/" }, "geometry": { "type": "Point", "coordinates": [ 139.773572300000041, 35.9200654 ] } },
{ "type": "Feature", "properties": { "内容": "小規模多機能ホーム　川柳【小規模多機能型居宅介護】埼玉県越谷市川柳町1丁目166番地1", "url": "https://www.kaigokensaku.mhlw.go.jp/11/index.php?action_kouhyou_detail_004_kani=true&JigyosyoCd=1190800613-00&ServiceCd=730&Type=search", "url2": "http://www.enzeru.co.jp/" }, "geometry": { "type": "Point", "coordinates": [ 139.807113100000038, 35.8752031 ] } },
{ "type": "Feature", "properties": { "内容": "小規模多機能施設ひまわり【小規模多機能型居宅介護】埼玉県越谷市川柳町1-305高齢者福祉施設　ひまわり", "url": "https://www.kaigokensaku.mhlw.go.jp/11/index.php?action_kouhyou_detail_004_kani=true&JigyosyoCd=1190800159-00&ServiceCd=730&Type=search", "url2": "http://www.kagayaki-group.com/" }, "geometry": { "type": "Point", "coordinates": [ 139.808702928836055, 35.872924224903983 ] } },
{ "type": "Feature", "properties": { "内容": "エスケアライフ越谷蒲生【小規模多機能型居宅介護】埼玉県越谷市蒲生2-11-9", "url": "https://www.kaigokensaku.mhlw.go.jp/11/index.php?action_kouhyou_detail_004_kani=true&JigyosyoCd=1190800431-00&ServiceCd=730&Type=search", "url2": "https://www.s-caremate.co.jp/" }, "geometry": { "type": "Point", "coordinates": [ 139.800742190212986, 35.861533125492464 ] } },
{ "type": "Feature", "properties": { "内容": "エスケアライフ越谷【小規模多機能型居宅介護】埼玉県越谷市七左町一丁目69番3", "url": "https://www.kaigokensaku.mhlw.go.jp/11/index.php?action_kouhyou_detail_004_kani=true&JigyosyoCd=1190800324-00&ServiceCd=730&Type=search", "url2": "http://www.s-caremate.co.jp/" }, "geometry": { "type": "Point", "coordinates": [ 139.782508600000028, 35.8678482 ] } },
{ "type": "Feature", "properties": { "内容": "ふれあい多居夢蕨【小規模多機能型居宅介護】埼玉県蕨市中央3-15-22", "url": "https://www.kaigokensaku.mhlw.go.jp/11/index.php?action_kouhyou_detail_004_kani=true&JigyosyoCd=1191400082-00&ServiceCd=730&Type=search", "url2": "https://fureai-hiroba.co.jp/" }, "geometry": { "type": "Point", "coordinates": [ -8.24389, 53.41291 ] } },
{ "type": "Feature", "properties": { "内容": "ぱるの家きざわ【小規模多機能型居宅介護】戸田市喜沢南2-5-23", "url": "https://www.kaigokensaku.mhlw.go.jp/11/index.php?action_kouhyou_detail_004_kani=true&JigyosyoCd=1191900073-00&ServiceCd=730&Type=search", "url2": "http://www.shafuku-pal.or.jp/" }, "geometry": { "type": "Point", "coordinates": [ 139.6913075, 35.8070316 ] } },
{ "type": "Feature", "properties": { "内容": "小規模多機能ホーム　戸田さくらそう【小規模多機能型居宅介護】埼玉県戸田市本町3-9-13", "url": "https://www.kaigokensaku.mhlw.go.jp/11/index.php?action_kouhyou_detail_004_kani=true&JigyosyoCd=1191900115-00&ServiceCd=730&Type=search", "url2": "https://sakura-so.st-staff.co.jp/toda/" }, "geometry": { "type": "Point", "coordinates": [ 139.671898100000021, 35.8096695 ] } },
{ "type": "Feature", "properties": { "内容": "まごころの家＊あゆみ入間【小規模多機能型居宅介護】入間市大字野田５８３番地１", "url": "https://www.kaigokensaku.mhlw.go.jp/11/index.php?action_kouhyou_detail_004_kani=true&JigyosyoCd=1192800066-00&ServiceCd=730&Type=search", "url2": "www.magokorokaigo.com" }, "geometry": { "type": "Point", "coordinates": [ 139.35187940000003, 35.8441635 ] } },
{ "type": "Feature", "properties": { "内容": "杜の家あい　藤沢【小規模多機能型居宅介護】埼玉県入間市上藤沢330-3", "url": "https://www.kaigokensaku.mhlw.go.jp/11/index.php?action_kouhyou_detail_004_kani=true&JigyosyoCd=1192800116-00&ServiceCd=730&Type=search", "url2": "contact@iruma-ainosato.jp" }, "geometry": { "type": "Point", "coordinates": [ 139.3993878, 35.8182597 ] } },
{ "type": "Feature", "properties": { "内容": "小規模多機能型居宅介護事業所杜の家あい【小規模多機能型居宅介護】入間市森坂４－１２", "url": "https://www.kaigokensaku.mhlw.go.jp/11/index.php?action_kouhyou_detail_004_kani=true&JigyosyoCd=1192800025-00&ServiceCd=730&Type=search", "url2": "https://ai-iruma.jp" }, "geometry": { "type": "Point", "coordinates": [ 139.373206, 35.836054 ] } },
{ "type": "Feature", "properties": { "内容": "多機能ホーム　桜ヶ丘【小規模多機能型居宅介護】埼玉県朝霞市幸町1-11-7", "url": "https://www.kaigokensaku.mhlw.go.jp/11/index.php?action_kouhyou_detail_004_kani=true&JigyosyoCd=1192100079-00&ServiceCd=730&Type=search", "url2": "https://niizafukushikai.or.jp/" }, "geometry": { "type": "Point", "coordinates": [ 139.589000299999952, 35.7976438 ] } },
{ "type": "Feature", "properties": { "内容": "多機能ホーム安心のおせわ～く【小規模多機能型居宅介護】埼玉県朝霞市大字浜崎６７６番", "url": "https://www.kaigokensaku.mhlw.go.jp/11/index.php?action_kouhyou_detail_004_kani=true&JigyosyoCd=1192100178-00&ServiceCd=730&Type=search", "url2": "http://www.lundal.co.jp/" }, "geometry": { "type": "Point", "coordinates": [ 139.600591, 35.8176583 ] } },
{ "type": "Feature", "properties": { "内容": "ニチイケアセンター志木中宗岡　やわらぎ【小規模多機能型居宅介護】志木市中宗岡2丁目20番2号", "url": "https://www.kaigokensaku.mhlw.go.jp/11/index.php?action_kouhyou_detail_004_kani=true&JigyosyoCd=1192200051-00&ServiceCd=730&Type=search", "url2": "http://www.nichiigakkan.co.jp" }, "geometry": { "type": "Point", "coordinates": [ 139.589923900000031, 35.8421273 ] } },
{ "type": "Feature", "properties": { "内容": "多機能ホーム　たての杜【小規模多機能型居宅介護】埼玉県志木市幸町4-7-8", "url": "https://www.kaigokensaku.mhlw.go.jp/11/index.php?action_kouhyou_detail_004_kani=true&JigyosyoCd=1192200069-00&ServiceCd=730&Type=search", "url2": "https://niizafukushikai.or.jp" }, "geometry": { "type": "Point", "coordinates": [ 139.562210400000026, 35.8211381 ] } },
{ "type": "Feature", "properties": { "内容": "和光市新倉高齢者福祉センター【小規模多機能型居宅介護】和光市新倉1-20-39", "url": "https://www.kaigokensaku.mhlw.go.jp/11/index.php?action_kouhyou_detail_004_kani=true&JigyosyoCd=1192300059-00&ServiceCd=730&Type=search", "url2": "http://www.merhalsa.jp" }, "geometry": { "type": "Point", "coordinates": [ 139.614772899999906, 35.7952116 ] } },
{ "type": "Feature", "properties": { "内容": "小規模多機能型居宅介護広沢【小規模多機能型居宅介護】埼玉県和光市広沢1番１", "url": "https://www.kaigokensaku.mhlw.go.jp/11/index.php?action_kouhyou_detail_004_kani=true&JigyosyoCd=1192300091-00&ServiceCd=730&Type=search", "url2": "http://n-m-d.jp/area/hirosawa" }, "geometry": { "type": "Point", "coordinates": [ 139.60930970000004, 35.7831272 ] } },
{ "type": "Feature", "properties": { "内容": "小規模多機能型居宅介護事業所わこうの丘【小規模多機能型居宅介護】埼玉県和光市下新倉３－７－７", "url": "https://www.kaigokensaku.mhlw.go.jp/11/index.php?action_kouhyou_detail_004_kani=true&JigyosyoCd=1192300018-00&ServiceCd=730&Type=search", "url2": "https://wakounooka.com/" }, "geometry": { "type": "Point", "coordinates": [ 139.622263800000042, 35.7898405 ] } },
{ "type": "Feature", "properties": { "内容": "和光ホーム【小規模多機能型居宅介護】埼玉県和光市諏訪２－４", "url": "https://www.kaigokensaku.mhlw.go.jp/11/index.php?action_kouhyou_detail_004_kani=true&JigyosyoCd=1192300034-00&ServiceCd=730&Type=search", "url2": "http://suisei-kai.jp/" }, "geometry": { "type": "Point", "coordinates": [ 139.619264199999947, 35.7744621 ] } },
{ "type": "Feature", "properties": { "内容": "ミモザ新座【小規模多機能型居宅介護】埼玉県新座市東北一丁目3番15号", "url": "https://www.kaigokensaku.mhlw.go.jp/11/index.php?action_kouhyou_detail_004_kani=true&JigyosyoCd=1195100118-00&ServiceCd=730&Type=search", "url2": "https://mimoza-care.com" }, "geometry": { "type": "Point", "coordinates": [ 139.5695685, 35.817779 ] } },
{ "type": "Feature", "properties": { "内容": "多機能ホームまどか【小規模多機能型居宅介護】埼玉県新座市石神４－４－３３", "url": "https://www.kaigokensaku.mhlw.go.jp/11/index.php?action_kouhyou_detail_004_kani=true&JigyosyoCd=1195100043-00&ServiceCd=730&Type=search", "url2": "http://npoenn.com/" }, "geometry": { "type": "Point", "coordinates": [ 139.55221852943032, 35.769213568001803 ] } },
{ "type": "Feature", "properties": { "内容": "北本ひまわりケアサポート【小規模多機能型居宅介護】埼玉県北本市中丸7-52-1", "url": "https://www.kaigokensaku.mhlw.go.jp/11/index.php?action_kouhyou_detail_004_kani=true&JigyosyoCd=1195300072-00&ServiceCd=730&Type=search", "url2": "https://himawari-caresupport.com/" }, "geometry": { "type": "Point", "coordinates": [ 139.552996399999984, 36.0179034 ] } },
{ "type": "Feature", "properties": { "内容": "小規模多機能ホーム　コープ夢みらい北本【小規模多機能型居宅介護】埼玉県北本市下石戸下1512-1", "url": "https://www.kaigokensaku.mhlw.go.jp/11/index.php?action_kouhyou_detail_004_kani=true&JigyosyoCd=1195300106-00&ServiceCd=730&Type=search", "url2": "https://mirai.coopnet.or.jp/service/welfare/yumemirai_kitamoto.html" }, "geometry": { "type": "Point", "coordinates": [ 139.537347, 36.0179009 ] } },
{ "type": "Feature", "properties": { "内容": "小規模多機能ケア　あおぞら【小規模多機能型居宅介護】北本市東間6-106", "url": "https://www.kaigokensaku.mhlw.go.jp/11/index.php?action_kouhyou_detail_004_kani=true&JigyosyoCd=1195300015-00&ServiceCd=730&Type=search", "url2": "yuyucare.jp" }, "geometry": { "type": "Point", "coordinates": [ 139.528489805279605, 36.041512306770123 ] } },
{ "type": "Feature", "properties": { "内容": "愛・小規模多機能大曽根【小規模多機能型居宅介護】埼玉県八潮市大字大曽根378-1", "url": "https://www.kaigokensaku.mhlw.go.jp/11/index.php?action_kouhyou_detail_004_kani=true&JigyosyoCd=1191000072-00&ServiceCd=730&Type=search", "url2": "https://i-sogofukushi.com/" }, "geometry": { "type": "Point", "coordinates": [ 139.82786762883606, 35.809271855738345 ] } },
{ "type": "Feature", "properties": { "内容": "愛・小規模多機能潮止【小規模多機能型居宅介護】埼玉県八潮市大字南川崎455-2", "url": "https://www.kaigokensaku.mhlw.go.jp/11/index.php?action_kouhyou_detail_004_kani=true&JigyosyoCd=1191000064-00&ServiceCd=730&Type=search", "url2": "https://i-sogofukushi.com/" }, "geometry": { "type": "Point", "coordinates": [ 139.8592681, 35.816162 ] } },
{ "type": "Feature", "properties": { "内容": "ニチイケアセンター鶴馬　ニチイのやわらぎ【小規模多機能型居宅介護】埼玉県富士見市鶴馬３２３４番１", "url": "https://www.kaigokensaku.mhlw.go.jp/11/index.php?action_kouhyou_detail_004_kani=true&JigyosyoCd=1192900072-00&ServiceCd=730&Type=search", "url2": "http://www.nichiigakkan.co.jp" }, "geometry": { "type": "Point", "coordinates": [ 139.549829600000066, 35.848443 ] } },
{ "type": "Feature", "properties": { "内容": "小規模多機能ホームみずほ苑【小規模多機能型居宅介護】埼玉県富士見市関沢３丁目２３番４１号関沢みずほ苑", "url": "https://www.kaigokensaku.mhlw.go.jp/11/index.php?action_kouhyou_detail_004_kani=true&JigyosyoCd=1192900171-00&ServiceCd=730&Type=search", "url2": "http://www.mizuhoen.com" }, "geometry": { "type": "Point", "coordinates": [ 139.543402900000046, 35.8367525 ] } },
{ "type": "Feature", "properties": { "内容": "小規模多機能型居宅介護むさしの【小規模多機能型居宅介護】埼玉県富士見市水子1882番1", "url": "https://www.kaigokensaku.mhlw.go.jp/11/index.php?action_kouhyou_detail_004_kani=true&JigyosyoCd=1192900122-00&ServiceCd=730&Type=search", "url2": "http://www.f-musashino.jp/hidamari/hidamari.html" }, "geometry": { "type": "Point", "coordinates": [ 139.564598199999978, 35.8446019 ] } },
{ "type": "Feature", "properties": { "内容": "多機能ホームえぶりわん鶴瀬Ｎｉｓｉ【小規模多機能型居宅介護】埼玉県富士見市鶴瀬西2-8-25", "url": "https://www.kaigokensaku.mhlw.go.jp/11/index.php?action_kouhyou_detail_004_kani=true&JigyosyoCd=1192900155-00&ServiceCd=730&Type=search", "url2": "https://turuse-takumi.jp" }, "geometry": { "type": "Point", "coordinates": [ 139.533965815869124, 35.845473672555791 ] } },
{ "type": "Feature", "properties": { "内容": "小規模多機能型居宅介護こばと【小規模多機能型居宅介護】埼玉県三郷市中央4-8-7", "url": "https://www.kaigokensaku.mhlw.go.jp/11/index.php?action_kouhyou_detail_004_kani=true&JigyosyoCd=1191200243-00&ServiceCd=730&Type=search", "url2": null }, "geometry": { "type": "Point", "coordinates": [ 139.879155130562026, 35.831418168407154 ] } },
{ "type": "Feature", "properties": { "内容": "小規模多機能サービス　馬渡さん家【小規模多機能型居宅介護】埼玉県三郷市鷹野五丁目５１６－１　1階ＴＰＧケアテラスよまき", "url": "https://www.kaigokensaku.mhlw.go.jp/11/index.php?action_kouhyou_detail_004_kani=true&JigyosyoCd=1191200037-00&ServiceCd=730&Type=search", "url2": "http://www.sukoyaka-fu.or.jp" }, "geometry": { "type": "Point", "coordinates": [ 139.874341441437082, 35.798104840942877 ] } },
{ "type": "Feature", "properties": { "内容": "百年健康くらぶゆめこうぼう【小規模多機能型居宅介護】埼玉県三郷市彦糸1--180", "url": "https://www.kaigokensaku.mhlw.go.jp/11/index.php?action_kouhyou_detail_004_kani=true&JigyosyoCd=1191200235-00&ServiceCd=730&Type=search", "url2": null }, "geometry": { "type": "Point", "coordinates": [ 139.8432096, 35.857979 ] } },
{ "type": "Feature", "properties": { "内容": "朝陽の縁【小規模多機能型居宅介護】三郷市戸ヶ崎１丁目２２４‐２", "url": "https://www.kaigokensaku.mhlw.go.jp/11/index.php?action_kouhyou_detail_004_kani=true&JigyosyoCd=1191200060-00&ServiceCd=730&Type=search", "url2": "http://assc.co.jp/" }, "geometry": { "type": "Point", "coordinates": [ 139.865568879762236, 35.807535947639941 ] } },
{ "type": "Feature", "properties": { "内容": "小規模多機能みさと【小規模多機能型居宅介護】埼玉県三郷市三郷２－２－２介護医療ビル５F", "url": "https://www.kaigokensaku.mhlw.go.jp/11/index.php?action_kouhyou_detail_004_kani=true&JigyosyoCd=1191200110-00&ServiceCd=730&Type=search", "url2": null }, "geometry": { "type": "Point", "coordinates": [ 139.871046299999989, 35.8556531 ] } },
{ "type": "Feature", "properties": { "内容": "小規模多機能型居宅介護えがお【小規模多機能型居宅介護】埼玉県三郷市早稲田3丁目26番地9号１階", "url": "https://www.kaigokensaku.mhlw.go.jp/11/index.php?action_kouhyou_detail_004_kani=true&JigyosyoCd=1191200078-00&ServiceCd=730&Type=search", "url2": "https://akashiakai.com/index.html" }, "geometry": { "type": "Point", "coordinates": [ 139.8886109, 35.85347 ] } },
{ "type": "Feature", "properties": { "内容": "ほほ笑み【小規模多機能型居宅介護】埼玉県三郷市早稲田5丁目23番地11", "url": "https://www.kaigokensaku.mhlw.go.jp/11/index.php?action_kouhyou_detail_004_kani=true&JigyosyoCd=1191200128-00&ServiceCd=730&Type=search", "url2": "http://www.mt-group.co.jp/hohoemi" }, "geometry": { "type": "Point", "coordinates": [ 139.880100389549312, 35.855296591421435 ] } },
{ "type": "Feature", "properties": { "内容": "愛・小規模多機能上彦名【小規模多機能型居宅介護】埼玉県三郷市上彦名117-3", "url": "https://www.kaigokensaku.mhlw.go.jp/11/index.php?action_kouhyou_detail_004_kani=true&JigyosyoCd=1191200219-00&ServiceCd=730&Type=search", "url2": "http://i-sogofukushi.com/" }, "geometry": { "type": "Point", "coordinates": [ 139.8454288, 35.8486399 ] } },
{ "type": "Feature", "properties": { "内容": "小規模多機能型居宅介護好日の家坂戸【小規模多機能型居宅介護】埼玉県坂戸市浅羽1093-1", "url": "https://www.kaigokensaku.mhlw.go.jp/11/index.php?action_kouhyou_detail_004_kani=true&JigyosyoCd=1196000200-00&ServiceCd=730&Type=search", "url2": "https://kyujukai.com/kojitsu_sakado/" }, "geometry": { "type": "Point", "coordinates": [ 139.379930628727749, 35.947872348451966 ] } },
{ "type": "Feature", "properties": { "内容": "小規模多機能型居宅介護事業所さくら【小規模多機能型居宅介護】埼玉県幸手市平須賀2丁目225番地2小規模多機能型居宅介護事業所さくら", "url": "https://www.kaigokensaku.mhlw.go.jp/11/index.php?action_kouhyou_detail_004_kani=true&JigyosyoCd=1196100083-00&ServiceCd=730&Type=search", "url2": "http://kouwakai-saitama.jp/" }, "geometry": { "type": "Point", "coordinates": [ 139.734850620653987, 36.052866925045592 ] } },
{ "type": "Feature", "properties": { "内容": "まごころの家＊あゆみ脚折【小規模多機能型居宅介護】埼玉県鶴ヶ島市脚折町2丁目28－2", "url": "https://www.kaigokensaku.mhlw.go.jp/11/index.php?action_kouhyou_detail_004_kani=true&JigyosyoCd=1196200099-00&ServiceCd=730&Type=search", "url2": "http://www.magokorokaigo.com" }, "geometry": { "type": "Point", "coordinates": [ 139.391459599999962, 35.949073700000014 ] } },
{ "type": "Feature", "properties": { "内容": "まごころの家＊あゆみ藤金【小規模多機能型居宅介護】埼玉県鶴ヶ島市藤金　２２６番地6", "url": "https://www.kaigokensaku.mhlw.go.jp/11/index.php?action_kouhyou_detail_004_kani=true&JigyosyoCd=1196200107-00&ServiceCd=730&Type=search", "url2": "https://www.magokorokaigo.com/use/office/fujigane-sh/" }, "geometry": { "type": "Point", "coordinates": [ 139.411762400000043, 35.9395563 ] } },
{ "type": "Feature", "properties": { "内容": "小規模多機能型居宅介護　武蔵台【小規模多機能型居宅介護】埼玉県日高市武蔵台1-26-8", "url": "https://www.kaigokensaku.mhlw.go.jp/11/index.php?action_kouhyou_detail_004_kani=true&JigyosyoCd=1196300055-00&ServiceCd=730&Type=search", "url2": null }, "geometry": { "type": "Point", "coordinates": [ 139.302791800000023, 35.8801796 ] } },
{ "type": "Feature", "properties": { "内容": "いろどりの里　日高【小規模多機能型居宅介護】埼玉県日高市女影454-4", "url": "https://www.kaigokensaku.mhlw.go.jp/11/index.php?action_kouhyou_detail_004_kani=true&JigyosyoCd=1196300105-00&ServiceCd=730&Type=search", "url2": "https://www.ichishin-care.co.jp/" }, "geometry": { "type": "Point", "coordinates": [ 139.367582099999936, 35.8948102 ] } },
{ "type": "Feature", "properties": { "内容": "小多機　ふぁみりあ俱楽部【小規模多機能型居宅介護】埼玉県日高市原宿91-1", "url": "https://www.kaigokensaku.mhlw.go.jp/11/index.php?action_kouhyou_detail_004_kani=true&JigyosyoCd=1196300121-00&ServiceCd=730&Type=search", "url2": null }, "geometry": { "type": "Point", "coordinates": [ 139.335694600000011, 35.9026346 ] } },
{ "type": "Feature", "properties": { "内容": "愛・小規模多機能木売【小規模多機能型居宅介護】埼玉県吉川市木売2-10-1", "url": "https://www.kaigokensaku.mhlw.go.jp/11/index.php?action_kouhyou_detail_004_kani=true&JigyosyoCd=1196400160-00&ServiceCd=730&Type=search", "url2": "https://i-sogofukushi.com/" }, "geometry": { "type": "Point", "coordinates": [ 139.841807100000011, 35.875093 ] } },
{ "type": "Feature", "properties": { "内容": "生協小規模多機能ホーム大井【小規模多機能型居宅介護】ふじみ野1-1-12", "url": "https://www.kaigokensaku.mhlw.go.jp/11/index.php?action_kouhyou_detail_004_kani=true&JigyosyoCd=1193000146-00&ServiceCd=730&Type=search", "url2": "https://ohikyoudou.mcp-saitamawest.jp/" }, "geometry": { "type": "Point", "coordinates": [ 139.5131027, 35.8603439 ] } },
{ "type": "Feature", "properties": { "内容": "小規模多機能型居宅介護事業所　ぽっかぽか【小規模多機能型居宅介護】白岡市上野田353", "url": "https://www.kaigokensaku.mhlw.go.jp/11/index.php?action_kouhyou_detail_004_kani=true&JigyosyoCd=1190500064-00&ServiceCd=730&Type=search", "url2": "http://www.taijukai.com" }, "geometry": { "type": "Point", "coordinates": [ 139.684822961654618, 36.016902658606121 ] } },
{ "type": "Feature", "properties": { "内容": "小規模多機能ホーム　すまいる伊奈【小規模多機能型居宅介護】埼玉県北足立郡伊奈町羽貫1059-1", "url": "https://www.kaigokensaku.mhlw.go.jp/11/index.php?action_kouhyou_detail_004_kani=true&JigyosyoCd=1191300043-00&ServiceCd=730&Type=search", "url2": "https://www.smile-ina.com/" }, "geometry": { "type": "Point", "coordinates": [ 139.609374500000058, 36.0113247 ] } },
{ "type": "Feature", "properties": { "内容": "小規模多機能ホーム好日の家毛呂山【小規模多機能型居宅介護】埼玉県入間郡毛呂山町前久保南3丁目22番27号", "url": "https://www.kaigokensaku.mhlw.go.jp/11/index.php?action_kouhyou_detail_004_kani=true&JigyosyoCd=1192400180-00&ServiceCd=730&Type=search", "url2": "https://kyujukai.com/kojitsu_moroyama/" }, "geometry": { "type": "Point", "coordinates": [ 139.3247993, 35.9435443 ] } },
{ "type": "Feature", "properties": { "内容": "小規模多機能ホーム　ももとせ【小規模多機能型居宅介護】埼玉県比企郡小川町大塚302", "url": "https://www.kaigokensaku.mhlw.go.jp/11/index.php?action_kouhyou_detail_004_kani=true&JigyosyoCd=1193200225-00&ServiceCd=730&Type=search", "url2": "s-momotose@mhp.or.jp" }, "geometry": { "type": "Point", "coordinates": [ 139.2561402, 36.0567415 ] } },
{ "type": "Feature", "properties": { "内容": "小規模多機能型居宅介護事業所　さくら・さくら【小規模多機能型居宅介護】埼玉県比企郡ときがわ町大字玉川２５１番地", "url": "https://www.kaigokensaku.mhlw.go.jp/11/index.php?action_kouhyou_detail_004_kani=true&JigyosyoCd=1193200043-00&ServiceCd=730&Type=search", "url2": "https://sakurasakura-kaigo.com/" }, "geometry": { "type": "Point", "coordinates": [ 139.3098314, 36.0151391 ] } },
{ "type": "Feature", "properties": { "内容": "エルダーホーム木の葉【小規模多機能型居宅介護】埼玉県秩父郡長瀞町岩田３３３－５", "url": "https://www.kaigokensaku.mhlw.go.jp/11/index.php?action_kouhyou_detail_004_kani=true&JigyosyoCd=1194800122-00&ServiceCd=730&Type=search", "url2": "aoba-home.com" }, "geometry": { "type": "Point", "coordinates": [ 139.121054100000038, 36.12606 ] } },
{ "type": "Feature", "properties": { "内容": "小規模多機能ホーム巨香の郷【小規模多機能型居宅介護】秩父郡小鹿野町小鹿野４７１番地", "url": "https://www.kaigokensaku.mhlw.go.jp/11/index.php?action_kouhyou_detail_004_kani=true&JigyosyoCd=1194800106-00&ServiceCd=730&Type=search", "url2": "http://www.care-net.biz/11/oganofuku/" }, "geometry": { "type": "Point", "coordinates": [ 138.9993912, 36.0214205 ] } },
{ "type": "Feature", "properties": { "内容": "小規模多機能型居宅介護チューリップみさと【小規模多機能型居宅介護】埼玉県児玉郡美里町北十条874-1", "url": "https://www.kaigokensaku.mhlw.go.jp/11/index.php?action_kouhyou_detail_004_kani=true&JigyosyoCd=1194200216-00&ServiceCd=730&Type=search", "url2": "//tulip-mari.co.jp" }, "geometry": { "type": "Point", "coordinates": [ 139.1649689, 36.1952362 ] } },
{ "type": "Feature", "properties": { "内容": "グループホームあかつき【小規模多機能型居宅介護】埼玉県大里郡寄居町鉢形３１７８－８", "url": "https://www.kaigokensaku.mhlw.go.jp/11/index.php?action_kouhyou_detail_004_kani=true&JigyosyoCd=1194500011-00&ServiceCd=730&Type=search", "url2": "http://www.gh-akatuki.net/" }, "geometry": { "type": "Point", "coordinates": [ 139.197793, 36.0982709 ] } },
{ "type": "Feature", "properties": { "内容": "小規模多機能ホーム　ケアタウン宮代【小規模多機能型居宅介護】南埼玉郡宮代町大字須賀１４２０－１", "url": "https://www.kaigokensaku.mhlw.go.jp/11/index.php?action_kouhyou_detail_004_kani=true&JigyosyoCd=1190500056-00&ServiceCd=730&Type=search", "url2": null }, "geometry": { "type": "Point", "coordinates": [ 139.701858799999968, 36.0365459 ] } },
{ "type": "Feature", "properties": { "内容": "小多機ホームわたや【小規模多機能型居宅介護】埼玉県北葛飾郡杉戸町清地３－８－２２", "url": "https://www.kaigokensaku.mhlw.go.jp/11/index.php?action_kouhyou_detail_004_kani=true&JigyosyoCd=1191100138-00&ServiceCd=730&Type=search", "url2": "http://www.sugito-wataya.com/" }, "geometry": { "type": "Point", "coordinates": [ 139.739965476057478, 36.023329193957665 ] } }
]
}
