{
"type": "FeatureCollection",
"name": "geo_11_短期大学",
"crs": { "type": "name", "properties": { "name": "urn:ogc:def:crs:EPSG::6668" } },
"features": [
{ "type": "Feature", "properties": { "P29_001": "11215", "P29_002": "F211310102217", "P29_003": "16006", "P29_004": "武蔵野短期大学", "P29_005": "埼玉県狭山市広瀬台3-26-1", "P29_006": "4", "P29_007": "0", "P29_008": "00", "P29_009": null }, "geometry": { "type": "Point", "coordinates": [ 139.386577998395296, 35.866631999961747 ] } },
{ "type": "Feature", "properties": { "P29_001": "11216", "P29_002": "F211310102226", "P29_003": "16006", "P29_004": "埼玉純真短期大学", "P29_005": "埼玉県羽生市下岩瀬430", "P29_006": "4", "P29_007": "0", "P29_008": "00", "P29_009": null }, "geometry": { "type": "Point", "coordinates": [ 139.526102997452625, 36.162004001938548 ] } },
{ "type": "Feature", "properties": { "P29_001": "11239", "P29_002": "F211310102235", "P29_003": "16006", "P29_004": "城西短期大学", "P29_005": "埼玉県坂戸市けやき台1-1", "P29_006": "4", "P29_007": "0", "P29_008": "00", "P29_009": null }, "geometry": { "type": "Point", "coordinates": [ 139.340208786557866, 35.931475103830913 ] } },
{ "type": "Feature", "properties": { "P29_001": "11103", "P29_002": "F211310102244", "P29_003": "16006", "P29_004": "国際学院埼玉短期大学", "P29_005": "埼玉県さいたま市大宮区吉敷町2-5", "P29_006": "4", "P29_007": "0", "P29_008": "00", "P29_009": null }, "geometry": { "type": "Point", "coordinates": [ 139.626062026803481, 35.900165816145062 ] } },
{ "type": "Feature", "properties": { "P29_001": "11208", "P29_002": "F211310102262", "P29_003": "16006", "P29_004": "秋草学園短期大学", "P29_005": "埼玉県所沢市泉町1789", "P29_006": "4", "P29_007": "0", "P29_008": "00", "P29_009": null }, "geometry": { "type": "Point", "coordinates": [ 139.460760000512551, 35.801825997210955 ] } },
{ "type": "Feature", "properties": { "P29_001": "11203", "P29_002": "F211310102271", "P29_003": "16006", "P29_004": "川口短期大学", "P29_005": "埼玉県川口市大字木曽呂1511", "P29_006": "4", "P29_007": "0", "P29_008": "00", "P29_009": null }, "geometry": { "type": "Point", "coordinates": [ 139.713454510128514, 35.857608183524604 ] } },
{ "type": "Feature", "properties": { "P29_001": "11326", "P29_002": "F211310102280", "P29_003": "16006", "P29_004": "埼玉医科大学短期大学", "P29_005": "埼玉県入間郡毛呂山町毛呂本郷38", "P29_006": "4", "P29_007": "0", "P29_008": "00", "P29_009": null }, "geometry": { "type": "Point", "coordinates": [ 139.306699710882668, 35.938729133512979 ] } },
{ "type": "Feature", "properties": { "P29_001": "11242", "P29_002": "F211310102299", "P29_003": "16006", "P29_004": "埼玉女子短期大学", "P29_005": "埼玉県日高市大字女影字小河原1616", "P29_006": "4", "P29_007": "0", "P29_008": "00", "P29_009": null }, "geometry": { "type": "Point", "coordinates": [ 139.359043818840803, 35.894951375375577 ] } },
{ "type": "Feature", "properties": { "P29_001": "11348", "P29_002": "F211310102306", "P29_003": "16006", "P29_004": "山村学園短期大学", "P29_005": "埼玉県比企郡鳩山町石坂604", "P29_006": "4", "P29_007": "0", "P29_008": "00", "P29_009": null }, "geometry": { "type": "Point", "coordinates": [ 139.357794997912094, 35.996991996684073 ] } },
{ "type": "Feature", "properties": { "P29_001": "11347", "P29_002": "F211310102315", "P29_003": "16006", "P29_004": "武蔵丘短期大学", "P29_005": "埼玉県比企郡吉見町大字南吉見字村上111-1", "P29_006": "4", "P29_007": "0", "P29_008": "00", "P29_009": null }, "geometry": { "type": "Point", "coordinates": [ 139.422814001127819, 36.035626996755298 ] } },
{ "type": "Feature", "properties": { "P29_001": "11222", "P29_002": "F211310102324", "P29_003": "16006", "P29_004": "埼玉東萌短期大学", "P29_005": "埼玉県越谷市新越谷2-21-1", "P29_006": "4", "P29_007": "0", "P29_008": "00", "P29_009": null }, "geometry": { "type": "Point", "coordinates": [ 139.780236002288319, 35.869880997901724 ] } }
]
}
