{
"type": "FeatureCollection",
"name": "geo_11_介護医療院",
"crs": { "type": "name", "properties": { "name": "urn:ogc:def:crs:OGC:1.3:CRS84" } },
"features": [
{ "type": "Feature", "properties": { "内容": "ケア大宮花の丘【介護医療院】埼玉県さいたま市西区内野本郷９７５－５", "url2": "https://www.kaigokensaku.mhlw.go.jp/11/index.php?action_kouhyou_detail_004_kani=true&JigyosyoCd=11B6500048-00&ServiceCd=550&Type=search" }, "geometry": { "type": "Point", "coordinates": [ 139.590629299999989, 35.9383679 ] } },
{ "type": "Feature", "properties": { "内容": "大宮共立病院介護医療院【介護医療院】埼玉県さいたま市見沼区大字片柳１５５０", "url2": "https://www.kaigokensaku.mhlw.go.jp/11/index.php?action_kouhyou_detail_004_kani=true&JigyosyoCd=11B6500014-00&ServiceCd=550&Type=search" }, "geometry": { "type": "Point", "coordinates": [ 139.690988, 35.9046743 ] } },
{ "type": "Feature", "properties": { "内容": "しらかば苑【介護医療院】埼玉県さいたま市見沼区大和田町二丁目１３９３番地1", "url2": "https://www.kaigokensaku.mhlw.go.jp/11/index.php?action_kouhyou_detail_004_kani=true&JigyosyoCd=11B6500022-00&ServiceCd=550&Type=search" }, "geometry": { "type": "Point", "coordinates": [ 139.652085020237706, 35.931754080252539 ] } },
{ "type": "Feature", "properties": { "内容": "介護医療院　埼玉病院【介護医療院】埼玉県川越市西小仙波町1丁目8番地3", "url2": "https://www.kaigokensaku.mhlw.go.jp/11/index.php?action_kouhyou_detail_004_kani=true&JigyosyoCd=11B0400013-00&ServiceCd=550&Type=search" }, "geometry": { "type": "Point", "coordinates": [ 139.487564099999986, 35.9173773 ] } },
{ "type": "Feature", "properties": { "内容": "はとがや介護医療院【介護医療院】坂下町4-16-26", "url2": "https://www.kaigokensaku.mhlw.go.jp/11/index.php?action_kouhyou_detail_004_kani=true&JigyosyoCd=11B0200017-00&ServiceCd=550&Type=search" }, "geometry": { "type": "Point", "coordinates": [ 139.737998535581909, 35.825952740914879 ] } },
{ "type": "Feature", "properties": { "内容": "介護医療院ひだまりの郷【介護医療院】埼玉県川口市上青木4-2-6上靑木中央醫院", "url2": "https://www.kaigokensaku.mhlw.go.jp/11/index.php?action_kouhyou_detail_004_kani=true&JigyosyoCd=11B0200025-00&ServiceCd=550&Type=search" }, "geometry": { "type": "Point", "coordinates": [ 139.717678100000057, 35.8304976 ] } },
{ "type": "Feature", "properties": { "内容": "武南病院附属介護医療院【介護医療院】東本郷2026", "url2": "https://www.kaigokensaku.mhlw.go.jp/11/index.php?action_kouhyou_detail_004_kani=true&JigyosyoCd=11B0200033-00&ServiceCd=550&Type=search" }, "geometry": { "type": "Point", "coordinates": [ 139.760138, 35.8249065 ] } },
{ "type": "Feature", "properties": { "内容": "タムス介護医療院川口【介護医療院】埼玉県川口市西新井宿923-1", "url2": "https://www.kaigokensaku.mhlw.go.jp/11/index.php?action_kouhyou_detail_004_kani=true&JigyosyoCd=11B0200041-00&ServiceCd=550&Type=search" }, "geometry": { "type": "Point", "coordinates": [ 139.7337061, 35.8481776 ] } },
{ "type": "Feature", "properties": { "内容": "緑ヶ丘介護医療院【介護医療院】埼玉県所沢市狭山ヶ丘1-3009", "url2": "https://www.kaigokensaku.mhlw.go.jp/11/index.php?action_kouhyou_detail_004_kani=true&JigyosyoCd=11B2500018-00&ServiceCd=550&Type=search" }, "geometry": { "type": "Point", "coordinates": [ 139.4148913, 35.8080791 ] } },
{ "type": "Feature", "properties": { "内容": "埼玉はんのう介護医療院【介護医療院】埼玉県飯能市飯能1185番地", "url2": "https://www.kaigokensaku.mhlw.go.jp/11/index.php?action_kouhyou_detail_004_kani=true&JigyosyoCd=11B2600016-00&ServiceCd=550&Type=search" }, "geometry": { "type": "Point", "coordinates": [ 139.30723839999996, 35.8595156 ] } },
{ "type": "Feature", "properties": { "内容": "飯能靖和　介護医療院【介護医療院】埼玉県飯能市下加治137-2", "url2": "https://www.kaigokensaku.mhlw.go.jp/11/index.php?action_kouhyou_detail_004_kani=true&JigyosyoCd=11B2600024-00&ServiceCd=550&Type=search" }, "geometry": { "type": "Point", "coordinates": [ 139.3352189, 35.865658 ] } },
{ "type": "Feature", "properties": { "内容": "十善病院介護医療院【介護医療院】埼玉県加須市愛宕一丁目９番１６号", "url2": "https://www.kaigokensaku.mhlw.go.jp/11/index.php?action_kouhyou_detail_004_kani=true&JigyosyoCd=11B3800011-00&ServiceCd=550&Type=search" }, "geometry": { "type": "Point", "coordinates": [ 139.5880483, 36.1322643 ] } },
{ "type": "Feature", "properties": { "内容": "介護医療院本庄けやき苑【介護医療院】埼玉県本庄市小島五丁目６番１号", "url2": "https://www.kaigokensaku.mhlw.go.jp/11/index.php?action_kouhyou_detail_004_kani=true&JigyosyoCd=11B4300011-00&ServiceCd=550&Type=search" }, "geometry": { "type": "Point", "coordinates": [ 139.17516538465577, 36.248710985389074 ] } },
{ "type": "Feature", "properties": { "内容": "武里病院介護医療院【介護医療院】埼玉県春日部市下大増新田9番地3", "url2": "https://www.kaigokensaku.mhlw.go.jp/11/index.php?action_kouhyou_detail_004_kani=true&JigyosyoCd=11B0600018-00&ServiceCd=550&Type=search" }, "geometry": { "type": "Point", "coordinates": [ 139.7404171, 35.9573706 ] } },
{ "type": "Feature", "properties": { "内容": "介護医療院みどり【介護医療院】埼玉県春日部市上大増新田168番地-1医療法人社団みどり会介護医療院みどり", "url2": "https://www.kaigokensaku.mhlw.go.jp/11/index.php?action_kouhyou_detail_004_kani=true&JigyosyoCd=11B0600026-00&ServiceCd=550&Type=search" }, "geometry": { "type": "Point", "coordinates": [ 139.7383786, 35.9601629 ] } },
{ "type": "Feature", "properties": { "内容": "介護医療院あさひヶ丘【介護医療院】大字森戸新田99番地1", "url2": "https://www.kaigokensaku.mhlw.go.jp/11/index.php?action_kouhyou_detail_004_kani=true&JigyosyoCd=11B6300019-00&ServiceCd=550&Type=search" }, "geometry": { "type": "Point", "coordinates": [ 139.372652900000048, 35.9125032 ] } },
{ "type": "Feature", "properties": { "内容": "医療法人社団明日佳埼玉あすか松伏病院介護医療院【介護医療院】埼玉県北葛飾郡松伏町松伏1263番地5", "url2": "https://www.kaigokensaku.mhlw.go.jp/11/index.php?action_kouhyou_detail_004_kani=true&JigyosyoCd=11B1100018-00&ServiceCd=550&Type=search" }, "geometry": { "type": "Point", "coordinates": [ 139.828818586938354, 35.927997613555512 ] } },
{ "type": "Feature", "properties": { "内容": "埼玉筑波病院介護医療院【介護医療院】埼玉県北葛飾郡松伏町築比地４２０", "url2": "https://www.kaigokensaku.mhlw.go.jp/11/index.php?action_kouhyou_detail_004_kani=true&JigyosyoCd=11B1100026-00&ServiceCd=550&Type=search" }, "geometry": { "type": "Point", "coordinates": [ 139.8325542, 35.9491732 ] } }
]
}
