{
"type": "FeatureCollection",
"name": "geo_11_義務教育学校",
"crs": { "type": "name", "properties": { "name": "urn:ogc:def:crs:EPSG::6668" } },
"features": [
{ "type": "Feature", "properties": { "P29_001": "11214", "P29_002": "C211221400016", "P29_003": "16014", "P29_004": "春日部市立江戸川小中学校", "P29_005": "埼玉県春日部市上吉妻1", "P29_006": "3", "P29_007": "1", "P29_008": "00", "P29_009": null }, "geometry": { "type": "Point", "coordinates": [ 139.805066037428674, 36.018926180469997 ] } },
{ "type": "Feature", "properties": { "P29_001": "11242", "P29_002": "C211224200012", "P29_003": "16014", "P29_004": "日高市立武蔵台小中学校", "P29_005": "埼玉県日高市武蔵台5-1-1", "P29_006": "3", "P29_007": "1", "P29_008": "00", "P29_009": null }, "geometry": { "type": "Point", "coordinates": [ 139.299344945674505, 35.872248465812334 ] } }
]
}
