{
"type": "FeatureCollection",
"name": "geo_11_看護小規模多機能型居宅介護（複合型サービス）",
"crs": { "type": "name", "properties": { "name": "urn:ogc:def:crs:OGC:1.3:CRS84" } },
"features": [
{ "type": "Feature", "properties": { "内容": "看多機かえりえ奈良町【看護小規模多機能型居宅介護（複合型サービス）】埼玉県さいたま市北区奈良町32－4", "url": "https://www.kaigokensaku.mhlw.go.jp/11/index.php?action_kouhyou_detail_004_kani=true&JigyosyoCd=1196501199-00&ServiceCd=&Type=search", "url2": "https://www.yasashiite.com/" }, "geometry": { "type": "Point", "coordinates": [ 139.602845699999989, 35.9468078 ] } },
{ "type": "Feature", "properties": { "内容": "看多機かえりえ東大宮【看護小規模多機能型居宅介護（複合型サービス）】東大宮2-6-9", "url": "https://www.kaigokensaku.mhlw.go.jp/11/index.php?action_kouhyou_detail_004_kani=true&JigyosyoCd=1196500746-00&ServiceCd=&Type=search", "url2": "https://www.yasashiite.com/" }, "geometry": { "type": "Point", "coordinates": [ 139.6373817, 35.9430683 ] } },
{ "type": "Feature", "properties": { "内容": "看護小規模多機能型居宅介護事業所　埼玉さくらんぼⅡ番館【看護小規模多機能型居宅介護（複合型サービス）】埼玉県さいたま市南区大字太田窪3516-17", "url": "https://www.kaigokensaku.mhlw.go.jp/11/index.php?action_kouhyou_detail_004_kani=true&JigyosyoCd=1196501249-00&ServiceCd=&Type=search", "url2": "http://www.keijuen.or.jp" }, "geometry": { "type": "Point", "coordinates": [ 139.6927551, 35.8494686 ] } },
{ "type": "Feature", "properties": { "内容": "いわつき樹林【看護小規模多機能型居宅介護（複合型サービス）】埼玉県さいたま市岩槻区西町3丁目2番24号", "url": "https://www.kaigokensaku.mhlw.go.jp/11/index.php?action_kouhyou_detail_004_kani=true&JigyosyoCd=1196501397-00&ServiceCd=&Type=search", "url2": "https://kantaki-jurin.jp/" }, "geometry": { "type": "Point", "coordinates": [ 139.685913200000016, 35.9540048 ] } },
{ "type": "Feature", "properties": { "内容": "複合型サービス　すずらん【看護小規模多機能型居宅介護（複合型サービス）】埼玉県川越市小仙波町１－１６－１０", "url": "https://www.kaigokensaku.mhlw.go.jp/11/index.php?action_kouhyou_detail_004_kani=true&JigyosyoCd=1190400232-00&ServiceCd=&Type=search", "url2": "https://with-hearts.com/" }, "geometry": { "type": "Point", "coordinates": [ 139.490845799999988, 35.9172214 ] } },
{ "type": "Feature", "properties": { "内容": "複合型サービスすずらん　府川【看護小規模多機能型居宅介護（複合型サービス）】埼玉県川越市大字府川字反町１９６番１", "url": "https://www.kaigokensaku.mhlw.go.jp/11/index.php?action_kouhyou_detail_004_kani=true&JigyosyoCd=1190400596-00&ServiceCd=&Type=search", "url2": "https://with-hearts.com/" }, "geometry": { "type": "Point", "coordinates": [ 139.4840661, 35.9438434 ] } },
{ "type": "Feature", "properties": { "内容": "まごころケア川越【看護小規模多機能型居宅介護（複合型サービス）】埼玉県川越市砂久保５０－１", "url": "https://www.kaigokensaku.mhlw.go.jp/11/index.php?action_kouhyou_detail_004_kani=true&JigyosyoCd=1190400612-00&ServiceCd=&Type=search", "url2": "https://www.care.magokoro-group.jp/" }, "geometry": { "type": "Point", "coordinates": [ 139.4877174, 35.8864793 ] } },
{ "type": "Feature", "properties": { "内容": "看多機かえりえ南大塚【看護小規模多機能型居宅介護（複合型サービス）】埼玉県川越市南大塚5-33-6", "url": "https://www.kaigokensaku.mhlw.go.jp/11/index.php?action_kouhyou_detail_004_kani=true&JigyosyoCd=1190400687-00&ServiceCd=&Type=search", "url2": "https://www.yasashiite.com" }, "geometry": { "type": "Point", "coordinates": [ 139.462854599999986, 35.8860152 ] } },
{ "type": "Feature", "properties": { "内容": "看護小規模多機能型居宅介護　くまここ【看護小規模多機能型居宅介護（複合型サービス）】埼玉県熊谷市上之3851-1", "url": "https://www.kaigokensaku.mhlw.go.jp/11/index.php?action_kouhyou_detail_004_kani=true&JigyosyoCd=1193100342-00&ServiceCd=&Type=search", "url2": "http://www.mcp-saitama.or.jp" }, "geometry": { "type": "Point", "coordinates": [ 139.413749700000011, 36.1510891 ] } },
{ "type": "Feature", "properties": { "内容": "看多機しんあい【看護小規模多機能型居宅介護（複合型サービス）】埼玉県川口市芝3-15-10", "url": "https://www.kaigokensaku.mhlw.go.jp/11/index.php?action_kouhyou_detail_004_kani=true&JigyosyoCd=1190201408-00&ServiceCd=&Type=search", "url2": "http://pure-homes.com/" }, "geometry": { "type": "Point", "coordinates": [ 139.69752, 35.8345511 ] } },
{ "type": "Feature", "properties": { "内容": "看護小規模多機能型居宅介護　ケアホームかがやき【看護小規模多機能型居宅介護（複合型サービス）】埼玉県川口市西青木5-1-40", "url": "https://www.kaigokensaku.mhlw.go.jp/11/index.php?action_kouhyou_detail_004_kani=true&JigyosyoCd=1190201168-00&ServiceCd=&Type=search", "url2": null }, "geometry": { "type": "Point", "coordinates": [ 139.71594556759797, 35.820449502835679 ] } },
{ "type": "Feature", "properties": { "内容": "看護小規模多機能型居宅介護　ふぁみぃゆ小東風【看護小規模多機能型居宅介護（複合型サービス）】埼玉県行田市下須戸65番地1地域密着型施設　ふぁみぃゆ東館", "url": "https://www.kaigokensaku.mhlw.go.jp/11/index.php?action_kouhyou_detail_004_kani=true&JigyosyoCd=1193700083-00&ServiceCd=&Type=search", "url2": "http://www.famille-gyoda.com" }, "geometry": { "type": "Point", "coordinates": [ 139.5105876, 36.1383352 ] } },
{ "type": "Feature", "properties": { "内容": "コンフォート【看護小規模多機能型居宅介護（複合型サービス）】埼玉県秩父市下影森８８８－５", "url": "https://www.kaigokensaku.mhlw.go.jp/11/index.php?action_kouhyou_detail_004_kani=true&JigyosyoCd=1194900245-00&ServiceCd=&Type=search", "url2": null }, "geometry": { "type": "Point", "coordinates": [ 139.073523900000026, 35.9783674 ] } },
{ "type": "Feature", "properties": { "内容": "看護小規模多機能型居宅介護事業所　かんたき　こもれび【看護小規模多機能型居宅介護（複合型サービス）】埼玉県所沢市北野3-26-10", "url": "https://www.kaigokensaku.mhlw.go.jp/11/index.php?action_kouhyou_detail_004_kani=true&JigyosyoCd=1192500690-00&ServiceCd=&Type=search", "url2": "https://www.loyal-kutsuroginomori.jp" }, "geometry": { "type": "Point", "coordinates": [ 139.4183243, 35.7918073 ] } },
{ "type": "Feature", "properties": { "内容": "かんたきクオーレ成恵【看護小規模多機能型居宅介護（複合型サービス）】埼玉県東松山市石橋1722-2", "url": "https://www.kaigokensaku.mhlw.go.jp/11/index.php?action_kouhyou_detail_004_kani=true&JigyosyoCd=1193300173-00&ServiceCd=&Type=search", "url2": "http://www.seikei.or.jp" }, "geometry": { "type": "Point", "coordinates": [ 139.37774329444278, 36.04038398988417 ] } },
{ "type": "Feature", "properties": { "内容": "看護小規模多機能ホーム　こんぱす【看護小規模多機能型居宅介護（複合型サービス）】埼玉県春日部市薄谷78番地看護小規模多機能ホーム　こんぱす", "url": "https://www.kaigokensaku.mhlw.go.jp/11/index.php?action_kouhyou_detail_004_kani=true&JigyosyoCd=1190600369-00&ServiceCd=&Type=search", "url2": "https://compass100.jp/" }, "geometry": { "type": "Point", "coordinates": [ 139.756964835998502, 35.955824678093471 ] } },
{ "type": "Feature", "properties": { "内容": "看護小規模多機能ふくしのまち春日部【看護小規模多機能型居宅介護（複合型サービス）】金崎982－1", "url": "https://www.kaigokensaku.mhlw.go.jp/11/index.php?action_kouhyou_detail_004_kani=true&JigyosyoCd=1190600088-00&ServiceCd=&Type=search", "url2": "https://www.saint-care.com/youism/corporate/" }, "geometry": { "type": "Point", "coordinates": [ 139.7498754, 36.4677437 ] } },
{ "type": "Feature", "properties": { "内容": "里　恋【看護小規模多機能型居宅介護（複合型サービス）】埼玉県鴻巣市本町二丁目１番７号　3階", "url": "https://www.kaigokensaku.mhlw.go.jp/11/index.php?action_kouhyou_detail_004_kani=true&JigyosyoCd=1191700309-00&ServiceCd=&Type=search", "url2": "https//www.takeuchi-cl.jp" }, "geometry": { "type": "Point", "coordinates": [ 139.512455499999987, 36.06098 ] } },
{ "type": "Feature", "properties": { "内容": "複合型サービスみなみちゃんち【看護小規模多機能型居宅介護（複合型サービス）】埼玉県深谷市宿根字小種窪1301-1", "url": "https://www.kaigokensaku.mhlw.go.jp/11/index.php?action_kouhyou_detail_004_kani=true&JigyosyoCd=1194600183-00&ServiceCd=&Type=search", "url2": null }, "geometry": { "type": "Point", "coordinates": [ 139.261333900000011, 36.1959088 ] } },
{ "type": "Feature", "properties": { "内容": "看護小規模多機能ふくしのまち上尾【看護小規模多機能型居宅介護（複合型サービス）】壱丁目北10-3", "url": "https://www.kaigokensaku.mhlw.go.jp/11/index.php?action_kouhyou_detail_004_kani=true&JigyosyoCd=1191600251-00&ServiceCd=&Type=search", "url2": "https://www.youism.jo/" }, "geometry": { "type": "Point", "coordinates": [ 139.570447590591158, 35.958978718338386 ] } },
{ "type": "Feature", "properties": { "内容": "医療法人藤仁会藤の郷あげお【看護小規模多機能型居宅介護（複合型サービス）】二ツ宮897-4", "url": "https://www.kaigokensaku.mhlw.go.jp/11/index.php?action_kouhyou_detail_004_kani=true&JigyosyoCd=1191600053-00&ServiceCd=&Type=search", "url2": "http://fujinosato.to-jinkai.or.jp/" }, "geometry": { "type": "Point", "coordinates": [ 139.6034606, 35.9804905 ] } },
{ "type": "Feature", "properties": { "内容": "ケアホームかしの木【看護小規模多機能型居宅介護（複合型サービス）】埼玉県草加市草加1-8-13", "url": "https://www.kaigokensaku.mhlw.go.jp/11/index.php?action_kouhyou_detail_004_kani=true&JigyosyoCd=1191800380-00&ServiceCd=&Type=search", "url2": "http://www.mcp-saitama.or.jp" }, "geometry": { "type": "Point", "coordinates": [ 139.8030771, 35.8354454 ] } },
{ "type": "Feature", "properties": { "内容": "ナーシングホーム向日葵【看護小規模多機能型居宅介護（複合型サービス）】埼玉県草加市北谷1-21-37北谷メディカルビレッジ201", "url": "https://www.kaigokensaku.mhlw.go.jp/11/index.php?action_kouhyou_detail_004_kani=true&JigyosyoCd=1191800273-00&ServiceCd=&Type=search", "url2": "http://human-and-nature.co.jp/himawari/" }, "geometry": { "type": "Point", "coordinates": [ 139.784920199999988, 35.8423903 ] } },
{ "type": "Feature", "properties": { "内容": "看護小規模多機能リベル草加【看護小規模多機能型居宅介護（複合型サービス）】埼玉県草加市草加２‐14‐10", "url": "https://www.kaigokensaku.mhlw.go.jp/11/index.php?action_kouhyou_detail_004_kani=true&JigyosyoCd=1191800505-00&ServiceCd=&Type=search", "url2": "https://www.libercare.jp" }, "geometry": { "type": "Point", "coordinates": [ 139.798688700000014, 35.835184796442284 ] } },
{ "type": "Feature", "properties": { "内容": "社会福祉法人　博愛福祉会　ゆとり庵北越谷　看護小規模多機能型居宅介護【看護小規模多機能型居宅介護（複合型サービス）】埼玉県越谷市大字大道643番地", "url": "https://www.kaigokensaku.mhlw.go.jp/11/index.php?action_kouhyou_detail_004_kani=true&JigyosyoCd=1190800761-00&ServiceCd=&Type=search", "url2": "https://hinode.or.jp/" }, "geometry": { "type": "Point", "coordinates": [ 139.761374499999988, 35.9213566 ] } },
{ "type": "Feature", "properties": { "内容": "ホスピタリティハウス青い鳥【看護小規模多機能型居宅介護（複合型サービス）】埼玉県入間市大字二本木字下狭山88－5", "url": "https://www.kaigokensaku.mhlw.go.jp/11/index.php?action_kouhyou_detail_004_kani=true&JigyosyoCd=1192800090-00&ServiceCd=&Type=search", "url2": "http://www.ictv.ne^kobahosp/" }, "geometry": { "type": "Point", "coordinates": [ 139.373743800000057, 35.798725600000026 ] } },
{ "type": "Feature", "properties": { "内容": "わこう翔裕館【看護小規模多機能型居宅介護（複合型サービス）】埼玉県和光市下新倉4-17-52", "url": "https://www.kaigokensaku.mhlw.go.jp/11/index.php?action_kouhyou_detail_004_kani=true&JigyosyoCd=1192300265-00&ServiceCd=&Type=search", "url2": "https://www.kantousanga.co.jp/" }, "geometry": { "type": "Point", "coordinates": [ 139.6273678, 35.7922859 ] } },
{ "type": "Feature", "properties": { "内容": "看護小規模多機能型居宅介護　あい【看護小規模多機能型居宅介護（複合型サービス）】埼玉県新座市堀ノ内2丁目9番31号", "url": "https://www.kaigokensaku.mhlw.go.jp/11/index.php?action_kouhyou_detail_004_kani=true&JigyosyoCd=1195100233-00&ServiceCd=&Type=search", "url2": "http：//horinouchi-hp.com" }, "geometry": { "type": "Point", "coordinates": [ 139.557264873016351, 35.77150577316133 ] } },
{ "type": "Feature", "properties": { "内容": "看多機医療館おけがわ【看護小規模多機能型居宅介護（複合型サービス）】埼玉県桶川市下日出谷西1-9-2", "url": "https://www.kaigokensaku.mhlw.go.jp/11/index.php?action_kouhyou_detail_004_kani=true&JigyosyoCd=1195200132-00&ServiceCd=&Type=search", "url2": "https://mizuhogroup.jp/vacancy_info/cv_okegawa/" }, "geometry": { "type": "Point", "coordinates": [ 139.551366668122853, 35.99400868165116 ] } },
{ "type": "Feature", "properties": { "内容": "ケアステーションよすが【看護小規模多機能型居宅介護（複合型サービス）】埼玉県久喜市下早見524番1", "url": "https://www.kaigokensaku.mhlw.go.jp/11/index.php?action_kouhyou_detail_004_kani=true&JigyosyoCd=1190900132-00&ServiceCd=&Type=search", "url2": "https://www.yosugacare.com" }, "geometry": { "type": "Point", "coordinates": [ 139.672981994569369, 36.056435637169393 ] } },
{ "type": "Feature", "properties": { "内容": "看護小規模多機能ケア　みらい【看護小規模多機能型居宅介護（複合型サービス）】埼玉県北本市東間6-106-3", "url": "https://www.kaigokensaku.mhlw.go.jp/11/index.php?action_kouhyou_detail_004_kani=true&JigyosyoCd=1195300130-00&ServiceCd=&Type=search", "url2": "yuyucare.jp" }, "geometry": { "type": "Point", "coordinates": [ 139.528377400000011, 36.0412995 ] } },
{ "type": "Feature", "properties": { "内容": "医療法人財団健和会複合型サービスまいほーむ新みさと【看護小規模多機能型居宅介護（複合型サービス）】埼玉県三郷市采女1-762階", "url": "https://www.kaigokensaku.mhlw.go.jp/11/index.php?action_kouhyou_detail_004_kani=true&JigyosyoCd=1191200102-00&ServiceCd=&Type=search", "url2": "http://myhomeshinmisato.kenwa.or.jp/" }, "geometry": { "type": "Point", "coordinates": [ 139.8598791, 35.8576581 ] } },
{ "type": "Feature", "properties": { "内容": "ケアピリカみさと【看護小規模多機能型居宅介護（複合型サービス）】新和５－２４４", "url": "https://www.kaigokensaku.mhlw.go.jp/11/index.php?action_kouhyou_detail_004_kani=true&JigyosyoCd=1191200177-00&ServiceCd=&Type=search", "url2": "http://www.ims.gr.jp/carepilica_misato/" }, "geometry": { "type": "Point", "coordinates": [ 139.880376797399549, 35.81029917996301 ] } },
{ "type": "Feature", "properties": { "内容": "かんたき朋【看護小規模多機能型居宅介護（複合型サービス）】埼玉県鶴ヶ島市五味ケ谷232-21", "url": "https://www.kaigokensaku.mhlw.go.jp/11/index.php?action_kouhyou_detail_004_kani=true&JigyosyoCd=1196200180-00&ServiceCd=&Type=search", "url2": null }, "geometry": { "type": "Point", "coordinates": [ 139.418318970569601, 35.944908043210781 ] } },
{ "type": "Feature", "properties": { "内容": "スマイルふくしあ【看護小規模多機能型居宅介護（複合型サービス）】埼玉県吉川市須賀246", "url": "https://www.kaigokensaku.mhlw.go.jp/11/index.php?action_kouhyou_detail_004_kani=true&JigyosyoCd=1196400137-00&ServiceCd=&Type=search", "url2": "https://www.fukushia-7.com/profile.html" }, "geometry": { "type": "Point", "coordinates": [ 139.835532699999987, 35.8984512 ] } },
{ "type": "Feature", "properties": { "内容": "ふじみ野ケアセンター【看護小規模多機能型居宅介護（複合型サービス）】埼玉県ふじみ野市上福岡3-3-7ふじみ野ケアセンター", "url": "https://www.kaigokensaku.mhlw.go.jp/11/index.php?action_kouhyou_detail_004_kani=true&JigyosyoCd=1193000054-00&ServiceCd=&Type=search", "url2": "https://www.mcp-saitama-kaigo.com/office/fujimino/" }, "geometry": { "type": "Point", "coordinates": [ 139.514978700000029, 35.8713392 ] } },
{ "type": "Feature", "properties": { "内容": "いなほの看護小規模多機能【看護小規模多機能型居宅介護（複合型サービス）】埼玉県白岡市西3-5-1", "url": "https://www.kaigokensaku.mhlw.go.jp/11/index.php?action_kouhyou_detail_004_kani=true&JigyosyoCd=1196600025-00&ServiceCd=&Type=search", "url2": "https://inaho.or.jp/kantaki/" }, "geometry": { "type": "Point", "coordinates": [ 139.650389742585219, 36.016315840671325 ] } },
{ "type": "Feature", "properties": { "内容": "ケアピリカみよし【看護小規模多機能型居宅介護（複合型サービス）】埼玉県入間郡三芳町上富318-2ケアピリカみよし", "url": "https://www.kaigokensaku.mhlw.go.jp/11/index.php?action_kouhyou_detail_004_kani=true&JigyosyoCd=1192400214-00&ServiceCd=&Type=search", "url2": "https://ims.gr.jp/carepilica_miyoshi/access.html" }, "geometry": { "type": "Point", "coordinates": [ 139.506635350516575, 35.827035103375295 ] } },
{ "type": "Feature", "properties": { "内容": "飛鳥の郷【看護小規模多機能型居宅介護（複合型サービス）】埼玉県比企郡鳩山町大字大橋175番地1飛鳥の郷", "url": "https://www.kaigokensaku.mhlw.go.jp/11/index.php?action_kouhyou_detail_004_kani=true&JigyosyoCd=1193200316-00&ServiceCd=&Type=search", "url2": null }, "geometry": { "type": "Point", "coordinates": [ 139.3323647, 35.9960093 ] } }
]
}
