{
"type": "FeatureCollection",
"name": "geo_11_大学",
"crs": { "type": "name", "properties": { "name": "urn:ogc:def:crs:EPSG::6668" } },
"features": [
{ "type": "Feature", "properties": { "P29_001": "11106", "P29_002": "F111110101945", "P29_003": "16007", "P29_004": "埼玉大学", "P29_005": "埼玉県さいたま市桜区下大久保255", "P29_006": "1", "P29_007": "0", "P29_008": "00", "P29_009": null }, "geometry": { "type": "Point", "coordinates": [ 139.607615531034867, 35.86239645847678 ] } },
{ "type": "Feature", "properties": { "P29_001": "11222", "P29_002": "F111210101952", "P29_003": "16007", "P29_004": "埼玉県立大学", "P29_005": "埼玉県越谷市三野宮820", "P29_006": "2", "P29_007": "0", "P29_008": "00", "P29_009": null }, "geometry": { "type": "Point", "coordinates": [ 139.756154742072454, 35.929849977302688 ] } },
{ "type": "Feature", "properties": { "P29_001": "11326", "P29_002": "F111310101969", "P29_003": "16007", "P29_004": "日本医療科学大学", "P29_005": "埼玉県入間郡毛呂山町下川原1276", "P29_006": "4", "P29_007": "0", "P29_008": "00", "P29_009": null }, "geometry": { "type": "Point", "coordinates": [ 139.343470000602309, 35.932180998109857 ] } },
{ "type": "Feature", "properties": { "P29_001": "11301", "P29_002": "F111310101978", "P29_003": "16007", "P29_004": "日本薬科大学", "P29_005": "埼玉県北足立郡伊奈町小室10281", "P29_006": "4", "P29_007": "0", "P29_008": "00", "P29_009": null }, "geometry": { "type": "Point", "coordinates": [ 139.616726696385058, 35.991165668331099 ] } },
{ "type": "Feature", "properties": { "P29_001": "11215", "P29_002": "F111310101987", "P29_003": "16007", "P29_004": "武蔵野学院大学", "P29_005": "埼玉県狭山市広瀬台3-26-1", "P29_006": "4", "P29_007": "0", "P29_008": "00", "P29_009": null }, "geometry": { "type": "Point", "coordinates": [ 139.386569005051228, 35.867382003640941 ] } },
{ "type": "Feature", "properties": { "P29_001": "11109", "P29_002": "F111310101996", "P29_003": "16007", "P29_004": "浦和大学", "P29_005": "埼玉県さいたま市緑区大崎3551", "P29_006": "4", "P29_007": "0", "P29_008": "00", "P29_009": null }, "geometry": { "type": "Point", "coordinates": [ 139.71310256506834, 35.890658054075047 ] } },
{ "type": "Feature", "properties": { "P29_001": "11206", "P29_002": "F111310102003", "P29_003": "16007", "P29_004": "ものつくり大学", "P29_005": "埼玉県行田市大字前谷333", "P29_006": "4", "P29_007": "0", "P29_008": "00", "P29_009": null }, "geometry": { "type": "Point", "coordinates": [ 139.456720253492364, 36.115123156263905 ] } },
{ "type": "Feature", "properties": { "P29_001": "11214", "P29_002": "F111310102012", "P29_003": "16007", "P29_004": "共栄大学", "P29_005": "埼玉県春日部市内牧4158", "P29_006": "4", "P29_007": "0", "P29_008": "00", "P29_009": null }, "geometry": { "type": "Point", "coordinates": [ 139.723581324313301, 35.996492179037247 ] } },
{ "type": "Feature", "properties": { "P29_001": "11203", "P29_002": "F111310102021", "P29_003": "16007", "P29_004": "埼玉学園大学", "P29_005": "埼玉県川口市大字木曽呂1510", "P29_006": "4", "P29_007": "0", "P29_008": "00", "P29_009": null }, "geometry": { "type": "Point", "coordinates": [ 139.714244999900046, 35.857033001937346 ] } },
{ "type": "Feature", "properties": { "P29_001": "11201", "P29_002": "F111310102030", "P29_003": "16007", "P29_004": "尚美学園大学", "P29_005": "埼玉県川越市豊田町1-1-1", "P29_006": "4", "P29_007": "0", "P29_008": "00", "P29_009": null }, "geometry": { "type": "Point", "coordinates": [ 139.459234428705258, 35.906735959915949 ] } },
{ "type": "Feature", "properties": { "P29_001": "11110", "P29_002": "F111310102049", "P29_003": "16007", "P29_004": "人間総合科学大学", "P29_005": "埼玉県さいたま市岩槻区馬込1288", "P29_006": "4", "P29_007": "0", "P29_008": "01", "P29_009": "蓮田キャンパス" }, "geometry": { "type": "Point", "coordinates": [ 139.658293998903019, 35.97082400280717 ] } },
{ "type": "Feature", "properties": { "P29_001": "11215", "P29_002": "F111310102058", "P29_003": "16007", "P29_004": "西武文理大学", "P29_005": "埼玉県狭山市大字柏原新田字下河原311-1", "P29_006": "4", "P29_007": "0", "P29_008": "00", "P29_009": null }, "geometry": { "type": "Point", "coordinates": [ 139.417927715615946, 35.890177304333271 ] } },
{ "type": "Feature", "properties": { "P29_001": "11230", "P29_002": "F111310102067", "P29_003": "16007", "P29_004": "十文字学園女子大学", "P29_005": "埼玉県新座市菅沢2-1-28", "P29_006": "4", "P29_007": "0", "P29_008": "00", "P29_009": null }, "geometry": { "type": "Point", "coordinates": [ 139.551225000502683, 35.799633996246591 ] } },
{ "type": "Feature", "properties": { "P29_001": "11210", "P29_002": "F111310102076", "P29_003": "16007", "P29_004": "平成国際大学", "P29_005": "埼玉県加須市大字水深字大立野2000", "P29_006": "4", "P29_007": "0", "P29_008": "00", "P29_009": null }, "geometry": { "type": "Point", "coordinates": [ 139.643620995875182, 36.100042004212895 ] } },
{ "type": "Feature", "properties": { "P29_001": "11201", "P29_002": "F111310102085", "P29_003": "16007", "P29_004": "東京国際大学", "P29_005": "埼玉県川越市的場北1-13-1", "P29_006": "4", "P29_007": "0", "P29_008": "01", "P29_009": "川越第1キャンパス" }, "geometry": { "type": "Point", "coordinates": [ 139.438273254794836, 35.926400363592762 ] } },
{ "type": "Feature", "properties": { "P29_001": "11239", "P29_002": "F111310102094", "P29_003": "16007", "P29_004": "城西大学", "P29_005": "埼玉県坂戸市けやき台1-1", "P29_006": "4", "P29_007": "0", "P29_008": "00", "P29_009": null }, "geometry": { "type": "Point", "coordinates": [ 139.339039996912476, 35.932388999630994 ] } },
{ "type": "Feature", "properties": { "P29_001": "11201", "P29_002": "F111310102101", "P29_003": "16007", "P29_004": "東邦音楽大学", "P29_005": "埼玉県川越市今泉84", "P29_006": "4", "P29_007": "0", "P29_008": "01", "P29_009": "川越キャンパス" }, "geometry": { "type": "Point", "coordinates": [ 139.523502967309156, 35.897335918558809 ] } },
{ "type": "Feature", "properties": { "P29_001": "11221", "P29_002": "F111310102110", "P29_003": "16007", "P29_004": "獨協大学", "P29_005": "埼玉県草加市学園町1-1", "P29_006": "4", "P29_007": "0", "P29_008": "00", "P29_009": null }, "geometry": { "type": "Point", "coordinates": [ 139.794315534675462, 35.839975869121609 ] } },
{ "type": "Feature", "properties": { "P29_001": "11442", "P29_002": "F111310102129", "P29_003": "16007", "P29_004": "日本工業大学", "P29_005": "埼玉県南埼玉郡宮代町学園台4-1-1", "P29_006": "4", "P29_007": "0", "P29_008": "00", "P29_009": null }, "geometry": { "type": "Point", "coordinates": [ 139.714308004966966, 36.027714001717669 ] } },
{ "type": "Feature", "properties": { "P29_001": "11239", "P29_002": "F111310102138", "P29_003": "16007", "P29_004": "明海大学", "P29_005": "埼玉県坂戸市けやき台1-1", "P29_006": "4", "P29_007": "0", "P29_008": "01", "P29_009": "坂戸キャンパス" }, "geometry": { "type": "Point", "coordinates": [ 139.34017049607985, 35.933257461308934 ] } },
{ "type": "Feature", "properties": { "P29_001": "11326", "P29_002": "F111310102147", "P29_003": "16007", "P29_004": "埼玉医科大学", "P29_005": "埼玉県入間郡毛呂山町毛呂本郷38", "P29_006": "4", "P29_007": "0", "P29_008": "01", "P29_009": "毛呂山キャンパス" }, "geometry": { "type": "Point", "coordinates": [ 139.305190997547442, 35.939321996238306 ] } },
{ "type": "Feature", "properties": { "P29_001": "11218", "P29_002": "F111310102156", "P29_003": "16007", "P29_004": "埼玉工業大学", "P29_005": "埼玉県深谷市普済寺1690", "P29_006": "4", "P29_007": "0", "P29_008": "00", "P29_009": null }, "geometry": { "type": "Point", "coordinates": [ 139.238917813358682, 36.195958241015759 ] } },
{ "type": "Feature", "properties": { "P29_001": "11209", "P29_002": "F111310102165", "P29_003": "16007", "P29_004": "駿河台大学", "P29_005": "埼玉県飯能市大字阿須字一の木698", "P29_006": "4", "P29_007": "0", "P29_008": "00", "P29_009": null }, "geometry": { "type": "Point", "coordinates": [ 139.334797996104953, 35.832708002222624 ] } },
{ "type": "Feature", "properties": { "P29_001": "11219", "P29_002": "F111310102174", "P29_003": "16007", "P29_004": "聖学院大学", "P29_005": "埼玉県上尾市戸崎1-1", "P29_006": "4", "P29_007": "0", "P29_008": "00", "P29_009": null }, "geometry": { "type": "Point", "coordinates": [ 139.596109117950306, 35.938190716185169 ] } },
{ "type": "Feature", "properties": { "P29_001": "11239", "P29_002": "F111310102183", "P29_003": "16007", "P29_004": "女子栄養大学", "P29_005": "埼玉県坂戸市千代田3-9-21", "P29_006": "4", "P29_007": "0", "P29_008": "00", "P29_009": "坂戸キャンパス" }, "geometry": { "type": "Point", "coordinates": [ 139.410159997377605, 35.951968383682114 ] } },
{ "type": "Feature", "properties": { "P29_001": "11218", "P29_002": "F111310102192", "P29_003": "16007", "P29_004": "東都大学", "P29_005": "埼玉県深谷市上柴町西4-2-11", "P29_006": "4", "P29_007": "0", "P29_008": "00", "P29_009": null }, "geometry": { "type": "Point", "coordinates": [ 139.298412733856395, 36.180466771524124 ] } },
{ "type": "Feature", "properties": { "P29_001": "11240", "P29_002": "F111310102209", "P29_003": "16007", "P29_004": "日本保健医療大学", "P29_005": "埼玉県幸手市大字幸手1961-2", "P29_006": "4", "P29_007": "0", "P29_008": "00", "P29_009": null }, "geometry": { "type": "Point", "coordinates": [ 139.731427914731739, 36.072676585077581 ] } },
{ "type": "Feature", "properties": { "P29_001": "11110", "P29_002": "F111310102049", "P29_003": "16007", "P29_004": "人間総合科学大学", "P29_005": "埼玉県さいたま市岩槻区太田新正寺曲輪354-3", "P29_006": "4", "P29_007": "0", "P29_008": "02", "P29_009": "岩槻キャンパス" }, "geometry": { "type": "Point", "coordinates": [ 139.698780182278625, 35.959992844351063 ] } },
{ "type": "Feature", "properties": { "P29_001": "11201", "P29_002": "F111310102085", "P29_003": "16007", "P29_004": "東京国際大学", "P29_005": "埼玉県川越市的場2509", "P29_006": "4", "P29_007": "0", "P29_008": "02", "P29_009": "川越第2キャンパス" }, "geometry": { "type": "Point", "coordinates": [ 139.444603221363337, 35.919136046425159 ] } },
{ "type": "Feature", "properties": { "P29_001": "11201", "P29_002": "F111310102147", "P29_003": "16007", "P29_004": "埼玉医科大学", "P29_005": "埼玉県川越市脇田本町21-7", "P29_006": "4", "P29_007": "0", "P29_008": "02", "P29_009": "川越ビル" }, "geometry": { "type": "Point", "coordinates": [ 139.479752915121679, 35.907180793029376 ] } },
{ "type": "Feature", "properties": { "P29_001": "11201", "P29_002": "F111310102147", "P29_003": "16007", "P29_004": "埼玉医科大学", "P29_005": "埼玉県川越市鴨田辻道町1981", "P29_006": "4", "P29_007": "0", "P29_008": "03", "P29_009": "川越キャンパス" }, "geometry": { "type": "Point", "coordinates": [ 139.519599739321478, 35.934711316836918 ] } },
{ "type": "Feature", "properties": { "P29_001": "11242", "P29_002": "F111310102147", "P29_003": "16007", "P29_004": "埼玉医科大学", "P29_005": "埼玉県日高市大字山根1397-1", "P29_006": "4", "P29_007": "0", "P29_008": "04", "P29_009": "日高キャンパス" }, "geometry": { "type": "Point", "coordinates": [ 139.322096426831962, 35.921460584731996 ] } },
{ "type": "Feature", "properties": { "P29_001": "11326", "P29_002": "F111310102147", "P29_003": "16007", "P29_004": "埼玉医科大学", "P29_005": "埼玉県毛呂山町毛呂川角981", "P29_006": "4", "P29_007": "0", "P29_008": "05", "P29_009": "川角キャンパス" }, "geometry": { "type": "Point", "coordinates": [ 139.342799807142399, 35.955505042034311 ] } },
{ "type": "Feature", "properties": { "P29_001": "11324", "P29_002": "F112310102413", "P29_003": "16007", "P29_004": "淑徳大学", "P29_005": "埼玉県入間郡三芳町藤久保1150?1", "P29_006": "4", "P29_007": "0", "P29_008": "02", "P29_009": "埼玉キャンパス" }, "geometry": { "type": "Point", "coordinates": [ 139.530694002274942, 35.825576682581286 ] } },
{ "type": "Feature", "properties": { "P29_001": "11230", "P29_002": "F113310102859", "P29_003": "16007", "P29_004": "跡見学園女子大学", "P29_005": "埼玉県新座市中野1-9-6", "P29_006": "4", "P29_007": "0", "P29_008": "02", "P29_009": "新座キャンパス" }, "geometry": { "type": "Point", "coordinates": [ 139.542494734887669, 35.817242357300785 ] } },
{ "type": "Feature", "properties": { "P29_001": "11222", "P29_002": "F113310102868", "P29_003": "16007", "P29_004": "文教大学", "P29_005": "埼玉県越谷市南荻島3337", "P29_006": "4", "P29_007": "0", "P29_008": "02", "P29_009": "越谷キャンパス" }, "geometry": { "type": "Point", "coordinates": [ 139.773659879904926, 35.90482873417411 ] } },
{ "type": "Feature", "properties": { "P29_001": "11245", "P29_002": "F113310102877", "P29_003": "16007", "P29_004": "文京学院大学", "P29_005": "埼玉県ふじみ野市亀久保1196", "P29_006": "4", "P29_007": "0", "P29_008": "02", "P29_009": "ふじみ野キャンパス" }, "geometry": { "type": "Point", "coordinates": [ 139.502163179005152, 35.855578426091206 ] } },
{ "type": "Feature", "properties": { "P29_001": "11110", "P29_002": "F113310102886", "P29_003": "16007", "P29_004": "目白大学", "P29_005": "埼玉県さいたま市岩槻区浮谷320", "P29_006": "4", "P29_007": "0", "P29_008": "02", "P29_009": "さいたま岩槻キャンパス" }, "geometry": { "type": "Point", "coordinates": [ 139.712552449402978, 35.924368383097196 ] } },
{ "type": "Feature", "properties": { "P29_001": "11104", "P29_002": "F113310103046", "P29_003": "16007", "P29_004": "芝浦工業大学", "P29_005": "埼玉県さいたま市見沼区深作307", "P29_006": "4", "P29_007": "0", "P29_008": "02", "P29_009": "大宮キャンパス" }, "geometry": { "type": "Point", "coordinates": [ 139.65444108687683, 35.95193213995578 ] } },
{ "type": "Feature", "properties": { "P29_001": "11212", "P29_002": "F113310103180", "P29_003": "16007", "P29_004": "大東文化大学", "P29_005": "埼玉県東松山市岩殿560", "P29_006": "4", "P29_007": "0", "P29_008": "02", "P29_009": "埼玉東松山キャンパス" }, "geometry": { "type": "Point", "coordinates": [ 139.368509197136547, 36.001355457374487 ] } },
{ "type": "Feature", "properties": { "P29_001": "11215", "P29_002": "F113310103251", "P29_003": "16007", "P29_004": "東京家政大学", "P29_005": "埼玉県狭山市稲荷山2-15-1", "P29_006": "4", "P29_007": "0", "P29_008": "02", "P29_009": "狭山キャンパス" }, "geometry": { "type": "Point", "coordinates": [ 139.394532789281897, 35.84381755196133 ] } },
{ "type": "Feature", "properties": { "P29_001": "11348", "P29_002": "F113310103313", "P29_003": "16007", "P29_004": "東京電機大学", "P29_005": "埼玉県鳩山町大字石坂", "P29_006": "4", "P29_007": "0", "P29_008": "02", "P29_009": "埼玉鳩山キャンパス" }, "geometry": { "type": "Point", "coordinates": [ 139.373944344333239, 35.986225990172535 ] } },
{ "type": "Feature", "properties": { "P29_001": "11201", "P29_002": "F113310103368", "P29_003": "16007", "P29_004": "東洋大学", "P29_005": "埼玉県川越市鯨井2100", "P29_006": "4", "P29_007": "0", "P29_008": "02", "P29_009": "川越キャンパス" }, "geometry": { "type": "Point", "coordinates": [ 139.432475074766558, 35.93524061379086 ] } },
{ "type": "Feature", "properties": { "P29_001": "11227", "P29_002": "F113310103368", "P29_003": "16007", "P29_004": "東洋大学", "P29_005": "埼玉県朝霞市岡48-1", "P29_006": "4", "P29_007": "0", "P29_008": "03", "P29_009": "朝霞キャンパス" }, "geometry": { "type": "Point", "coordinates": [ 139.595974441842571, 35.813258514454176 ] } },
{ "type": "Feature", "properties": { "P29_001": "11104", "P29_002": "F113310103395", "P29_003": "16007", "P29_004": "日本大学", "P29_005": "埼玉県さいたま市見沼区東新井541", "P29_006": "4", "P29_007": "0", "P29_008": "03", "P29_009": "法学部大宮キャンパス" }, "geometry": { "type": "Point", "coordinates": [ 139.662426624627926, 35.911974148554584 ] } },
{ "type": "Feature", "properties": { "P29_001": "11225", "P29_002": "F113310103527", "P29_003": "16007", "P29_004": "武蔵野音楽大学", "P29_005": "埼玉県入間市中神728", "P29_006": "4", "P29_007": "0", "P29_008": "02", "P29_009": "入間キャンパス" }, "geometry": { "type": "Point", "coordinates": [ 139.355694002274902, 35.830180960117922 ] } },
{ "type": "Feature", "properties": { "P29_001": "11230", "P29_002": "F113310103563", "P29_003": "16007", "P29_004": "立教大学", "P29_005": "埼玉県新座市北野1-2-26", "P29_006": "4", "P29_007": "0", "P29_008": "02", "P29_009": "新座キャンパス" }, "geometry": { "type": "Point", "coordinates": [ 139.566147450908289, 35.814148645811152 ] } },
{ "type": "Feature", "properties": { "P29_001": "11202", "P29_002": "F113310103572", "P29_003": "16007", "P29_004": "立正大学", "P29_005": "埼玉県熊谷市万吉1700", "P29_006": "4", "P29_007": "0", "P29_008": "02", "P29_009": "熊谷キャンパス" }, "geometry": { "type": "Point", "coordinates": [ 139.362595567189118, 36.108415111047435 ] } },
{ "type": "Feature", "properties": { "P29_001": "11208", "P29_002": "F113310103581", "P29_003": "16007", "P29_004": "早稲田大学", "P29_005": "埼玉県所沢市三ヶ島2-579-15", "P29_006": "4", "P29_007": "0", "P29_008": "02", "P29_009": "所沢キャンパス" }, "geometry": { "type": "Point", "coordinates": [ 139.399442352724833, 35.78560576545739 ] } },
{ "type": "Feature", "properties": { "P29_001": "11105", "P29_002": "F113310103910", "P29_003": "16007", "P29_004": "日本赤十字看護大学", "P29_005": "埼玉県さいたま市中央区上落合8-7-19", "P29_006": "4", "P29_007": "0", "P29_008": "02", "P29_009": "大宮キャンパス" }, "geometry": { "type": "Point", "coordinates": [ 139.622225108386658, 35.899116331504381 ] } }
]
}
