{
"type": "FeatureCollection",
"name": "geo_11_通所リハビリテーション",
"crs": { "type": "name", "properties": { "name": "urn:ogc:def:crs:OGC:1.3:CRS84" } },
"features": [
{ "type": "Feature", "properties": { "内容": "むらたクリニックデイケアセンター【通所リハビリテーション】さいたま市西区内野本郷450-1", "url": "https://www.kaigokensaku.mhlw.go.jp/11/index.php?action_kouhyou_detail_004_kani=true&JigyosyoCd=1116506448-00&ServiceCd=160&Type=search", "url2": "http://www.murataseikei-naika.com/" }, "geometry": { "type": "Point", "coordinates": [ 139.592562499999985, 35.9342701 ] } },
{ "type": "Feature", "properties": { "内容": "おおみや診療所【通所リハビリテーション】埼玉県さいたま市西区指扇1100-2", "url": "https://www.kaigokensaku.mhlw.go.jp/11/index.php?action_kouhyou_detail_004_kani=true&JigyosyoCd=1110305128-00&ServiceCd=160&Type=search", "url2": "http://www.oomiya.info" }, "geometry": { "type": "Point", "coordinates": [ 139.578799800000013, 35.912086 ] } },
{ "type": "Feature", "properties": { "内容": "介護老人保健施設　葵の園・大宮【通所リハビリテーション】埼玉県さいたま市西区清河寺685-1", "url": "https://www.kaigokensaku.mhlw.go.jp/11/index.php?action_kouhyou_detail_004_kani=true&JigyosyoCd=1156580118-00&ServiceCd=160&Type=search", "url2": "https://www.aoikai.jp/omiya/" }, "geometry": { "type": "Point", "coordinates": [ 139.582807699999989, 35.9336007 ] } },
{ "type": "Feature", "properties": { "内容": "高齢者ケアセンター　ゆらぎ【通所リハビリテーション】さいたま市西区西遊馬1556-1高齢者ケアセンターゆらぎ", "url": "https://www.kaigokensaku.mhlw.go.jp/11/index.php?action_kouhyou_detail_004_kani=true&JigyosyoCd=1150380048-00&ServiceCd=160&Type=search", "url2": "https://omiya-kyoritsu.or.jp/yuragi/" }, "geometry": { "type": "Point", "coordinates": [ 139.564767599999982, 35.9113325 ] } },
{ "type": "Feature", "properties": { "内容": "ケア大宮花の丘【通所リハビリテーション】埼玉県さいたま市西区内野本郷９７５－５", "url": "https://www.kaigokensaku.mhlw.go.jp/11/index.php?action_kouhyou_detail_004_kani=true&JigyosyoCd=11B6500048-00&ServiceCd=160&Type=search", "url2": "https:care-omiya.maruyamakai.jp" }, "geometry": { "type": "Point", "coordinates": [ 139.590629299999989, 35.938367900000017 ] } },
{ "type": "Feature", "properties": { "内容": "通所リハビリ　春陽苑【通所リハビリテーション】埼玉県さいたま市西区飯田新田91-1", "url": "https://www.kaigokensaku.mhlw.go.jp/11/index.php?action_kouhyou_detail_004_kani=true&JigyosyoCd=1150380055-00&ServiceCd=160&Type=search", "url2": "http://www.mutsumikai.net" }, "geometry": { "type": "Point", "coordinates": [ 139.559774299999958, 35.8880939 ] } },
{ "type": "Feature", "properties": { "内容": "介護老人保健施設　　トワーム指扇【通所リハビリテーション】埼玉県さいたま市西区宝来５９１", "url": "https://www.kaigokensaku.mhlw.go.jp/11/index.php?action_kouhyou_detail_004_kani=true&JigyosyoCd=1156580001-00&ServiceCd=160&Type=search", "url2": "http://www.towarm.com/sashiougi/" }, "geometry": { "type": "Point", "coordinates": [ 139.5578789, 35.9269635 ] } },
{ "type": "Feature", "properties": { "内容": "ル・サンク湯澤【通所リハビリテーション】さいたま市西区三橋6丁目567番地ル・サンク湯澤", "url": "https://www.kaigokensaku.mhlw.go.jp/11/index.php?action_kouhyou_detail_004_kani=true&JigyosyoCd=1156580167-00&ServiceCd=160&Type=search", "url2": "https://hakushinkai.jp/facilities/le_cinq_daycare/" }, "geometry": { "type": "Point", "coordinates": [ 139.5917412, 35.9156939 ] } },
{ "type": "Feature", "properties": { "内容": "介護老人保健施設　ハートランド大宮【通所リハビリテーション】さいたま市北区奈良町120-2", "url": "https://www.kaigokensaku.mhlw.go.jp/11/index.php?action_kouhyou_detail_004_kani=true&JigyosyoCd=1156580134-00&ServiceCd=160&Type=search", "url2": "http://www.seisekikai.com/heartland-miyahara/" }, "geometry": { "type": "Point", "coordinates": [ 139.597794900000054, 35.9515121 ] } },
{ "type": "Feature", "properties": { "内容": "介護老人保健施設　みやびの里【通所リハビリテーション】埼玉県さいたま市北区別所町920", "url": "https://www.kaigokensaku.mhlw.go.jp/11/index.php?action_kouhyou_detail_004_kani=true&JigyosyoCd=1156580047-00&ServiceCd=160&Type=search", "url2": "http://miyabinosato.org/" }, "geometry": { "type": "Point", "coordinates": [ 139.590623100000016, 35.9578191 ] } },
{ "type": "Feature", "properties": { "内容": "介護老人保健施設　ボヌール【通所リハビリテーション】埼玉県さいたま市北区吉野町２丁目１３６５番地", "url": "https://www.kaigokensaku.mhlw.go.jp/11/index.php?action_kouhyou_detail_004_kani=true&JigyosyoCd=1156580054-00&ServiceCd=160&Type=search", "url2": "http://www.bonheur.or.jp" }, "geometry": { "type": "Point", "coordinates": [ 139.619120400000043, 35.9633026 ] } },
{ "type": "Feature", "properties": { "内容": "OKPwithLifeクリニック【通所リハビリテーション】埼玉県さいたま市北区櫛引町二丁目488番地1", "url": "https://www.kaigokensaku.mhlw.go.jp/11/index.php?action_kouhyou_detail_004_kani=true&JigyosyoCd=1116519912-00&ServiceCd=160&Type=search", "url2": "https://okpwithlife.kouaikai.jp/" }, "geometry": { "type": "Point", "coordinates": [ 139.6074, 35.920508600000019 ] } },
{ "type": "Feature", "properties": { "内容": "医療法人明浩会　西大宮病院デイケア【通所リハビリテーション】埼玉県さいたま市大宮区三橋１－１１７３西大宮病院内", "url": "https://www.kaigokensaku.mhlw.go.jp/11/index.php?action_kouhyou_detail_004_kani=true&JigyosyoCd=1176501656-00&ServiceCd=160&Type=search", "url2": "http://www.nishiohmiya-hp.or.jp/index.html" }, "geometry": { "type": "Point", "coordinates": [ 139.599348502377353, 35.906909775365875 ] } },
{ "type": "Feature", "properties": { "内容": "おおみや整形クリニック【通所リハビリテーション】埼玉県さいたま市大宮区大門町二丁目118大宮門街WEST4階", "url": "https://www.kaigokensaku.mhlw.go.jp/11/index.php?action_kouhyou_detail_004_kani=true&JigyosyoCd=1116519532-00&ServiceCd=160&Type=search", "url2": "https://omiya-keisei.com/" }, "geometry": { "type": "Point", "coordinates": [ 139.6271701, 35.9073402 ] } },
{ "type": "Feature", "properties": { "内容": "介護老人保健施設高齢者ケアセンターのぞみ【通所リハビリテーション】さいたま市見沼区片柳１３８７－１", "url": "https://www.kaigokensaku.mhlw.go.jp/11/index.php?action_kouhyou_detail_004_kani=true&JigyosyoCd=1156580092-00&ServiceCd=160&Type=search", "url2": "https://omiya-kyoritsu.or.jp/nozomi/" }, "geometry": { "type": "Point", "coordinates": [ 139.690285200000062, 35.9033136 ] } },
{ "type": "Feature", "properties": { "内容": "ハートの森クリニック【通所リハビリテーション】さいたま市見沼区東大宮2-35-3", "url": "https://www.kaigokensaku.mhlw.go.jp/11/index.php?action_kouhyou_detail_004_kani=true&JigyosyoCd=1116500532-00&ServiceCd=160&Type=search", "url2": "www.heartnomori.or.jp" }, "geometry": { "type": "Point", "coordinates": [ 139.634905600000025, 35.9481867 ] } },
{ "type": "Feature", "properties": { "内容": "ハートの森通所リハビリセンター【通所リハビリテーション】さいたま市見沼区東大宮2-41-3", "url": "https://www.kaigokensaku.mhlw.go.jp/11/index.php?action_kouhyou_detail_004_kani=true&JigyosyoCd=1176507158-00&ServiceCd=160&Type=search", "url2": "http://www.heartnomori.or.jp" }, "geometry": { "type": "Point", "coordinates": [ 139.6343167, 35.9483699 ] } },
{ "type": "Feature", "properties": { "内容": "ハートケア東大宮【通所リハビリテーション】埼玉県さいたま市見沼区大字風渡野４５", "url": "https://www.kaigokensaku.mhlw.go.jp/11/index.php?action_kouhyou_detail_004_kani=true&JigyosyoCd=1156580021-00&ServiceCd=160&Type=search", "url2": "https://www.hc-higashiomiya.jp" }, "geometry": { "type": "Point", "coordinates": [ 139.673877400000038, 35.9373896 ] } },
{ "type": "Feature", "properties": { "内容": "あすはゆリハビリクリニック【通所リハビリテーション】埼玉県さいたま市見沼区東大宮5-39-3英和ビル４F", "url": "https://www.kaigokensaku.mhlw.go.jp/11/index.php?action_kouhyou_detail_004_kani=true&JigyosyoCd=1116509319-00&ServiceCd=160&Type=search", "url2": "https://www.asuhayu.com" }, "geometry": { "type": "Point", "coordinates": [ 139.640960299999989, 35.9490935 ] } },
{ "type": "Feature", "properties": { "内容": "介護老人保健施設　あすか【通所リハビリテーション】さいたま市見沼区染谷３丁目４３０番地１", "url": "https://www.kaigokensaku.mhlw.go.jp/11/index.php?action_kouhyou_detail_004_kani=true&JigyosyoCd=1150380030-00&ServiceCd=160&Type=search", "url2": "http://www.zuisen.net" }, "geometry": { "type": "Point", "coordinates": [ 139.686513200000036, 35.9078463 ] } },
{ "type": "Feature", "properties": { "内容": "しらかば苑【通所リハビリテーション】埼玉県さいたま市見沼区大和田町２丁目１３９３番地１", "url": "https://www.kaigokensaku.mhlw.go.jp/11/index.php?action_kouhyou_detail_004_kani=true&JigyosyoCd=11B6500022-00&ServiceCd=160&Type=search", "url2": "https://koujinkai-owd.or.jp/publics/index/100/" }, "geometry": { "type": "Point", "coordinates": [ 139.6521333, 35.9317063 ] } },
{ "type": "Feature", "properties": { "内容": "介護老人保健施設　アーバンみらいハートランド東大宮【通所リハビリテーション】埼玉県さいたま市見沼区春野2-9-22番地", "url": "https://www.kaigokensaku.mhlw.go.jp/11/index.php?action_kouhyou_detail_004_kani=true&JigyosyoCd=1156580062-00&ServiceCd=160&Type=search", "url2": "http://www.seisekikai.com/heartland-higashioomiya" }, "geometry": { "type": "Point", "coordinates": [ 139.660516799999982, 35.9576117 ] } },
{ "type": "Feature", "properties": { "内容": "通所リハビリテーションなごみ【通所リハビリテーション】埼玉県さいたま市中央区新中里2-9-35", "url": "https://www.kaigokensaku.mhlw.go.jp/11/index.php?action_kouhyou_detail_004_kani=true&JigyosyoCd=1176506085-00&ServiceCd=160&Type=search", "url2": "http://shiseidou.or.jp/index.html" }, "geometry": { "type": "Point", "coordinates": [ 139.633180883467105, 35.871784177455119 ] } },
{ "type": "Feature", "properties": { "内容": "介護老人保健施設ファインハイム【通所リハビリテーション】埼玉県さいたま市桜区宿３７２－１", "url": "https://www.kaigokensaku.mhlw.go.jp/11/index.php?action_kouhyou_detail_004_kani=true&JigyosyoCd=1156580013-00&ServiceCd=160&Type=search", "url2": "http://www.anseifukushikai.or.jp/" }, "geometry": { "type": "Point", "coordinates": [ 139.594741699999986, 35.8768538 ] } },
{ "type": "Feature", "properties": { "内容": "介護老人保健施設うらわの里【通所リハビリテーション】さいたま市桜区西堀８－４－１", "url": "https://www.kaigokensaku.mhlw.go.jp/11/index.php?action_kouhyou_detail_004_kani=true&JigyosyoCd=1150180026-00&ServiceCd=160&Type=search", "url2": "http://www.eijukai.com" }, "geometry": { "type": "Point", "coordinates": [ 139.634666599999946, 35.8602624 ] } },
{ "type": "Feature", "properties": { "内容": "青木医院　通所リハビリセンター【通所リハビリテーション】埼玉県さいたま市浦和区岸町2－8－13", "url": "https://www.kaigokensaku.mhlw.go.jp/11/index.php?action_kouhyou_detail_004_kani=true&JigyosyoCd=1176507513-00&ServiceCd=160&Type=search", "url2": "http://aoki-iin.or.jp" }, "geometry": { "type": "Point", "coordinates": [ 139.65803690000007, 35.8514248 ] } },
{ "type": "Feature", "properties": { "内容": "青木医院【通所リハビリテーション】埼玉県さいたま市浦和区岸町2-8-13", "url": "https://www.kaigokensaku.mhlw.go.jp/11/index.php?action_kouhyou_detail_004_kani=true&JigyosyoCd=1116503445-00&ServiceCd=160&Type=search", "url2": "http://aoki-iin.or.jp" }, "geometry": { "type": "Point", "coordinates": [ 139.658109463823706, 35.851526112129498 ] } },
{ "type": "Feature", "properties": { "内容": "医療法人だんだん会　みんなの内科　木崎デイケア【通所リハビリテーション】埼玉県さいたま市浦和区木崎1-1-7", "url": "https://www.kaigokensaku.mhlw.go.jp/11/index.php?action_kouhyou_detail_004_kani=true&JigyosyoCd=1116520332-00&ServiceCd=160&Type=search", "url2": "https://minna-no-naika.com/daycare/" }, "geometry": { "type": "Point", "coordinates": [ 139.6570566, 35.8842558 ] } },
{ "type": "Feature", "properties": { "内容": "介護老人保健施設　葵の園・浦和【通所リハビリテーション】埼玉県さいたま市内谷5-24-1", "url": "https://www.kaigokensaku.mhlw.go.jp/11/index.php?action_kouhyou_detail_004_kani=true&JigyosyoCd=1156580159-00&ServiceCd=160&Type=search", "url2": "http://www.aoikai.jp" }, "geometry": { "type": "Point", "coordinates": [ 139.6445679, 35.8304525 ] } },
{ "type": "Feature", "properties": { "内容": "介護老人保健施設あさがお【通所リハビリテーション】埼玉県さいたま市緑区大崎３３８５－１", "url": "https://www.kaigokensaku.mhlw.go.jp/11/index.php?action_kouhyou_detail_004_kani=true&JigyosyoCd=1156580100-00&ServiceCd=160&Type=search", "url2": "http://une-fleur.or.jp" }, "geometry": { "type": "Point", "coordinates": [ 139.716058, 35.8869493 ] } },
{ "type": "Feature", "properties": { "内容": "エスポワールさいたま【通所リハビリテーション】埼玉県さいたま市緑区大門1548-7", "url": "https://www.kaigokensaku.mhlw.go.jp/11/index.php?action_kouhyou_detail_004_kani=true&JigyosyoCd=1156580126-00&ServiceCd=160&Type=search", "url2": "https://www.esp-saitama.com/" }, "geometry": { "type": "Point", "coordinates": [ 139.7281381, 35.882746499999989 ] } },
{ "type": "Feature", "properties": { "内容": "介護老人保健施設　尚和園アンシャンテ【通所リハビリテーション】埼玉県さいたま市緑区原山3-15-31", "url": "https://www.kaigokensaku.mhlw.go.jp/11/index.php?action_kouhyou_detail_004_kani=true&JigyosyoCd=1156580088-00&ServiceCd=160&Type=search", "url2": "http://saitamakenkyousaikai.jp/" }, "geometry": { "type": "Point", "coordinates": [ 139.6754264, 35.8722395 ] } },
{ "type": "Feature", "properties": { "内容": "ロコモステーションふさ【通所リハビリテーション】埼玉県さいたま市緑区美園5-39-25", "url": "https://www.kaigokensaku.mhlw.go.jp/11/index.php?action_kouhyou_detail_004_kani=true&JigyosyoCd=1116506653-00&ServiceCd=160&Type=search", "url2": "shimizu-clinic-fusa.com" }, "geometry": { "type": "Point", "coordinates": [ 139.732725699999946, 35.8926906 ] } },
{ "type": "Feature", "properties": { "内容": "リハビリ　いわつき【通所リハビリテーション】埼玉県さいたま市岩槻区東岩槻２－２－２０", "url": "https://www.kaigokensaku.mhlw.go.jp/11/index.php?action_kouhyou_detail_004_kani=true&JigyosyoCd=1176506358-00&ServiceCd=160&Type=search", "url2": null }, "geometry": { "type": "Point", "coordinates": [ 139.7095974, 35.9645313 ] } },
{ "type": "Feature", "properties": { "内容": "いしまるクリニック　リハビリテーションセンター【通所リハビリテーション】さいたま市岩槻区2-2-15", "url": "https://www.kaigokensaku.mhlw.go.jp/11/index.php?action_kouhyou_detail_004_kani=true&JigyosyoCd=1116506802-00&ServiceCd=160&Type=search", "url2": "http://ishimaru-clinic.com/" }, "geometry": { "type": "Point", "coordinates": [ 139.708200021969219, 35.967498815345785 ] } },
{ "type": "Feature", "properties": { "内容": "医療法人　慈正会　丸山記念総合病院【通所リハビリテーション】埼玉県さいたま市岩槻区本町2-10-5", "url": "https://www.kaigokensaku.mhlw.go.jp/11/index.php?action_kouhyou_detail_004_kani=true&JigyosyoCd=1110700054-00&ServiceCd=160&Type=search", "url2": "http://www.maruyama-hp.or.jp" }, "geometry": { "type": "Point", "coordinates": [ 139.695561700000013, 35.945064800000011 ] } },
{ "type": "Feature", "properties": { "内容": "医療法人　東州会　フローラ太田小通りクリニック【通所リハビリテーション】さいたま市岩槻区仲町1-12-27", "url": "https://www.kaigokensaku.mhlw.go.jp/11/index.php?action_kouhyou_detail_004_kani=true&JigyosyoCd=1116504070-00&ServiceCd=160&Type=search", "url2": "http://flora-cl.jp" }, "geometry": { "type": "Point", "coordinates": [ 139.7012532, 35.9471664 ] } },
{ "type": "Feature", "properties": { "内容": "デイケアフローラ太田小通りクリニック【通所リハビリテーション】さいたま市岩槻区仲町1-12-27", "url": "https://www.kaigokensaku.mhlw.go.jp/11/index.php?action_kouhyou_detail_004_kani=true&JigyosyoCd=1176506846-00&ServiceCd=160&Type=search", "url2": "https://flora-cl.jp/" }, "geometry": { "type": "Point", "coordinates": [ 139.701218499999982, 35.9472252 ] } },
{ "type": "Feature", "properties": { "内容": "介護老人保健施設ソワンルミエ槻の森【通所リハビリテーション】埼玉県さいたま市岩槻区平林寺108", "url": "https://www.kaigokensaku.mhlw.go.jp/11/index.php?action_kouhyou_detail_004_kani=true&JigyosyoCd=1176516563-00&ServiceCd=160&Type=search", "url2": "hikarikaigroup.com/soinlumie/" }, "geometry": { "type": "Point", "coordinates": [ 139.6701424, 35.964588 ] } },
{ "type": "Feature", "properties": { "内容": "田中ファミリークリニック【通所リハビリテーション】埼玉県さいたま市岩槻区大字鹿室９８７－１", "url": "https://www.kaigokensaku.mhlw.go.jp/11/index.php?action_kouhyou_detail_004_kani=true&JigyosyoCd=1170700098-00&ServiceCd=160&Type=search", "url2": "http://www.tanaka-family-clinic.com/" }, "geometry": { "type": "Point", "coordinates": [ 139.700975700177395, 35.98918592726416 ] } },
{ "type": "Feature", "properties": { "内容": "介護老人保健施設　岩槻ライトケア【通所リハビリテーション】埼玉県さいたま市岩槻区馬込１２９２", "url": "https://www.kaigokensaku.mhlw.go.jp/11/index.php?action_kouhyou_detail_004_kani=true&JigyosyoCd=1150780023-00&ServiceCd=160&Type=search", "url2": "hikarikaigroup.com/lightcare/introduction/" }, "geometry": { "type": "Point", "coordinates": [ 139.659347, 35.9704268 ] } },
{ "type": "Feature", "properties": { "内容": "エスポワール岩槻【通所リハビリテーション】表慈恩寺541-1", "url": "https://www.kaigokensaku.mhlw.go.jp/11/index.php?action_kouhyou_detail_004_kani=true&JigyosyoCd=1156580183-00&ServiceCd=160&Type=search", "url2": "https://www.esp-iwatsuki.com/" }, "geometry": { "type": "Point", "coordinates": [ 139.711938, 35.9671011 ] } },
{ "type": "Feature", "properties": { "内容": "笠幡病院通所リハビリテーションセンター【通所リハビリテーション】埼玉県川越市笠幡4955番地１笠幡病院", "url": "https://www.kaigokensaku.mhlw.go.jp/11/index.php?action_kouhyou_detail_004_kani=true&JigyosyoCd=1110402701-00&ServiceCd=160&Type=search", "url2": null }, "geometry": { "type": "Point", "coordinates": [ 139.412958200000048, 35.9036436 ] } },
{ "type": "Feature", "properties": { "内容": "介護老人保健施設川越ケアセンター【通所リハビリテーション】埼玉県川越市下広谷527-1", "url": "https://www.kaigokensaku.mhlw.go.jp/11/index.php?action_kouhyou_detail_004_kani=true&JigyosyoCd=1150480020-00&ServiceCd=160&Type=search", "url2": "https://mcp-net.jp/kawagoe-care-center/about.html" }, "geometry": { "type": "Point", "coordinates": [ 139.4339347, 35.9523383 ] } },
{ "type": "Feature", "properties": { "内容": "かわごえクリニック通所リハビリテーション【通所リハビリテーション】埼玉県川越市脇田本町21-7埼玉医科大学川越ビル", "url": "https://www.kaigokensaku.mhlw.go.jp/11/index.php?action_kouhyou_detail_004_kani=true&JigyosyoCd=1110404632-00&ServiceCd=160&Type=search", "url2": "http://www.saitama-med.ac.jp/kc/" }, "geometry": { "type": "Point", "coordinates": [ 139.479872200000045, 35.9071504 ] } },
{ "type": "Feature", "properties": { "内容": "介護老人保健施設プライムケア川越【通所リハビリテーション】埼玉県川越市天沼新田307-１", "url": "https://www.kaigokensaku.mhlw.go.jp/11/index.php?action_kouhyou_detail_004_kani=true&JigyosyoCd=1150480012-00&ServiceCd=160&Type=search", "url2": null }, "geometry": { "type": "Point", "coordinates": [ 139.432721, 35.9377742 ] } },
{ "type": "Feature", "properties": { "内容": "医療法人　西部診療所【通所リハビリテーション】埼玉県川越市天沼新田３０７－１", "url": "https://www.kaigokensaku.mhlw.go.jp/11/index.php?action_kouhyou_detail_004_kani=true&JigyosyoCd=1110403170-00&ServiceCd=160&Type=search", "url2": "www.seibu-hp.jp" }, "geometry": { "type": "Point", "coordinates": [ 139.432721, 35.9377742 ] } },
{ "type": "Feature", "properties": { "内容": "医療法人泰一会　介護老人保健施設はつかり【通所リハビリテーション】埼玉県川越市大字松郷821-1", "url": "https://www.kaigokensaku.mhlw.go.jp/11/index.php?action_kouhyou_detail_004_kani=true&JigyosyoCd=1150480091-00&ServiceCd=160&Type=search", "url2": "http://www.hatsukari.or.jp/" }, "geometry": { "type": "Point", "coordinates": [ 139.498558300000013, 35.921797 ] } },
{ "type": "Feature", "properties": { "内容": "介護老人保健施設　瑞穂の里【通所リハビリテーション】埼玉県川越市中台元町1-16-11", "url": "https://www.kaigokensaku.mhlw.go.jp/11/index.php?action_kouhyou_detail_004_kani=true&JigyosyoCd=1150480053-00&ServiceCd=160&Type=search", "url2": "http://www.mizuhokai.or.jp" }, "geometry": { "type": "Point", "coordinates": [ 139.481750499999976, 35.8913385 ] } },
{ "type": "Feature", "properties": { "内容": "介護老人保健施設　ケアハイツ・川越　通所リハビリテーション【通所リハビリテーション】川越市古谷本郷１４７５－１", "url": "https://www.kaigokensaku.mhlw.go.jp/11/index.php?action_kouhyou_detail_004_kani=true&JigyosyoCd=1150480046-00&ServiceCd=160&Type=search", "url2": "http://www.kawatsuru-g.jp" }, "geometry": { "type": "Point", "coordinates": [ 139.551982800000019, 35.90167 ] } },
{ "type": "Feature", "properties": { "内容": "西武川越病院　通所リハビリテーション【通所リハビリテーション】川越市大字今福２６５番地２", "url": "https://www.kaigokensaku.mhlw.go.jp/11/index.php?action_kouhyou_detail_004_kani=true&JigyosyoCd=1170400657-00&ServiceCd=160&Type=search", "url2": "http://www.seibukawagoe-hp.or.jp/" }, "geometry": { "type": "Point", "coordinates": [ 139.466002399999979, 35.8754205 ] } },
{ "type": "Feature", "properties": { "内容": "医療法人真正会　霞ヶ関南病院デイホスピタル【通所リハビリテーション】埼玉県川越市安比奈新田２８３－１", "url": "https://www.kaigokensaku.mhlw.go.jp/11/index.php?action_kouhyou_detail_004_kani=true&JigyosyoCd=1170400152-00&ServiceCd=160&Type=search", "url2": "http://www.kasumi-gr.com/" }, "geometry": { "type": "Point", "coordinates": [ 139.419574300000022, 35.9020994 ] } },
{ "type": "Feature", "properties": { "内容": "医療法人真正会　デイリビング【通所リハビリテーション】埼玉県川越市安比奈新田259番地2霞ヶ関在宅リハビリテーションセンター", "url": "https://www.kaigokensaku.mhlw.go.jp/11/index.php?action_kouhyou_detail_004_kani=true&JigyosyoCd=1110406009-00&ServiceCd=160&Type=search", "url2": "www.kasumi-gr.com/index2.html" }, "geometry": { "type": "Point", "coordinates": [ 139.419288300000062, 35.9047489 ] } },
{ "type": "Feature", "properties": { "内容": "介護老人保健施設　小江戸の郷【通所リハビリテーション】埼玉県川越市上老袋86-1", "url": "https://www.kaigokensaku.mhlw.go.jp/11/index.php?action_kouhyou_detail_004_kani=true&JigyosyoCd=1150480075-00&ServiceCd=160&Type=search", "url2": "http://koedonosato.jp/" }, "geometry": { "type": "Point", "coordinates": [ 139.525114499999972, 35.9467374 ] } },
{ "type": "Feature", "properties": { "内容": "介護老人保健施設　ケアパーク江南【通所リハビリテーション】埼玉県熊谷市江南中央2-7-8", "url": "https://www.kaigokensaku.mhlw.go.jp/11/index.php?action_kouhyou_detail_004_kani=true&JigyosyoCd=1154580015-00&ServiceCd=160&Type=search", "url2": "info@carepark.or.jp" }, "geometry": { "type": "Point", "coordinates": [ 139.339440500000023, 36.1137884 ] } },
{ "type": "Feature", "properties": { "内容": "医療法人社団　葵会　介護老人保健施設　葵の園・熊谷【通所リハビリテーション】埼玉県熊谷市善ヶ島１３２４－１", "url": "https://www.kaigokensaku.mhlw.go.jp/11/index.php?action_kouhyou_detail_004_kani=true&JigyosyoCd=1153180037-00&ServiceCd=160&Type=search", "url2": "http://www.aoikai.jp" }, "geometry": { "type": "Point", "coordinates": [ 139.395092200000022, 36.2210295 ] } },
{ "type": "Feature", "properties": { "内容": "はなぶさ温泉通所リハビリセンター【通所リハビリテーション】埼玉県熊谷市玉井３３６番地１", "url": "https://www.kaigokensaku.mhlw.go.jp/11/index.php?action_kouhyou_detail_004_kani=true&JigyosyoCd=1153180015-00&ServiceCd=160&Type=search", "url2": "http://hanabusaen.com" }, "geometry": { "type": "Point", "coordinates": [ 139.35114550000003, 36.1707314 ] } },
{ "type": "Feature", "properties": { "内容": "介護老人保健施設　トワーム熊谷【通所リハビリテーション】埼玉県熊谷市小曽根３３７－１", "url": "https://www.kaigokensaku.mhlw.go.jp/11/index.php?action_kouhyou_detail_004_kani=true&JigyosyoCd=1153100019-00&ServiceCd=160&Type=search", "url2": "http://www.towarm.com/kumagaya/" }, "geometry": { "type": "Point", "coordinates": [ 139.390134499999931, 36.173785 ] } },
{ "type": "Feature", "properties": { "内容": "めぬま整形外科通所リハビリテーションセンター【通所リハビリテーション】埼玉県熊谷市妻沼東4丁目66-5", "url": "https://www.kaigokensaku.mhlw.go.jp/11/index.php?action_kouhyou_detail_004_kani=true&JigyosyoCd=1113103348-00&ServiceCd=160&Type=search", "url2": "https://menuma-seikei.com/daycare.html" }, "geometry": { "type": "Point", "coordinates": [ 139.3871617, 36.2191999 ] } },
{ "type": "Feature", "properties": { "内容": "ぬくもり【通所リハビリテーション】埼玉県熊谷市石原５１０", "url": "https://www.kaigokensaku.mhlw.go.jp/11/index.php?action_kouhyou_detail_004_kani=true&JigyosyoCd=1153180023-00&ServiceCd=160&Type=search", "url2": "http://www.jikei.or.jp/nukumori/" }, "geometry": { "type": "Point", "coordinates": [ 139.371172900000033, 36.1562528 ] } },
{ "type": "Feature", "properties": { "内容": "熊谷生協病院【通所リハビリテーション】埼玉県熊谷市上之3854", "url": "https://www.kaigokensaku.mhlw.go.jp/11/index.php?action_kouhyou_detail_004_kani=true&JigyosyoCd=1113102761-00&ServiceCd=160&Type=search", "url2": "http://www.kumagaya-hospital.coop/" }, "geometry": { "type": "Point", "coordinates": [ 139.4144771, 36.150463 ] } },
{ "type": "Feature", "properties": { "内容": "医療法人同愛会　熊谷外科病院【通所リハビリテーション】埼玉県熊谷市佐谷田3811-1", "url": "https://www.kaigokensaku.mhlw.go.jp/11/index.php?action_kouhyou_detail_004_kani=true&JigyosyoCd=1113102654-00&ServiceCd=160&Type=search", "url2": "https://kumagayageka.or.jp/index.html" }, "geometry": { "type": "Point", "coordinates": [ 139.403125499999987, 36.13121 ] } },
{ "type": "Feature", "properties": { "内容": "さいわい診療所【通所リハビリテーション】埼玉県川口市西青木5-1-40", "url": "https://www.kaigokensaku.mhlw.go.jp/11/index.php?action_kouhyou_detail_004_kani=true&JigyosyoCd=1110210120-00&ServiceCd=160&Type=search", "url2": "http://saiwai-cl.jp/" }, "geometry": { "type": "Point", "coordinates": [ 139.716224517335519, 35.820549547370504 ] } },
{ "type": "Feature", "properties": { "内容": "介護老人保健施設　ミレニアムマッシーランド【通所リハビリテーション】埼玉県川口市新井宿802-5", "url": "https://www.kaigokensaku.mhlw.go.jp/11/index.php?action_kouhyou_detail_004_kani=true&JigyosyoCd=1150280024-00&ServiceCd=160&Type=search", "url2": "https://mashiko.or.jp/mashyland" }, "geometry": { "type": "Point", "coordinates": [ 139.7287725, 35.8423961 ] } },
{ "type": "Feature", "properties": { "内容": "青木中央クリニックリハビリセンター【通所リハビリテーション】埼玉県川口市柳崎3-7-24", "url": "https://www.kaigokensaku.mhlw.go.jp/11/index.php?action_kouhyou_detail_004_kani=true&JigyosyoCd=1110208223-00&ServiceCd=160&Type=search", "url2": "http://aoki-kai.jp/philosophy/" }, "geometry": { "type": "Point", "coordinates": [ 139.6977028, 35.852939 ] } },
{ "type": "Feature", "properties": { "内容": "介護老人保健施設厚生会川口ケアセンター【通所リハビリテーション】埼玉県川口市大字西新井宿１２７１－１", "url": "https://www.kaigokensaku.mhlw.go.jp/11/index.php?action_kouhyou_detail_004_kani=true&JigyosyoCd=1150280032-00&ServiceCd=160&Type=search", "url2": "http://www.saitamakousei.com/" }, "geometry": { "type": "Point", "coordinates": [ 139.73631869999997, 35.8525506 ] } },
{ "type": "Feature", "properties": { "内容": "通所リハビリテーションすこやか【通所リハビリテーション】川口市仲町　1-36", "url": "https://www.kaigokensaku.mhlw.go.jp/11/index.php?action_kouhyou_detail_004_kani=true&JigyosyoCd=1110210435-00&ServiceCd=160&Type=search", "url2": "https://kawaguchi-sukoyaka.com" }, "geometry": { "type": "Point", "coordinates": [ 139.7083701374344, 35.805535194189851 ] } },
{ "type": "Feature", "properties": { "内容": "介護老人保健施設　かわぐちナーシングホーム【通所リハビリテーション】埼玉県川口市西新井宿1022-1", "url": "https://www.kaigokensaku.mhlw.go.jp/11/index.php?action_kouhyou_detail_004_kani=true&JigyosyoCd=1150280137-00&ServiceCd=160&Type=search", "url2": "https://kawaguchi-nh.net" }, "geometry": { "type": "Point", "coordinates": [ 139.7315941, 35.8521966 ] } },
{ "type": "Feature", "properties": { "内容": "医療法人あかつき会老健ねぎしケアセンター【通所リハビリテーション】埼玉県川口市安行領根岸２３５３", "url": "https://www.kaigokensaku.mhlw.go.jp/11/index.php?action_kouhyou_detail_004_kani=true&JigyosyoCd=1150280040-00&ServiceCd=160&Type=search", "url2": "http://hatogaya-hp.or.jp/negishi/index.php" }, "geometry": { "type": "Point", "coordinates": [ 139.723523, 35.8431291 ] } },
{ "type": "Feature", "properties": { "内容": "医療法人　井上整形外科【通所リハビリテーション】埼玉県川口市並木2-7-1", "url": "https://www.kaigokensaku.mhlw.go.jp/11/index.php?action_kouhyou_detail_004_kani=true&JigyosyoCd=1110207985-00&ServiceCd=160&Type=search", "url2": "http://www.ne.jp./asahi/inoue/med/" }, "geometry": { "type": "Point", "coordinates": [ 139.708844499999941, 35.8176386 ] } },
{ "type": "Feature", "properties": { "内容": "タムス介護医療院　川口　通所リハビリテーション【通所リハビリテーション】埼玉県川口市西新井宿923-1", "url": "https://www.kaigokensaku.mhlw.go.jp/11/index.php?action_kouhyou_detail_004_kani=true&JigyosyoCd=11B0200041-00&ServiceCd=160&Type=search", "url2": "https://k-kawaguchi.tums-kaigo.com/" }, "geometry": { "type": "Point", "coordinates": [ 139.7337061, 35.8481776 ] } },
{ "type": "Feature", "properties": { "内容": "介護老人保健施設　グリーンビレッジ安行【通所リハビリテーション】埼玉県川口市大字安行１１４５番地", "url": "https://www.kaigokensaku.mhlw.go.jp/11/index.php?action_kouhyou_detail_004_kani=true&JigyosyoCd=1150280057-00&ServiceCd=160&Type=search", "url2": "http://gv-angyo.jp/" }, "geometry": { "type": "Point", "coordinates": [ 139.758041899999967, 35.8497295 ] } },
{ "type": "Feature", "properties": { "内容": "介護老人保健施設　グリーンピア【通所リハビリテーション】埼玉県行田市須加１５３１", "url": "https://www.kaigokensaku.mhlw.go.jp/11/index.php?action_kouhyou_detail_004_kani=true&JigyosyoCd=1153780020-00&ServiceCd=160&Type=search", "url2": null }, "geometry": { "type": "Point", "coordinates": [ 139.489125530688511, 36.184326646111643 ] } },
{ "type": "Feature", "properties": { "内容": "社会医療法人　壮幸会　老人保健施設ハートフル行田【通所リハビリテーション】埼玉県行田市下忍1157-1", "url": "https://www.kaigokensaku.mhlw.go.jp/11/index.php?action_kouhyou_detail_004_kani=true&JigyosyoCd=1153780012-00&ServiceCd=160&Type=search", "url2": null }, "geometry": { "type": "Point", "coordinates": [ 139.461787800000025, 36.1185018 ] } },
{ "type": "Feature", "properties": { "内容": "行田中央総合病院【通所リハビリテーション】行田市富士見町2-17-17", "url": "https://www.kaigokensaku.mhlw.go.jp/11/index.php?action_kouhyou_detail_004_kani=true&JigyosyoCd=1113701158-00&ServiceCd=160&Type=search", "url2": "http://www.gcgh.jp/" }, "geometry": { "type": "Point", "coordinates": [ 139.4751794, 36.1479487 ] } },
{ "type": "Feature", "properties": { "内容": "医療法人　葦の会　「笑顔いっぱい」【通所リハビリテーション】埼玉県行田市大字下忍1086番地1", "url": "https://www.kaigokensaku.mhlw.go.jp/11/index.php?action_kouhyou_detail_004_kani=true&JigyosyoCd=1173700582-00&ServiceCd=160&Type=search", "url2": "http://www.ashinokai.net/" }, "geometry": { "type": "Point", "coordinates": [ 139.461632399999985, 36.1164937 ] } },
{ "type": "Feature", "properties": { "内容": "行田協立診療所　通所リハビリ　たびくら【通所リハビリテーション】埼玉県行田市本丸18-3", "url": "https://www.kaigokensaku.mhlw.go.jp/11/index.php?action_kouhyou_detail_004_kani=true&JigyosyoCd=1113701042-00&ServiceCd=160&Type=search", "url2": "http://www.gyouda-clinic.coop/" }, "geometry": { "type": "Point", "coordinates": [ 139.454107599999986, 36.1369896 ] } },
{ "type": "Feature", "properties": { "内容": "秩父生協病院【通所リハビリテーション】秩父市阿保町1-11", "url": "https://www.kaigokensaku.mhlw.go.jp/11/index.php?action_kouhyou_detail_004_kani=true&JigyosyoCd=1114901443-00&ServiceCd=160&Type=search", "url2": "http://www.chichibu-ch.or.jp/" }, "geometry": { "type": "Point", "coordinates": [ 139.087568799999985, 36.0134168 ] } },
{ "type": "Feature", "properties": { "内容": "介護老人保健施設うらら【通所リハビリテーション】秩父市中村町3-6-24", "url": "https://www.kaigokensaku.mhlw.go.jp/11/index.php?action_kouhyou_detail_004_kani=true&JigyosyoCd=1154980025-00&ServiceCd=160&Type=search", "url2": "http://www.shunjinkai.or.jp/" }, "geometry": { "type": "Point", "coordinates": [ 139.073867599999971, 36.0002957 ] } },
{ "type": "Feature", "properties": { "内容": "介護老人保健施設エスポワール秩父【通所リハビリテーション】埼玉県秩父市寺尾2744", "url": "https://www.kaigokensaku.mhlw.go.jp/11/index.php?action_kouhyou_detail_004_kani=true&JigyosyoCd=1154980039-00&ServiceCd=160&Type=search", "url2": "http://www.esp-chichibu.com" }, "geometry": { "type": "Point", "coordinates": [ 139.078965399999987, 36.0256705 ] } },
{ "type": "Feature", "properties": { "内容": "社会医療法人社団埼玉巨樹の会　明生リハビリテーション病院【通所リハビリテーション】埼玉県所沢市東狭山ヶ丘4-2681-2", "url": "https://www.kaigokensaku.mhlw.go.jp/11/index.php?action_kouhyou_detail_004_kani=true&JigyosyoCd=1112510139-00&ServiceCd=160&Type=search", "url2": "https://meisei-reha.jp" }, "geometry": { "type": "Point", "coordinates": [ 139.426323755452415, 35.809038056584534 ] } },
{ "type": "Feature", "properties": { "内容": "介護老人保健施設遊【通所リハビリテーション】埼玉県所沢市東狭山ヶ丘4-2666-1", "url": "https://www.kaigokensaku.mhlw.go.jp/11/index.php?action_kouhyou_detail_004_kani=true&JigyosyoCd=1152580088-00&ServiceCd=160&Type=search", "url2": "http://www.rouken-yuu.com" }, "geometry": { "type": "Point", "coordinates": [ 139.4129294, 35.810792 ] } },
{ "type": "Feature", "properties": { "内容": "介護老人保健施設みかじま【通所リハビリテーション】埼玉県所沢市三ケ島５丁目１６３６番地", "url": "https://www.kaigokensaku.mhlw.go.jp/11/index.php?action_kouhyou_detail_004_kani=true&JigyosyoCd=1152580070-00&ServiceCd=160&Type=search", "url2": "http://roukenmikajima.jp/" }, "geometry": { "type": "Point", "coordinates": [ 139.404227100000071, 35.7972041 ] } },
{ "type": "Feature", "properties": { "内容": "エスポワール所沢【通所リハビリテーション】埼玉県所沢市下富1310-15", "url": "https://www.kaigokensaku.mhlw.go.jp/11/index.php?action_kouhyou_detail_004_kani=true&JigyosyoCd=1152580062-00&ServiceCd=160&Type=search", "url2": "http://care-net.biz/11/esp-tokorozawa/" }, "geometry": { "type": "Point", "coordinates": [ 139.456493799999947, 35.8240986 ] } },
{ "type": "Feature", "properties": { "内容": "東所沢通所リハビリテーション【通所リハビリテーション】埼玉県所沢市東所沢1-18-5", "url": "https://www.kaigokensaku.mhlw.go.jp/11/index.php?action_kouhyou_detail_004_kani=true&JigyosyoCd=1172502054-00&ServiceCd=160&Type=search", "url2": "higatoko.jp" }, "geometry": { "type": "Point", "coordinates": [ 139.516325300000062, 35.7976759 ] } },
{ "type": "Feature", "properties": { "内容": "くわのみ本郷クリニック通所リハビリテーション【通所リハビリテーション】所沢市本郷２６８－１", "url": "https://www.kaigokensaku.mhlw.go.jp/11/index.php?action_kouhyou_detail_004_kani=true&JigyosyoCd=1112505774-00&ServiceCd=160&Type=search", "url2": "http://www.kuwanomi-hongo.jp/" }, "geometry": { "type": "Point", "coordinates": [ 139.522124800000029, 35.7968067 ] } },
{ "type": "Feature", "properties": { "内容": "介護老人保健施設　ケアステーション所沢【通所リハビリテーション】埼玉県所沢市東狭山ヶ丘6-2823-13", "url": "https://www.kaigokensaku.mhlw.go.jp/11/index.php?action_kouhyou_detail_004_kani=true&JigyosyoCd=1152580025-00&ServiceCd=160&Type=search", "url2": "https://kuwanomikai.jp/" }, "geometry": { "type": "Point", "coordinates": [ 139.424713200000042, 35.8157635 ] } },
{ "type": "Feature", "properties": { "内容": "くわのみクリニック通所リハビリテーション【通所リハビリテーション】所沢市山口1850-8", "url": "https://www.kaigokensaku.mhlw.go.jp/11/index.php?action_kouhyou_detail_004_kani=true&JigyosyoCd=1172502963-00&ServiceCd=160&Type=search", "url2": "http://www.fukushinomori.jp/" }, "geometry": { "type": "Point", "coordinates": [ 139.430992641933528, 35.77838877654932 ] } },
{ "type": "Feature", "properties": { "内容": "埼玉西協同病院【通所リハビリテーション】埼玉県所沢市中富1865", "url": "https://www.kaigokensaku.mhlw.go.jp/11/index.php?action_kouhyou_detail_004_kani=true&JigyosyoCd=1112504520-00&ServiceCd=160&Type=search", "url2": "https://nishikyoudou.mcp-saitamawest.jp/" }, "geometry": { "type": "Point", "coordinates": [ 139.484444400000029, 35.8140535 ] } },
{ "type": "Feature", "properties": { "内容": "上新井くろかわクリニック　通所リハビリテーション【通所リハビリテーション】上新井一丁目25番地の10", "url": "https://www.kaigokensaku.mhlw.go.jp/11/index.php?action_kouhyou_detail_004_kani=true&JigyosyoCd=1112510246-00&ServiceCd=160&Type=search", "url2": "https://kamiarai-kurokawa.clinic/" }, "geometry": { "type": "Point", "coordinates": [ 139.448129599999987, 35.7917213 ] } },
{ "type": "Feature", "properties": { "内容": "医療法人　啓仁会　所沢ロイヤル病院【通所リハビリテーション】埼玉県所沢市北野三丁目１番地１１", "url": "https://www.kaigokensaku.mhlw.go.jp/11/index.php?action_kouhyou_detail_004_kani=true&JigyosyoCd=1112504496-00&ServiceCd=160&Type=search", "url2": "https://www.tokorozawa-loyal.jp/" }, "geometry": { "type": "Point", "coordinates": [ 139.420182877909838, 35.797658571338275 ] } },
{ "type": "Feature", "properties": { "内容": "介護老人保健施設　所沢ロイヤルの丘【通所リハビリテーション】埼玉県所沢市北野三丁目１番地１６", "url": "https://www.kaigokensaku.mhlw.go.jp/11/index.php?action_kouhyou_detail_004_kani=true&JigyosyoCd=1152580059-00&ServiceCd=160&Type=search", "url2": "http://www.wam-town.jp/tokorozawa-oka/" }, "geometry": { "type": "Point", "coordinates": [ 139.42025620000004, 35.797024 ] } },
{ "type": "Feature", "properties": { "内容": "医療法人社団和風会　通所リハビリテーションとるて【通所リハビリテーション】埼玉県所沢市中富1016", "url": "https://www.kaigokensaku.mhlw.go.jp/11/index.php?action_kouhyou_detail_004_kani=true&JigyosyoCd=1172503045-00&ServiceCd=160&Type=search", "url2": "http://www.wafukai.or.jp/tokorb/" }, "geometry": { "type": "Point", "coordinates": [ 139.481541500000048, 35.8262602 ] } },
{ "type": "Feature", "properties": { "内容": "介護老人保健施設さんとめ【通所リハビリテーション】埼玉県所沢市中富1617", "url": "https://www.kaigokensaku.mhlw.go.jp/11/index.php?action_kouhyou_detail_004_kani=true&JigyosyoCd=1152580033-00&ServiceCd=160&Type=search", "url2": "http://santome.mcp-saitamawest.jp/" }, "geometry": { "type": "Point", "coordinates": [ 139.483444400000053, 35.8150616 ] } },
{ "type": "Feature", "properties": { "内容": "所沢診療所　通所リハビリテーション　結【通所リハビリテーション】埼玉県所沢市宮本町2-23-34", "url": "https://www.kaigokensaku.mhlw.go.jp/11/index.php?action_kouhyou_detail_004_kani=true&JigyosyoCd=1112505436-00&ServiceCd=160&Type=search", "url2": "http://tokoshin.mcp-saitamawest.jp" }, "geometry": { "type": "Point", "coordinates": [ 139.460747, 35.7957635 ] } },
{ "type": "Feature", "properties": { "内容": "社会医療法人　至仁会　よしかわ通所リハビリテーション　道【通所リハビリテーション】埼玉県所沢市若狭3-2570-2圏央ヘルスケアセンター若狭内", "url": "https://www.kaigokensaku.mhlw.go.jp/11/index.php?action_kouhyou_detail_004_kani=true&JigyosyoCd=1112505790-00&ServiceCd=160&Type=search", "url2": "http://michi-reha.com/" }, "geometry": { "type": "Point", "coordinates": [ 139.419978300000025, 35.8016651 ] } },
{ "type": "Feature", "properties": { "内容": "飯能市東吾野医療介護センター【通所リハビリテーション】飯能市大字虎秀25-1", "url": "https://www.kaigokensaku.mhlw.go.jp/11/index.php?action_kouhyou_detail_004_kani=true&JigyosyoCd=1172600783-00&ServiceCd=160&Type=search", "url2": "www.h2mc-center.jp/" }, "geometry": { "type": "Point", "coordinates": [ 139.26064759999997, 35.8946973 ] } },
{ "type": "Feature", "properties": { "内容": "介護老人保健施設　飯能リハビリ館【通所リハビリテーション】埼玉県飯能市下畑296", "url": "https://www.kaigokensaku.mhlw.go.jp/11/index.php?action_kouhyou_detail_004_kani=true&JigyosyoCd=1152680023-00&ServiceCd=160&Type=search", "url2": "http://www.rihabili-kan.com" }, "geometry": { "type": "Point", "coordinates": [ 139.293970899999977, 35.8362016 ] } },
{ "type": "Feature", "properties": { "内容": "飯能ケアセンター　楠苑【通所リハビリテーション】飯能市大字落合458番地1", "url": "https://www.kaigokensaku.mhlw.go.jp/11/index.php?action_kouhyou_detail_004_kani=true&JigyosyoCd=1152680015-00&ServiceCd=160&Type=search", "url2": "https://kusunoki-en.jp/" }, "geometry": { "type": "Point", "coordinates": [ 139.3136303, 35.8365522 ] } },
{ "type": "Feature", "properties": { "内容": "通所リハビリテーション　きがわ【通所リハビリテーション】埼玉県飯能市東町4-1", "url": "https://www.kaigokensaku.mhlw.go.jp/11/index.php?action_kouhyou_detail_004_kani=true&JigyosyoCd=1172600452-00&ServiceCd=160&Type=search", "url2": null }, "geometry": { "type": "Point", "coordinates": [ 139.324281613422357, 35.852677887487104 ] } },
{ "type": "Feature", "properties": { "内容": "ケア・ビレッジ　シャローム通所リハビリテーション【通所リハビリテーション】埼玉県加須市大字岡古井７３番地", "url": "https://www.kaigokensaku.mhlw.go.jp/11/index.php?action_kouhyou_detail_004_kani=true&JigyosyoCd=1153880010-00&ServiceCd=160&Type=search", "url2": "https://shalomranseikai.jimdo.com/" }, "geometry": { "type": "Point", "coordinates": [ 139.575608099999954, 36.1378143 ] } },
{ "type": "Feature", "properties": { "内容": "医療法人社団　生彩会　加須東病院　通所リハビリテーション　さくら【通所リハビリテーション】埼玉県加須市北下新井1659", "url": "https://www.kaigokensaku.mhlw.go.jp/11/index.php?action_kouhyou_detail_004_kani=true&JigyosyoCd=1113801115-00&ServiceCd=160&Type=search", "url2": "kazohigashi-hospital.com" }, "geometry": { "type": "Point", "coordinates": [ 139.662469, 36.1411735 ] } },
{ "type": "Feature", "properties": { "内容": "介護老人保健施設　虹の園【通所リハビリテーション】埼玉県加須市上崎２０４７番地１", "url": "https://www.kaigokensaku.mhlw.go.jp/11/index.php?action_kouhyou_detail_004_kani=true&JigyosyoCd=1153680022-00&ServiceCd=160&Type=search", "url2": "http://www.nijinosono.jp/index.html" }, "geometry": { "type": "Point", "coordinates": [ 139.54819539999994, 36.1112919 ] } },
{ "type": "Feature", "properties": { "内容": "医療法人　愛應会　騎西病院　通所リハビリテーション事業所【通所リハビリテーション】埼玉県加須市日出安１３２１番地", "url": "https://www.kaigokensaku.mhlw.go.jp/11/index.php?action_kouhyou_detail_004_kani=true&JigyosyoCd=1113600632-00&ServiceCd=160&Type=search", "url2": "http://www.kisai-hosp.or.jp/" }, "geometry": { "type": "Point", "coordinates": [ 139.581147099999953, 36.1131397 ] } },
{ "type": "Feature", "properties": { "内容": "医療法人徳洲会　加須ふれあいクリニック【通所リハビリテーション】埼玉県加須市下三俣1790-1", "url": "https://www.kaigokensaku.mhlw.go.jp/11/index.php?action_kouhyou_detail_004_kani=true&JigyosyoCd=1113801107-00&ServiceCd=160&Type=search", "url2": "https://kazo-fureai.com/" }, "geometry": { "type": "Point", "coordinates": [ 139.6072617, 36.1332657 ] } },
{ "type": "Feature", "properties": { "内容": "老人保健施設　彩の苑【通所リハビリテーション】埼玉県本庄市千代田1-1-21", "url": "https://www.kaigokensaku.mhlw.go.jp/11/index.php?action_kouhyou_detail_004_kani=true&JigyosyoCd=1154380028-00&ServiceCd=160&Type=search", "url2": "http://www.ayanosono.com/" }, "geometry": { "type": "Point", "coordinates": [ 139.182271799999967, 36.2396758 ] } },
{ "type": "Feature", "properties": { "内容": "吉沢病院通所リハビリテーション【通所リハビリテーション】埼玉県本庄市1216番地1", "url": "https://www.kaigokensaku.mhlw.go.jp/11/index.php?action_kouhyou_detail_004_kani=true&JigyosyoCd=1174300234-00&ServiceCd=160&Type=search", "url2": "http://www.yoshizawa-hospital.jp/pc/" }, "geometry": { "type": "Point", "coordinates": [ 139.204935580178812, 36.240141399435082 ] } },
{ "type": "Feature", "properties": { "内容": "東松山医師会病院デイケア【通所リハビリテーション】埼玉県東松山市神明町１－１５－１０", "url": "https://www.kaigokensaku.mhlw.go.jp/11/index.php?action_kouhyou_detail_004_kani=true&JigyosyoCd=1113300472-00&ServiceCd=160&Type=search", "url2": "http://www.hmahp.or.jp/" }, "geometry": { "type": "Point", "coordinates": [ 139.407795178573679, 36.033849139186266 ] } },
{ "type": "Feature", "properties": { "内容": "宏仁会高坂醫院【通所リハビリテーション】西本宿1759-1", "url": "https://www.kaigokensaku.mhlw.go.jp/11/index.php?action_kouhyou_detail_004_kani=true&JigyosyoCd=1113301678-00&ServiceCd=160&Type=search", "url2": "http://www.kohjinkai.or.jp/takasaka/index.html" }, "geometry": { "type": "Point", "coordinates": [ 139.39522820000002, 35.9980033 ] } },
{ "type": "Feature", "properties": { "内容": "介護老人保健施設わかばの丘【通所リハビリテーション】東松山市毛塚773", "url": "https://www.kaigokensaku.mhlw.go.jp/11/index.php?action_kouhyou_detail_004_kani=true&JigyosyoCd=1153380033-00&ServiceCd=160&Type=search", "url2": "http://www.wakaba-group.or.jp" }, "geometry": { "type": "Point", "coordinates": [ 139.398327900000027, 35.9939315 ] } },
{ "type": "Feature", "properties": { "内容": "介護老人保健施設東松山市総合福祉エリア【通所リハビリテーション】埼玉県東松山市大字松山　２１８３", "url": "https://www.kaigokensaku.mhlw.go.jp/11/index.php?action_kouhyou_detail_004_kani=true&JigyosyoCd=1173300805-00&ServiceCd=160&Type=search", "url2": "http://www.smile-shakyo.jp/" }, "geometry": { "type": "Point", "coordinates": [ 139.401788490178319, 36.052907798128082 ] } },
{ "type": "Feature", "properties": { "内容": "通所リハビリテーション成恵【通所リハビリテーション】埼玉県東松山市石橋１７２２番地２", "url": "https://www.kaigokensaku.mhlw.go.jp/11/index.php?action_kouhyou_detail_004_kani=true&JigyosyoCd=1173300227-00&ServiceCd=160&Type=search", "url2": "http://www.seikei.or.jp" }, "geometry": { "type": "Point", "coordinates": [ 139.377819499999987, 36.0402899 ] } },
{ "type": "Feature", "properties": { "内容": "武蔵嵐山病院【通所リハビリテーション】埼玉県東松山市上唐子1312-1", "url": "https://www.kaigokensaku.mhlw.go.jp/11/index.php?action_kouhyou_detail_004_kani=true&JigyosyoCd=1173200120-00&ServiceCd=160&Type=search", "url2": "http://www.ranzan-hp.or.jp" }, "geometry": { "type": "Point", "coordinates": [ 139.34657679999998, 36.0396802 ] } },
{ "type": "Feature", "properties": { "内容": "佐藤整形外科【通所リハビリテーション】埼玉県春日部大場1385-3", "url": "https://www.kaigokensaku.mhlw.go.jp/11/index.php?action_kouhyou_detail_004_kani=true&JigyosyoCd=1110602730-00&ServiceCd=160&Type=search", "url2": null }, "geometry": { "type": "Point", "coordinates": [ 139.765850399999977, 35.950163 ] } },
{ "type": "Feature", "properties": { "内容": "山崎整形外科【通所リハビリテーション】春日部市牛島１０８１－３", "url": "https://www.kaigokensaku.mhlw.go.jp/11/index.php?action_kouhyou_detail_004_kani=true&JigyosyoCd=1170600942-00&ServiceCd=160&Type=search", "url2": "http://yamazakiiin.com/" }, "geometry": { "type": "Point", "coordinates": [ 139.776612699999987, 35.9859949 ] } },
{ "type": "Feature", "properties": { "内容": "ぬくもり【通所リハビリテーション】埼玉県春日部市永沼2229番地1", "url": "https://www.kaigokensaku.mhlw.go.jp/11/index.php?action_kouhyou_detail_004_kani=true&JigyosyoCd=1171100884-00&ServiceCd=160&Type=search", "url2": null }, "geometry": { "type": "Point", "coordinates": [ 139.797572400000035, 35.9780102 ] } },
{ "type": "Feature", "properties": { "内容": "医療生協さいたま生活協同組合　かすかべ生協診療所【通所リハビリテーション】春日部市谷原2-4-12", "url": "https://www.kaigokensaku.mhlw.go.jp/11/index.php?action_kouhyou_detail_004_kani=true&JigyosyoCd=1110601773-00&ServiceCd=160&Type=search", "url2": "http//www.kasukabe-sin.net/" }, "geometry": { "type": "Point", "coordinates": [ 139.7471875, 35.9714685 ] } },
{ "type": "Feature", "properties": { "内容": "介護老人保健施設　春日部ロイヤルケアセンター【通所リハビリテーション】埼玉県春日部市藤塚2622-2", "url": "https://www.kaigokensaku.mhlw.go.jp/11/index.php?action_kouhyou_detail_004_kani=true&JigyosyoCd=1150680025-00&ServiceCd=160&Type=search", "url2": "http://www.ims.gr.jp/kasukabe-royal/" }, "geometry": { "type": "Point", "coordinates": [ 139.783362799999963, 35.9637757 ] } },
{ "type": "Feature", "properties": { "内容": "介護老人保健施設　ちとせ【通所リハビリテーション】埼玉県春日部市下大増新田81-1", "url": "https://www.kaigokensaku.mhlw.go.jp/11/index.php?action_kouhyou_detail_004_kani=true&JigyosyoCd=1150680017-00&ServiceCd=160&Type=search", "url2": "https://syunmeikai.com/chitose/#" }, "geometry": { "type": "Point", "coordinates": [ -8.24389, 53.41291 ] } },
{ "type": "Feature", "properties": { "内容": "介護老人保健施設　葵の園・春日部【通所リハビリテーション】埼玉県春日部市金崎７１－１", "url": "https://www.kaigokensaku.mhlw.go.jp/11/index.php?action_kouhyou_detail_004_kani=true&JigyosyoCd=1150680070-00&ServiceCd=160&Type=search", "url2": "www.aoikai.jp" }, "geometry": { "type": "Point", "coordinates": [ 139.798558673541294, 35.993748155656462 ] } },
{ "type": "Feature", "properties": { "内容": "医療法人みやび会　おおつ整形外科　通所リハビリテーション【通所リハビリテーション】中央2-17-10昭和ビル3F", "url": "https://www.kaigokensaku.mhlw.go.jp/11/index.php?action_kouhyou_detail_004_kani=true&JigyosyoCd=1110603100-00&ServiceCd=160&Type=search", "url2": null }, "geometry": { "type": "Point", "coordinates": [ 139.750276, 35.9757428 ] } },
{ "type": "Feature", "properties": { "内容": "医療法人光仁会春日部厚生クリニック【通所リハビリテーション】埼玉県春日部市下蛭田125-1", "url": "https://www.kaigokensaku.mhlw.go.jp/11/index.php?action_kouhyou_detail_004_kani=true&JigyosyoCd=1110601781-00&ServiceCd=160&Type=search", "url2": "http://www.skmg.jp/kojinkai-care/clinic/" }, "geometry": { "type": "Point", "coordinates": [ 139.720079899999973, 35.9609319 ] } },
{ "type": "Feature", "properties": { "内容": "介護老人保健施設かがやき【通所リハビリテーション】埼玉県狭山市大字下奥富６８８", "url": "https://www.kaigokensaku.mhlw.go.jp/11/index.php?action_kouhyou_detail_004_kani=true&JigyosyoCd=1152780013-00&ServiceCd=160&Type=search", "url2": "https://rouken-kagayaki.jp/" }, "geometry": { "type": "Point", "coordinates": [ 139.433587799999941, 35.8812943 ] } },
{ "type": "Feature", "properties": { "内容": "介護老人保健施設愛【通所リハビリテーション】埼玉県狭山市大字水野596番地", "url": "https://www.kaigokensaku.mhlw.go.jp/11/index.php?action_kouhyou_detail_004_kani=true&JigyosyoCd=1152780035-00&ServiceCd=160&Type=search", "url2": "https://roken-ai.jp/" }, "geometry": { "type": "Point", "coordinates": [ 139.4457721, 35.8316366 ] } },
{ "type": "Feature", "properties": { "内容": "介護老人保健施設　狭山ケアセンター【通所リハビリテーション】狭山市北入曽1443-7", "url": "https://www.kaigokensaku.mhlw.go.jp/11/index.php?action_kouhyou_detail_004_kani=true&JigyosyoCd=1152780021-00&ServiceCd=160&Type=search", "url2": "http//www.sayama-care.com" }, "geometry": { "type": "Point", "coordinates": [ 139.43704230000003, 35.8258873 ] } },
{ "type": "Feature", "properties": { "内容": "医療法人尚寿会　狭山尚寿会病院【通所リハビリテーション】埼玉県狭山市大字水野６００番地", "url": "https://www.kaigokensaku.mhlw.go.jp/11/index.php?action_kouhyou_detail_004_kani=true&JigyosyoCd=1112701159-00&ServiceCd=160&Type=search", "url2": "http://www.syojukai.or.jp" }, "geometry": { "type": "Point", "coordinates": [ 139.446108200000026, 35.8317893 ] } },
{ "type": "Feature", "properties": { "内容": "介護老人保健施設カノープス・羽生【通所リハビリテーション】羽生市大字本川俣１３０５", "url": "https://www.kaigokensaku.mhlw.go.jp/11/index.php?action_kouhyou_detail_004_kani=true&JigyosyoCd=1153980018-00&ServiceCd=160&Type=search", "url2": "http://www.hanyushi-ishikai.jp" }, "geometry": { "type": "Point", "coordinates": [ 139.534198300000071, 36.1887992 ] } },
{ "type": "Feature", "properties": { "内容": "介護老人保健施設あいの郷【通所リハビリテーション】埼玉県羽生市桑崎196-1", "url": "https://www.kaigokensaku.mhlw.go.jp/11/index.php?action_kouhyou_detail_004_kani=true&JigyosyoCd=1153980030-00&ServiceCd=160&Type=search", "url2": "http://www.aino-sato.com/" }, "geometry": { "type": "Point", "coordinates": [ 139.5183752, 36.1776303 ] } },
{ "type": "Feature", "properties": { "内容": "仁科整形外科　通所リハビリテーション【通所リハビリテーション】鴻巣市本町1-1-3エルミこうのす3階", "url": "https://www.kaigokensaku.mhlw.go.jp/11/index.php?action_kouhyou_detail_004_kani=true&JigyosyoCd=1171701103-00&ServiceCd=160&Type=search", "url2": "http://nishina-t.or.jp/" }, "geometry": { "type": "Point", "coordinates": [ 139.510465299999964, 36.059653 ] } },
{ "type": "Feature", "properties": { "内容": "鴻巣介護老人保健施設こうのとり【通所リハビリテーション】埼玉県鴻巣市八幡田８６８－１", "url": "https://www.kaigokensaku.mhlw.go.jp/11/index.php?action_kouhyou_detail_004_kani=true&JigyosyoCd=1151780022-00&ServiceCd=160&Type=search", "url2": "http://www.kounosu-hp.jp/" }, "geometry": { "type": "Point", "coordinates": [ 139.502768800000013, 36.0732653 ] } },
{ "type": "Feature", "properties": { "内容": "こうのすナーシングホーム共生園【通所リハビリテーション】埼玉県鴻巣市下谷409-1", "url": "https://www.kaigokensaku.mhlw.go.jp/11/index.php?action_kouhyou_detail_004_kani=true&JigyosyoCd=1151780030-00&ServiceCd=160&Type=search", "url2": "http://www.kouaikai.net" }, "geometry": { "type": "Point", "coordinates": [ 139.546762605418365, 36.051665857458602 ] } },
{ "type": "Feature", "properties": { "内容": "介護老人保健施設　鴻巣フラワーパレス【通所リハビリテーション】鴻巣市市ノ縄２５０番地１", "url": "https://www.kaigokensaku.mhlw.go.jp/11/index.php?action_kouhyou_detail_004_kani=true&JigyosyoCd=1151780014-00&ServiceCd=160&Type=search", "url2": "http://www.flowerpalace.jp/" }, "geometry": { "type": "Point", "coordinates": [ 139.508840100000043, 36.0771178 ] } },
{ "type": "Feature", "properties": { "内容": "介護老人保健施設　秋桜【通所リハビリテーション】埼玉県鴻巣市前砂９８０－１", "url": "https://www.kaigokensaku.mhlw.go.jp/11/index.php?action_kouhyou_detail_004_kani=true&JigyosyoCd=1151380013-00&ServiceCd=160&Type=search", "url2": "http://nishina-t.or.jp/" }, "geometry": { "type": "Point", "coordinates": [ 139.468072099999972, 36.0894365 ] } },
{ "type": "Feature", "properties": { "内容": "こうのす共生病院【通所リハビリテーション】埼玉県鴻巣市上谷2073-1", "url": "https://www.kaigokensaku.mhlw.go.jp/11/index.php?action_kouhyou_detail_004_kani=true&JigyosyoCd=1111701812-00&ServiceCd=160&Type=search", "url2": "kouaikai.jp" }, "geometry": { "type": "Point", "coordinates": [ 139.5317384, 36.061712 ] } },
{ "type": "Feature", "properties": { "内容": "医療法人葵　深谷中央病院　通所リハビリテーションセンター【通所リハビリテーション】埼玉県深谷市原郷500番地", "url": "https://www.kaigokensaku.mhlw.go.jp/11/index.php?action_kouhyou_detail_004_kani=true&JigyosyoCd=1114602033-00&ServiceCd=160&Type=search", "url2": "http://www.fukaya-ch.jp/" }, "geometry": { "type": "Point", "coordinates": [ 139.295094799999987, 36.2040898 ] } },
{ "type": "Feature", "properties": { "内容": "介護老人保健施設FOMA・なごみ【通所リハビリテーション】埼玉県深谷市新戒413-1", "url": "https://www.kaigokensaku.mhlw.go.jp/11/index.php?action_kouhyou_detail_004_kani=true&JigyosyoCd=1154680021-00&ServiceCd=160&Type=search", "url2": "http://www.fukaya-osato.saitama.med.or.jp" }, "geometry": { "type": "Point", "coordinates": [ 139.292723099999989, 36.2287911 ] } },
{ "type": "Feature", "properties": { "内容": "老人保健施設　はなみずき【通所リハビリテーション】埼玉県深谷市柏合1041-1", "url": "https://www.kaigokensaku.mhlw.go.jp/11/index.php?action_kouhyou_detail_004_kani=true&JigyosyoCd=1154680013-00&ServiceCd=160&Type=search", "url2": "http://yuujikai.jp" }, "geometry": { "type": "Point", "coordinates": [ 139.261034800000061, 36.1850807 ] } },
{ "type": "Feature", "properties": { "内容": "介護療養型老人保健施設アルメリア【通所リハビリテーション】埼玉県深谷市人見2031番地", "url": "https://www.kaigokensaku.mhlw.go.jp/11/index.php?action_kouhyou_detail_004_kani=true&JigyosyoCd=1154680035-00&ServiceCd=160&Type=search", "url2": "http://www.arumeria.jp/" }, "geometry": { "type": "Point", "coordinates": [ 139.263302299999964, 36.1637693 ] } },
{ "type": "Feature", "properties": { "内容": "ふかやクリニックリハビリセンター【通所リハビリテーション】埼玉県深谷市宿根２４５－１", "url": "https://www.kaigokensaku.mhlw.go.jp/11/index.php?action_kouhyou_detail_004_kani=true&JigyosyoCd=1174600393-00&ServiceCd=160&Type=search", "url2": "http://www.fukayaclinic.jp" }, "geometry": { "type": "Point", "coordinates": [ 139.26618140000005, 36.1969739 ] } },
{ "type": "Feature", "properties": { "内容": "医療法人　藤仁会　介護老人保健施設　ふれあいの郷あげお【通所リハビリテーション】埼玉県上尾市大字平方1915", "url": "https://www.kaigokensaku.mhlw.go.jp/11/index.php?action_kouhyou_detail_004_kani=true&JigyosyoCd=1151680040-00&ServiceCd=160&Type=search", "url2": "http://roken.to-jinkai.or.jp/" }, "geometry": { "type": "Point", "coordinates": [ 139.550073600000019, 35.9484793 ] } },
{ "type": "Feature", "properties": { "内容": "介護老人保健施設　エルサ上尾【通所リハビリテーション】埼玉県上尾市藤波３－２６５－１", "url": "https://www.kaigokensaku.mhlw.go.jp/11/index.php?action_kouhyou_detail_004_kani=true&JigyosyoCd=1151680032-00&ServiceCd=160&Type=search", "url2": "http://www.elusa-ageo.jp" }, "geometry": { "type": "Point", "coordinates": [ 139.549203499999976, 35.9907339 ] } },
{ "type": "Feature", "properties": { "内容": "藤村病院指定　通所リハビリテーション事業所【通所リハビリテーション】仲町1-8-33", "url": "https://www.kaigokensaku.mhlw.go.jp/11/index.php?action_kouhyou_detail_004_kani=true&JigyosyoCd=1111601087-00&ServiceCd=160&Type=search", "url2": "http://fujimura.to-jinkai.or.jp/" }, "geometry": { "type": "Point", "coordinates": [ 139.655452200000013, 35.8614322 ] } },
{ "type": "Feature", "properties": { "内容": "上尾中央第二病院【通所リハビリテーション】埼玉県上尾市地頭方421－1", "url": "https://www.kaigokensaku.mhlw.go.jp/11/index.php?action_kouhyou_detail_004_kani=true&JigyosyoCd=1111601673-00&ServiceCd=160&Type=search", "url2": "https://www.ach2.jp" }, "geometry": { "type": "Point", "coordinates": [ 139.571674300000012, 35.9529935 ] } },
{ "type": "Feature", "properties": { "内容": "上尾メディカルクリニック【通所リハビリテーション】埼玉県上尾市原市3133", "url": "https://www.kaigokensaku.mhlw.go.jp/11/index.php?action_kouhyou_detail_004_kani=true&JigyosyoCd=1111602291-00&ServiceCd=160&Type=search", "url2": "http://www.jyunshinkai.com/" }, "geometry": { "type": "Point", "coordinates": [ 139.631908, 35.9668918 ] } },
{ "type": "Feature", "properties": { "内容": "介護老人保健施設ハーティハイム【通所リハビリテーション】埼玉県上尾市大字平方３１４７番地３", "url": "https://www.kaigokensaku.mhlw.go.jp/11/index.php?action_kouhyou_detail_004_kani=true&JigyosyoCd=1151680024-00&ServiceCd=160&Type=search", "url2": "https://www.anseifukushikai.or.jp/" }, "geometry": { "type": "Point", "coordinates": [ 139.552429, 35.9512566 ] } },
{ "type": "Feature", "properties": { "内容": "介護老人保健施設　あげお愛友の里　通所リハビリテーション【通所リハビリテーション】上尾市西門前字南前６３６", "url": "https://www.kaigokensaku.mhlw.go.jp/11/index.php?action_kouhyou_detail_004_kani=true&JigyosyoCd=1151680016-00&ServiceCd=160&Type=search", "url2": "http://www.aiyu.jp" }, "geometry": { "type": "Point", "coordinates": [ 139.588194, 35.9910014 ] } },
{ "type": "Feature", "properties": { "内容": "通所リハビリテーション翔寿苑【通所リハビリテーション】埼玉県草加市青柳8-51-13", "url": "https://www.kaigokensaku.mhlw.go.jp/11/index.php?action_kouhyou_detail_004_kani=true&JigyosyoCd=1151880012-00&ServiceCd=160&Type=search", "url2": "http://www.shinko-kai.or.jp" }, "geometry": { "type": "Point", "coordinates": [ 139.819213799999943, 35.8606219 ] } },
{ "type": "Feature", "properties": { "内容": "医療法人財団明理会　介護老人保健施設　草加ロイヤルケアセンター【通所リハビリテーション】埼玉県草加市柿木町123-2", "url": "https://www.kaigokensaku.mhlw.go.jp/11/index.php?action_kouhyou_detail_004_kani=true&JigyosyoCd=1151880038-00&ServiceCd=160&Type=search", "url2": "http://www.ims.gr.jp/souka-royal" }, "geometry": { "type": "Point", "coordinates": [ 139.834546199999977, 35.8581031 ] } },
{ "type": "Feature", "properties": { "内容": "医療法人大西会　リハビリテーションゆうゆう【通所リハビリテーション】埼玉県草加市新栄4-2-5", "url": "https://www.kaigokensaku.mhlw.go.jp/11/index.php?action_kouhyou_detail_004_kani=true&JigyosyoCd=1171801275-00&ServiceCd=160&Type=search", "url2": "http://www.shinei-cl.jp" }, "geometry": { "type": "Point", "coordinates": [ 139.766940699999964, 35.8638866 ] } },
{ "type": "Feature", "properties": { "内容": "医療法人社団友勝会　介護老人保健施設みどりの館【通所リハビリテーション】草加市谷塚町2000番地", "url": "https://www.kaigokensaku.mhlw.go.jp/11/index.php?action_kouhyou_detail_004_kani=true&JigyosyoCd=1151880020-00&ServiceCd=160&Type=search", "url2": "http://www.midorino-yakta.or.jp" }, "geometry": { "type": "Point", "coordinates": [ 139.7916702, 35.8219689 ] } },
{ "type": "Feature", "properties": { "内容": "通所リハビリグリーン【通所リハビリテーション】埼玉県草加市金明町604-1-1", "url": "https://www.kaigokensaku.mhlw.go.jp/11/index.php?action_kouhyou_detail_004_kani=true&JigyosyoCd=1111803535-00&ServiceCd=160&Type=search", "url2": "www.souka-green-clinic.com" }, "geometry": { "type": "Point", "coordinates": [ 139.7922949, 35.8561817 ] } },
{ "type": "Feature", "properties": { "内容": "医療法人親和会　通所リハビリテーションホウエイ【通所リハビリテーション】埼玉県草加市谷塚2-12-15", "url": "https://www.kaigokensaku.mhlw.go.jp/11/index.php?action_kouhyou_detail_004_kani=true&JigyosyoCd=1111800929-00&ServiceCd=160&Type=search", "url2": "www.houei.or.jp" }, "geometry": { "type": "Point", "coordinates": [ 139.7981461, 35.8099018 ] } },
{ "type": "Feature", "properties": { "内容": "レイクタウン整形外科病院【通所リハビリテーション】レイクタウン5-13-6", "url": "https://www.kaigokensaku.mhlw.go.jp/11/index.php?action_kouhyou_detail_004_kani=true&JigyosyoCd=1110805010-00&ServiceCd=160&Type=search", "url2": "https://laketown-ortho.com" }, "geometry": { "type": "Point", "coordinates": [ 139.827577100000013, 35.8769648 ] } },
{ "type": "Feature", "properties": { "内容": "介護老人保健施設　葵の園・越谷レイクタウン【通所リハビリテーション】埼玉県越谷市東町5-155-1", "url": "https://www.kaigokensaku.mhlw.go.jp/11/index.php?action_kouhyou_detail_004_kani=true&JigyosyoCd=1150880068-00&ServiceCd=160&Type=search", "url2": "http://www.aoikai.jp" }, "geometry": { "type": "Point", "coordinates": [ 139.831535059524526, 35.87207137382449 ] } },
{ "type": "Feature", "properties": { "内容": "介護老人保健施設　エスポワール越谷【通所リハビリテーション】埼玉県越谷市大字大竹712", "url": "https://www.kaigokensaku.mhlw.go.jp/11/index.php?action_kouhyou_detail_004_kani=true&JigyosyoCd=1150880084-00&ServiceCd=160&Type=search", "url2": "http://esp-koshigaya.com/" }, "geometry": { "type": "Point", "coordinates": [ 139.76647220000001, 35.9233443 ] } },
{ "type": "Feature", "properties": { "内容": "医療法人社団　葵会　介護老人保健施設　葵の園・越谷【通所リハビリテーション】埼玉県越谷市七左町六丁目１００番地１", "url": "https://www.kaigokensaku.mhlw.go.jp/11/index.php?action_kouhyou_detail_004_kani=true&JigyosyoCd=1150880050-00&ServiceCd=160&Type=search", "url2": "https://www.aoikai.jp" }, "geometry": { "type": "Point", "coordinates": [ 139.773886800000014, 35.8772159 ] } },
{ "type": "Feature", "properties": { "内容": "医療法人財団　明理会　新越谷病院【通所リハビリテーション】埼玉県越谷市元柳田町6-45", "url": "https://www.kaigokensaku.mhlw.go.jp/11/index.php?action_kouhyou_detail_004_kani=true&JigyosyoCd=1110801191-00&ServiceCd=160&Type=search", "url2": "http://www.ims.gr.jp/shinkoshigaya/" }, "geometry": { "type": "Point", "coordinates": [ 139.786910499999976, 35.8815937 ] } },
{ "type": "Feature", "properties": { "内容": "介護老人保健施設シルバーケア敬愛【通所リハビリテーション】埼玉県越谷市平方２７２番地１", "url": "https://www.kaigokensaku.mhlw.go.jp/11/index.php?action_kouhyou_detail_004_kani=true&JigyosyoCd=1150880013-00&ServiceCd=160&Type=search", "url2": "https://scc-keiai.ne.jp/" }, "geometry": { "type": "Point", "coordinates": [ 139.778868800000026, 35.9569821 ] } },
{ "type": "Feature", "properties": { "内容": "リハビリテーション天草病院【通所リハビリテーション】埼玉県越谷市平方３４３－１", "url": "https://www.kaigokensaku.mhlw.go.jp/11/index.php?action_kouhyou_detail_004_kani=true&JigyosyoCd=1110801324-00&ServiceCd=160&Type=search", "url2": "http://www.keiaikai.com" }, "geometry": { "type": "Point", "coordinates": [ 139.778838299999961, 35.9552907 ] } },
{ "type": "Feature", "properties": { "内容": "通所リハビリテーション憩いの里【通所リハビリテーション】埼玉県越谷市増森１－８５", "url": "https://www.kaigokensaku.mhlw.go.jp/11/index.php?action_kouhyou_detail_004_kani=true&JigyosyoCd=1150880039-00&ServiceCd=160&Type=search", "url2": "https://www.kishinkai.or.jp/" }, "geometry": { "type": "Point", "coordinates": [ 139.8207903, 35.9003807 ] } },
{ "type": "Feature", "properties": { "内容": "介護老人保健施設　とまりや【通所リハビリテーション】埼玉県越谷市谷中町四丁目２９３番地１", "url": "https://www.kaigokensaku.mhlw.go.jp/11/index.php?action_kouhyou_detail_004_kani=true&JigyosyoCd=1150880043-00&ServiceCd=160&Type=search", "url2": "http://www.goseikai.jp/tomariya.html" }, "geometry": { "type": "Point", "coordinates": [ 139.7645903, 35.8831146 ] } },
{ "type": "Feature", "properties": { "内容": "介護リハステーションさめしま【通所リハビリテーション】埼玉県越谷市赤山本町6-7　３F", "url": "https://www.kaigokensaku.mhlw.go.jp/11/index.php?action_kouhyou_detail_004_kani=true&JigyosyoCd=1110803536-00&ServiceCd=160&Type=search", "url2": "www006.upp.so-net.ne.jp/sammy" }, "geometry": { "type": "Point", "coordinates": [ 139.785165300000017, 35.8868949 ] } },
{ "type": "Feature", "properties": { "内容": "通所リハ　こはるびより【通所リハビリテーション】蒲生旭町7-21", "url": "https://www.kaigokensaku.mhlw.go.jp/11/index.php?action_kouhyou_detail_004_kani=true&JigyosyoCd=1170803462-00&ServiceCd=160&Type=search", "url2": null }, "geometry": { "type": "Point", "coordinates": [ 139.800809699999945, 35.8678097 ] } },
{ "type": "Feature", "properties": { "内容": "リハビリケア岡野【通所リハビリテーション】越谷市赤山本町７－２", "url": "https://www.kaigokensaku.mhlw.go.jp/11/index.php?action_kouhyou_detail_004_kani=true&JigyosyoCd=1170801441-00&ServiceCd=160&Type=search", "url2": "http://www.okano-clinic.jp" }, "geometry": { "type": "Point", "coordinates": [ 139.785621600000013, 35.8867234 ] } },
{ "type": "Feature", "properties": { "内容": "介護老人保健施設　南面【通所リハビリテーション】埼玉県越谷市七左町４丁目１６１番地", "url": "https://www.kaigokensaku.mhlw.go.jp/11/index.php?action_kouhyou_detail_004_kani=true&JigyosyoCd=1150880021-00&ServiceCd=160&Type=search", "url2": "https://shuhokai.jp" }, "geometry": { "type": "Point", "coordinates": [ 139.7699835, 35.8715288 ] } },
{ "type": "Feature", "properties": { "内容": "デイケアセンターpolepole【通所リハビリテーション】埼玉県越谷市南越谷2-6-33埼玉東部循環器病院附属越谷循環器クリニック", "url": "https://www.kaigokensaku.mhlw.go.jp/11/index.php?action_kouhyou_detail_004_kani=true&JigyosyoCd=1110804906-00&ServiceCd=160&Type=search", "url2": "http://koshigaya-junkanki.com/polepole/" }, "geometry": { "type": "Point", "coordinates": [ 139.793379499999986, 35.8781638 ] } },
{ "type": "Feature", "properties": { "内容": "湖街ホスピタル【通所リハビリテーション】埼玉県越谷市レイクタウン八丁目12番地12ケアハーモニー湖街1階から5階", "url": "https://www.kaigokensaku.mhlw.go.jp/11/index.php?action_kouhyou_detail_004_kani=true&JigyosyoCd=1110810176-00&ServiceCd=160&Type=search", "url2": "https://sonodakai.jp/komachi-hp/" }, "geometry": { "type": "Point", "coordinates": [ 139.823329300000012, 35.8754231 ] } },
{ "type": "Feature", "properties": { "内容": "こしがや脳神経外科付属通所リハビリテーションめぐみ【通所リハビリテーション】埼玉県越谷市蒲生寿町5-7越谷メディカルビル２階", "url": "https://www.kaigokensaku.mhlw.go.jp/11/index.php?action_kouhyou_detail_004_kani=true&JigyosyoCd=1110804336-00&ServiceCd=160&Type=search", "url2": "https://www.koshigaya-brain.com" }, "geometry": { "type": "Point", "coordinates": [ 139.794263099999966, 35.8672403 ] } },
{ "type": "Feature", "properties": { "内容": "医療法人社団健悠会　わたなべ整形外科【通所リハビリテーション】埼玉県蕨市錦町５－３－２８－１０３蕨クリニックタウン", "url": "https://www.kaigokensaku.mhlw.go.jp/11/index.php?action_kouhyou_detail_004_kani=true&JigyosyoCd=1111401512-00&ServiceCd=160&Type=search", "url2": "https://www.watasei2005.com/" }, "geometry": { "type": "Point", "coordinates": [ 139.670567, 35.8304303 ] } },
{ "type": "Feature", "properties": { "内容": "介護老人保健施設　グリーンビレッジ蕨【通所リハビリテーション】埼玉県蕨市北町五丁目13番6号", "url": "https://www.kaigokensaku.mhlw.go.jp/11/index.php?action_kouhyou_detail_004_kani=true&JigyosyoCd=1151480017-00&ServiceCd=160&Type=search", "url2": "http://gv_warabi.tmg.gr.jp" }, "geometry": { "type": "Point", "coordinates": [ 139.668686500000035, 35.8344074 ] } },
{ "type": "Feature", "properties": { "内容": "戸田市立介護老人保健施設通所リハビリテーション【通所リハビリテーション】埼玉県戸田市美女木４－２０－６", "url": "https://www.kaigokensaku.mhlw.go.jp/11/index.php?action_kouhyou_detail_004_kani=true&JigyosyoCd=1171901745-00&ServiceCd=160&Type=search", "url2": "http://www.mckenshukai.jp/toda/" }, "geometry": { "type": "Point", "coordinates": [ 139.6452491, 35.8212663 ] } },
{ "type": "Feature", "properties": { "内容": "戸田市立市民医療センター【通所リハビリテーション】美女木4-20-1", "url": "https://www.kaigokensaku.mhlw.go.jp/11/index.php?action_kouhyou_detail_004_kani=true&JigyosyoCd=1111900372-00&ServiceCd=160&Type=search", "url2": "https://www.city.toda.saitama.jp/site/medicalcenter/" }, "geometry": { "type": "Point", "coordinates": [ 139.6458266, 35.8212828 ] } },
{ "type": "Feature", "properties": { "内容": "介護老人保健施設コスモス苑【通所リハビリテーション】埼玉県戸田市新曽南3-6-23", "url": "https://www.kaigokensaku.mhlw.go.jp/11/index.php?action_kouhyou_detail_004_kani=true&JigyosyoCd=1151980036-00&ServiceCd=160&Type=search", "url2": "https://kaigo-cosmos.jp/" }, "geometry": { "type": "Point", "coordinates": [ 139.6673424, 35.8046004 ] } },
{ "type": "Feature", "properties": { "内容": "介護老人保健施設　ケアセンターなごみ【通所リハビリテーション】埼玉県入間市大字小谷田１２５８番地１", "url": "https://www.kaigokensaku.mhlw.go.jp/11/index.php?action_kouhyou_detail_004_kani=true&JigyosyoCd=1152880011-00&ServiceCd=160&Type=search", "url2": "https://www.eijinkai.jp/care/nagomicenter.html" }, "geometry": { "type": "Point", "coordinates": [ 139.375015, 35.8110654 ] } },
{ "type": "Feature", "properties": { "内容": "入間ハート病院　通所リハビリテーション【通所リハビリテーション】埼玉県入間市小谷田１２５８－１", "url": "https://www.kaigokensaku.mhlw.go.jp/11/index.php?action_kouhyou_detail_004_kani=true&JigyosyoCd=1112801207-00&ServiceCd=160&Type=search", "url2": "https://www.eijinkai.jp/heart/reha/" }, "geometry": { "type": "Point", "coordinates": [ 139.375109, 35.8110183 ] } },
{ "type": "Feature", "properties": { "内容": "介護老人保健施設ゆりの木【通所リハビリテーション】埼玉県入間市宮寺3187番地31", "url": "https://www.kaigokensaku.mhlw.go.jp/11/index.php?action_kouhyou_detail_004_kani=true&JigyosyoCd=1152880037-00&ServiceCd=160&Type=search", "url2": "https://www.eijinkai.jp/care/yurinoki.html" }, "geometry": { "type": "Point", "coordinates": [ 139.375581600000032, 35.8106294 ] } },
{ "type": "Feature", "properties": { "内容": "介護老人保健施設　アヴニール【通所リハビリテーション】入間市大字二本木1082－1", "url": "https://www.kaigokensaku.mhlw.go.jp/11/index.php?action_kouhyou_detail_004_kani=true&JigyosyoCd=1152880029-00&ServiceCd=160&Type=search", "url2": null }, "geometry": { "type": "Point", "coordinates": [ 139.358266599999979, 35.7960723 ] } },
{ "type": "Feature", "properties": { "内容": "医療法人　泰一会　　介護老人保健施設　いるまの里【通所リハビリテーション】埼玉県入間市野田１６３０", "url": "https://www.kaigokensaku.mhlw.go.jp/11/index.php?action_kouhyou_detail_004_kani=true&JigyosyoCd=1152880058-00&ServiceCd=160&Type=search", "url2": "http://irumanosato.jp" }, "geometry": { "type": "Point", "coordinates": [ 139.34677970000007, 35.847538 ] } },
{ "type": "Feature", "properties": { "内容": "医療法人社団白報会　つばさ総合診療所　通所リハビリテーション【通所リハビリテーション】埼玉県入間市下藤沢三丁目25番1", "url": "https://www.kaigokensaku.mhlw.go.jp/11/index.php?action_kouhyou_detail_004_kani=true&JigyosyoCd=1112801876-00&ServiceCd=160&Type=search", "url2": "http://tsubasa-totalclinic.com/" }, "geometry": { "type": "Point", "coordinates": [ 139.409155169558744, 35.819148772512278 ] } },
{ "type": "Feature", "properties": { "内容": "介護老人保健施設　ケアライフ朝霞【通所リハビリテーション】埼玉県朝霞市溝沼２－４－１０", "url": "https://www.kaigokensaku.mhlw.go.jp/11/index.php?action_kouhyou_detail_004_kani=true&JigyosyoCd=1152180016-00&ServiceCd=160&Type=search", "url2": "http://www.carelife.sakuraweb.com/index.html" }, "geometry": { "type": "Point", "coordinates": [ 139.589669599999979, 35.8009406 ] } },
{ "type": "Feature", "properties": { "内容": "通所リハビリテーション　つつじ【通所リハビリテーション】埼玉県朝霞市下内間木１３６３－１", "url": "https://www.kaigokensaku.mhlw.go.jp/11/index.php?action_kouhyou_detail_004_kani=true&JigyosyoCd=1152180024-00&ServiceCd=160&Type=search", "url2": "http://wakabakai-medical.com/" }, "geometry": { "type": "Point", "coordinates": [ 139.6176527, 35.817756 ] } },
{ "type": "Feature", "properties": { "内容": "介護老人保健施設　グリーンビレッジ朝霞台【通所リハビリテーション】埼玉県朝霞市大字宮戸3番地", "url": "https://www.kaigokensaku.mhlw.go.jp/11/index.php?action_kouhyou_detail_004_kani=true&JigyosyoCd=1152180004-00&ServiceCd=160&Type=search", "url2": "http://gv-asakadai.jp" }, "geometry": { "type": "Point", "coordinates": [ 139.602213028294386, 35.82080512913295 ] } },
{ "type": "Feature", "properties": { "内容": "志木柏町クリニック　デイケアセンター【通所リハビリテーション】埼玉県志木市柏町1-6-74", "url": "https://www.kaigokensaku.mhlw.go.jp/11/index.php?action_kouhyou_detail_004_kani=true&JigyosyoCd=1112201176-00&ServiceCd=160&Type=search", "url2": "www.kawatsuru‾g.jp" }, "geometry": { "type": "Point", "coordinates": [ 139.5757524, 35.8368333 ] } },
{ "type": "Feature", "properties": { "内容": "介護老人保健施設瑞穂の里　志木瑞穂の里【通所リハビリテーション】上宗岡2-20-17", "url": "https://www.kaigokensaku.mhlw.go.jp/11/index.php?action_kouhyou_detail_004_kani=true&JigyosyoCd=1152280010-00&ServiceCd=160&Type=search", "url2": "http://www.mizuhokai.or.jp/shiki-mizuhono-sato/index.html" }, "geometry": { "type": "Point", "coordinates": [ 139.58139970000002, 35.8498707 ] } },
{ "type": "Feature", "properties": { "内容": "介護老人保健施設　ナーシングホーム和光デイケア【通所リハビリテーション】埼玉県和光市新倉８－２３－１", "url": "https://www.kaigokensaku.mhlw.go.jp/11/index.php?action_kouhyou_detail_004_kani=true&JigyosyoCd=1172300517-00&ServiceCd=160&Type=search", "url2": "http://www.fukusi.or.jp/" }, "geometry": { "type": "Point", "coordinates": [ 139.632010199999968, 35.8017751 ] } },
{ "type": "Feature", "properties": { "内容": "介護老人保健施設　新座園【通所リハビリテーション】新座市野火止４－１４－２０", "url": "https://www.kaigokensaku.mhlw.go.jp/11/index.php?action_kouhyou_detail_004_kani=true&JigyosyoCd=1155180013-00&ServiceCd=160&Type=search", "url2": "https://jiseikai-niizaen.site" }, "geometry": { "type": "Point", "coordinates": [ 139.552989499999967, 35.7994962 ] } },
{ "type": "Feature", "properties": { "内容": "介護老人保健施設　四季の里【通所リハビリテーション】埼玉県新座市北野２－１４－８", "url": "https://www.kaigokensaku.mhlw.go.jp/11/index.php?action_kouhyou_detail_004_kani=true&JigyosyoCd=1155180021-00&ServiceCd=160&Type=search", "url2": "https://www.shikinosato.jp/" }, "geometry": { "type": "Point", "coordinates": [ 139.562293645245177, 35.8173385 ] } },
{ "type": "Feature", "properties": { "内容": "シルバーケア　あかね【通所リハビリテーション】埼玉県新座市新堀３－１１－１１", "url": "https://www.kaigokensaku.mhlw.go.jp/11/index.php?action_kouhyou_detail_004_kani=true&JigyosyoCd=1175100088-00&ServiceCd=160&Type=search", "url2": "http://homepage2.nifty.com/kaieda-iin/" }, "geometry": { "type": "Point", "coordinates": [ 139.522695, 35.7700377 ] } },
{ "type": "Feature", "properties": { "内容": "老人保健施設　ルーエハイム【通所リハビリテーション】埼玉県桶川市川田谷４９４８－１", "url": "https://www.kaigokensaku.mhlw.go.jp/11/index.php?action_kouhyou_detail_004_kani=true&JigyosyoCd=1155280011-00&ServiceCd=160&Type=search", "url2": "http://www.anseifukushikai.or.jp" }, "geometry": { "type": "Point", "coordinates": [ 139.518902600000047, 35.9943739 ] } },
{ "type": "Feature", "properties": { "内容": "ねむのき【通所リハビリテーション】桶川市川田谷５８３０－１", "url": "https://www.kaigokensaku.mhlw.go.jp/11/index.php?action_kouhyou_detail_004_kani=true&JigyosyoCd=1175200011-00&ServiceCd=160&Type=search", "url2": "http://nemunoki-s.com" }, "geometry": { "type": "Point", "coordinates": [ 139.531015300000035, 36.0032423 ] } },
{ "type": "Feature", "properties": { "内容": "介護老人保健施設　葵の園・桶川【通所リハビリテーション】倉田2208-1", "url": "https://www.kaigokensaku.mhlw.go.jp/11/index.php?action_kouhyou_detail_004_kani=true&JigyosyoCd=1155280041-00&ServiceCd=160&Type=search", "url2": "http://www.aoikai.jp/" }, "geometry": { "type": "Point", "coordinates": [ 139.5897817, 36.007936 ] } },
{ "type": "Feature", "properties": { "内容": "介護老人保健施設　ハートランド桶川【通所リハビリテーション】埼玉県桶川市坂田1725", "url": "https://www.kaigokensaku.mhlw.go.jp/11/index.php?action_kouhyou_detail_004_kani=true&JigyosyoCd=1155280029-00&ServiceCd=160&Type=search", "url2": "https://www.seisekikai.com/heartland/" }, "geometry": { "type": "Point", "coordinates": [ 139.561398700000041, 36.0113488 ] } },
{ "type": "Feature", "properties": { "内容": "介護老人保健施設　みやじま【通所リハビリテーション】埼玉県久喜市菖蒲町菖蒲４０２８", "url": "https://www.kaigokensaku.mhlw.go.jp/11/index.php?action_kouhyou_detail_004_kani=true&JigyosyoCd=1150580019-00&ServiceCd=160&Type=search", "url2": "http://www.roken-miyajima.com/" }, "geometry": { "type": "Point", "coordinates": [ 139.6121511, 36.0717493 ] } },
{ "type": "Feature", "properties": { "内容": "社会医療法人社団　埼玉巨樹の会　新久喜総合病院【通所リハビリテーション】埼玉県久喜市上早見418-1", "url": "https://www.kaigokensaku.mhlw.go.jp/11/index.php?action_kouhyou_detail_004_kani=true&JigyosyoCd=1110901264-00&ServiceCd=160&Type=search", "url2": "www.shinkuki-hp.jp" }, "geometry": { "type": "Point", "coordinates": [ 139.6562238, 36.0702081 ] } },
{ "type": "Feature", "properties": { "内容": "矢作整形外科・内科【通所リハビリテーション】埼玉県久喜市東大輪１４３番地３", "url": "https://www.kaigokensaku.mhlw.go.jp/11/index.php?action_kouhyou_detail_004_kani=true&JigyosyoCd=1171100553-00&ServiceCd=160&Type=search", "url2": "http://www.yahagi-seikei.com/" }, "geometry": { "type": "Point", "coordinates": [ 139.688221399999946, 36.087695 ] } },
{ "type": "Feature", "properties": { "内容": "介護老人保健施設　桜田【通所リハビリテーション】埼玉県久喜市東大輪2039-4", "url": "https://www.kaigokensaku.mhlw.go.jp/11/index.php?action_kouhyou_detail_004_kani=true&JigyosyoCd=1151100011-00&ServiceCd=160&Type=search", "url2": "https://taijukai.com/" }, "geometry": { "type": "Point", "coordinates": [ 139.67544410000005, 36.0969102 ] } },
{ "type": "Feature", "properties": { "内容": "医療法人早仁会　久喜メディカルクリニック【通所リハビリテーション】埼玉県久喜市下早見1183-1", "url": "https://www.kaigokensaku.mhlw.go.jp/11/index.php?action_kouhyou_detail_004_kani=true&JigyosyoCd=1110900886-00&ServiceCd=160&Type=search", "url2": "http://www.kuki-med/jp" }, "geometry": { "type": "Point", "coordinates": [ 139.6788944, 36.0542905 ] } },
{ "type": "Feature", "properties": { "内容": "介護老人保健施設　鶴寿の里ナーシングホーム【通所リハビリテーション】埼玉県久喜市北青柳１３８５－２", "url": "https://www.kaigokensaku.mhlw.go.jp/11/index.php?action_kouhyou_detail_004_kani=true&JigyosyoCd=1150980011-00&ServiceCd=160&Type=search", "url2": "http://www.kakuju.saitama.jp" }, "geometry": { "type": "Point", "coordinates": [ 139.660504585844365, 36.052290296052405 ] } },
{ "type": "Feature", "properties": { "内容": "介護老人保健施設　栗橋ナーシングホーム翔裕園【通所リハビリテーション】久喜市小右衛門951-1", "url": "https://www.kaigokensaku.mhlw.go.jp/11/index.php?action_kouhyou_detail_004_kani=true&JigyosyoCd=1151180041-00&ServiceCd=160&Type=search", "url2": "https://www.genkimuragroup.jp/facilitylist/kurihashi-nursing/" }, "geometry": { "type": "Point", "coordinates": [ 139.716093, 36.1170784 ] } },
{ "type": "Feature", "properties": { "内容": "カントリーハーベスト北本【通所リハビリテーション】石戸宿5-236", "url": "https://www.kaigokensaku.mhlw.go.jp/11/index.php?action_kouhyou_detail_004_kani=true&JigyosyoCd=1155380027-00&ServiceCd=160&Type=search", "url2": "https://www.countryharvest.jp/" }, "geometry": { "type": "Point", "coordinates": [ 139.509091399999988, 36.0019931 ] } },
{ "type": "Feature", "properties": { "内容": "介護老人保健施設　いこいの家【通所リハビリテーション】埼玉県北本市本町６－２３２", "url": "https://www.kaigokensaku.mhlw.go.jp/11/index.php?action_kouhyou_detail_004_kani=true&JigyosyoCd=1155380019-00&ServiceCd=160&Type=search", "url2": "http://www.hokujukai.or.jp" }, "geometry": { "type": "Point", "coordinates": [ 139.528139, 36.0272872 ] } },
{ "type": "Feature", "properties": { "内容": "北本通所リハビリテーションセンター【通所リハビリテーション】埼玉県北本市深井3-75医療法人社団博翔会　桃泉園北本病院", "url": "https://www.kaigokensaku.mhlw.go.jp/11/index.php?action_kouhyou_detail_004_kani=true&JigyosyoCd=1115301106-00&ServiceCd=160&Type=search", "url2": "www.kitamoto-hp.com" }, "geometry": { "type": "Point", "coordinates": [ 139.526423093917856, 36.050279934410526 ] } },
{ "type": "Feature", "properties": { "内容": "本藤整形外科　デイケア室【通所リハビリテーション】北本市山中1-167-1院内:2階", "url": "https://www.kaigokensaku.mhlw.go.jp/11/index.php?action_kouhyou_detail_004_kani=true&JigyosyoCd=1175300092-00&ServiceCd=160&Type=search", "url2": "http://www.hondou-seikeigeka.com/" }, "geometry": { "type": "Point", "coordinates": [ 139.545129200000019, 36.0350764 ] } },
{ "type": "Feature", "properties": { "内容": "介護老人保健施設ケアセンター八潮【通所リハビリテーション】埼玉県八潮市鶴ヶ曽根１１８４－４", "url": "https://www.kaigokensaku.mhlw.go.jp/11/index.php?action_kouhyou_detail_004_kani=true&JigyosyoCd=1151080019-00&ServiceCd=160&Type=search", "url2": "http://www.cc-yashio.jp" }, "geometry": { "type": "Point", "coordinates": [ 139.8365387, 35.8266742 ] } },
{ "type": "Feature", "properties": { "内容": "医療法人社団協友会　埼玉回生病院【通所リハビリテーション】埼玉県八潮市大原４５５番地", "url": "https://www.kaigokensaku.mhlw.go.jp/11/index.php?action_kouhyou_detail_004_kani=true&JigyosyoCd=1111000231-00&ServiceCd=160&Type=search", "url2": "https://saitamakaisei.com" }, "geometry": { "type": "Point", "coordinates": [ 139.839325300000041, 35.8054191 ] } },
{ "type": "Feature", "properties": { "内容": "介護老人保健施設　　富士見の里【通所リハビリテーション】富士見市みどり野南３－１", "url": "https://www.kaigokensaku.mhlw.go.jp/11/index.php?action_kouhyou_detail_004_kani=true&JigyosyoCd=1152980019-00&ServiceCd=160&Type=search", "url2": "http://www.kawatsuru-g.jp" }, "geometry": { "type": "Point", "coordinates": [ 139.56330550000007, 35.8661104 ] } },
{ "type": "Feature", "properties": { "内容": "かいごろうじんほけんしせつ　つるせだいのさと【通所リハビリテーション】埼玉県富士見市鶴瀬西２－８－３２介護老人保健施設　鶴瀬台の里", "url": "https://www.kaigokensaku.mhlw.go.jp/11/index.php?action_kouhyou_detail_004_kani=true&JigyosyoCd=1152980049-00&ServiceCd=160&Type=search", "url2": "http://www.kawatsuru-g.jp" }, "geometry": { "type": "Point", "coordinates": [ 139.533658699999933, 35.846115 ] } },
{ "type": "Feature", "properties": { "内容": "埼玉みさと総合リハビリテーション病院　通所リハビリテーション【通所リハビリテーション】埼玉県三郷市新和5-156-1", "url": "https://www.kaigokensaku.mhlw.go.jp/11/index.php?action_kouhyou_detail_004_kani=true&JigyosyoCd=1171200064-00&ServiceCd=160&Type=search", "url2": "https://saitama-misato-reha.com/" }, "geometry": { "type": "Point", "coordinates": [ 139.882507630688451, 35.810375659943233 ] } },
{ "type": "Feature", "properties": { "内容": "介護老人保健施設三郷ケアセンター通所リハビリテーション【通所リハビリテーション】埼玉県三郷市南蓮沼２６０－２", "url": "https://www.kaigokensaku.mhlw.go.jp/11/index.php?action_kouhyou_detail_004_kani=true&JigyosyoCd=1151280015-00&ServiceCd=160&Type=search", "url2": "http://www.misato-carecenter.jp/" }, "geometry": { "type": "Point", "coordinates": [ 139.87126330000001, 35.8469496 ] } },
{ "type": "Feature", "properties": { "内容": "医療法人財団　健和会　みさと健和クリニック【通所リハビリテーション】埼玉県三郷市鷹野４丁目５１０番地１号", "url": "https://www.kaigokensaku.mhlw.go.jp/11/index.php?action_kouhyou_detail_004_kani=true&JigyosyoCd=1111200815-00&ServiceCd=160&Type=search", "url2": "http://misato.kenwa.or.jp" }, "geometry": { "type": "Point", "coordinates": [ 139.879639, 35.8002004 ] } },
{ "type": "Feature", "properties": { "内容": "みさと協立病院【通所リハビリテーション】三郷市田中新田273-1", "url": "https://www.kaigokensaku.mhlw.go.jp/11/index.php?action_kouhyou_detail_004_kani=true&JigyosyoCd=1171200106-00&ServiceCd=160&Type=search", "url2": "http://www.tokyo-kinikai.com/misato/index.html" }, "geometry": { "type": "Point", "coordinates": [ 139.8943385, 35.8631253 ] } },
{ "type": "Feature", "properties": { "内容": "介護老人保健施設ケアタウンゆうゆう【通所リハビリテーション】蓮田市南新宿994-1", "url": "https://www.kaigokensaku.mhlw.go.jp/11/index.php?action_kouhyou_detail_004_kani=true&JigyosyoCd=1155780024-00&ServiceCd=160&Type=search", "url2": "https://mc-meikeikai.or.jp" }, "geometry": { "type": "Point", "coordinates": [ 139.664365800000041, 36.0061388 ] } },
{ "type": "Feature", "properties": { "内容": "蓮田ナーシングホーム翔裕園【通所リハビリテーション】埼玉県蓮田市大字閏戸字吹上１８２６－１", "url": "https://www.kaigokensaku.mhlw.go.jp/11/index.php?action_kouhyou_detail_004_kani=true&JigyosyoCd=1155780010-00&ServiceCd=160&Type=search", "url2": "http://www.genkimuragroup.jp/genkimura/hasuda-nh/" }, "geometry": { "type": "Point", "coordinates": [ 139.643020006671549, 36.002360875713997 ] } },
{ "type": "Feature", "properties": { "内容": "松野記念クリニックデイケア【通所リハビリテーション】坂戸市上吉田六反639", "url": "https://www.kaigokensaku.mhlw.go.jp/11/index.php?action_kouhyou_detail_004_kani=true&JigyosyoCd=1176000329-00&ServiceCd=160&Type=search", "url2": "http://matuno.byoinnavi.jp/pc/index.html" }, "geometry": { "type": "Point", "coordinates": [ 139.3936152, 35.97865 ] } },
{ "type": "Feature", "properties": { "内容": "医療法人　大元気会　ルネサンス【通所リハビリテーション】埼玉県坂戸市北峰３３番地", "url": "https://www.kaigokensaku.mhlw.go.jp/11/index.php?action_kouhyou_detail_004_kani=true&JigyosyoCd=1116001275-00&ServiceCd=160&Type=search", "url2": "http://www.daigenki.or.jp" }, "geometry": { "type": "Point", "coordinates": [ 139.362068499999964, 35.9613744 ] } },
{ "type": "Feature", "properties": { "内容": "医療法人　若葉会　若葉病院【通所リハビリテーション】坂戸市戸宮609番地", "url": "https://www.kaigokensaku.mhlw.go.jp/11/index.php?action_kouhyou_detail_004_kani=true&JigyosyoCd=1116001317-00&ServiceCd=160&Type=search", "url2": "www.wakaba.group.or.jp" }, "geometry": { "type": "Point", "coordinates": [ 139.425902400000041, 35.9626054 ] } },
{ "type": "Feature", "properties": { "内容": "介護老人保健施設　すみよし【通所リハビリテーション】埼玉県坂戸市塚越７６９", "url": "https://www.kaigokensaku.mhlw.go.jp/11/index.php?action_kouhyou_detail_004_kani=true&JigyosyoCd=1156080030-00&ServiceCd=160&Type=search", "url2": "http://www.kan-etsu-hp.ne.jp" }, "geometry": { "type": "Point", "coordinates": [ 139.42035850000002, 35.9728841 ] } },
{ "type": "Feature", "properties": { "内容": "介護老人保健施設　はつらつ【通所リハビリテーション】埼玉県坂戸市本町2-13", "url": "https://www.kaigokensaku.mhlw.go.jp/11/index.php?action_kouhyou_detail_004_kani=true&JigyosyoCd=1156080014-00&ServiceCd=160&Type=search", "url2": "http://www.toujinkai.com" }, "geometry": { "type": "Point", "coordinates": [ 139.393708486508217, 35.96150752753897 ] } },
{ "type": "Feature", "properties": { "内容": "介護老人保健施設　　やまぶきの郷【通所リハビリテーション】埼玉県坂戸市多和目３３０番地", "url": "https://www.kaigokensaku.mhlw.go.jp/11/index.php?action_kouhyou_detail_004_kani=true&JigyosyoCd=1156080022-00&ServiceCd=160&Type=search", "url2": "https://www.yamabukinosato.jp" }, "geometry": { "type": "Point", "coordinates": [ 139.344271700000036, 35.9223157 ] } },
{ "type": "Feature", "properties": { "内容": "医療法人社団秀人会原田内科クリニックリハビリケアさくら【通所リハビリテーション】末広町5-1シャンボールビル205", "url": "https://www.kaigokensaku.mhlw.go.jp/11/index.php?action_kouhyou_detail_004_kani=true&JigyosyoCd=1116001697-00&ServiceCd=160&Type=search", "url2": "https://syujinkai.com/kaigo/?course=rehabilitation" }, "geometry": { "type": "Point", "coordinates": [ 139.395574262878426, 35.974183050969181 ] } },
{ "type": "Feature", "properties": { "内容": "鶴松整形外科【通所リハビリテーション】埼玉県坂戸市厚川１４－１０", "url": "https://www.kaigokensaku.mhlw.go.jp/11/index.php?action_kouhyou_detail_004_kani=true&JigyosyoCd=1116001663-00&ServiceCd=160&Type=search", "url2": "http://turumatu.net/" }, "geometry": { "type": "Point", "coordinates": [ 139.369102800000064, 35.9425403 ] } },
{ "type": "Feature", "properties": { "内容": "鶴ヶ島耳鼻咽喉科診療所デイケアルーム【通所リハビリテーション】埼玉県鶴ヶ島市上広谷　8-15鶴ヶ島耳鼻咽喉科診療所", "url": "https://www.kaigokensaku.mhlw.go.jp/11/index.php?action_kouhyou_detail_004_kani=true&JigyosyoCd=1176200101-00&ServiceCd=160&Type=search", "url2": "https://www.manjyukai.or.jp/pages/93/" }, "geometry": { "type": "Point", "coordinates": [ 139.425333, 35.9393568 ] } },
{ "type": "Feature", "properties": { "内容": "老人保健施設　鶴ヶ島ケアホーム【通所リハビリテーション】埼玉県鶴ヶ島市脚折１８７７", "url": "https://www.kaigokensaku.mhlw.go.jp/11/index.php?action_kouhyou_detail_004_kani=true&JigyosyoCd=1156280010-00&ServiceCd=160&Type=search", "url2": "https://www.manjyukai.or.jp/pages/55/" }, "geometry": { "type": "Point", "coordinates": [ 139.385587699999974, 35.9349952 ] } },
{ "type": "Feature", "properties": { "内容": "介護老人保健施設　日高の里【通所リハビリテーション】埼玉県日高市大字久保９６－１", "url": "https://www.kaigokensaku.mhlw.go.jp/11/index.php?action_kouhyou_detail_004_kani=true&JigyosyoCd=1156380018-00&ServiceCd=160&Type=search", "url2": "http://www.hidakanosato.com" }, "geometry": { "type": "Point", "coordinates": [ 139.3005948, 35.8830514 ] } },
{ "type": "Feature", "properties": { "内容": "リハビリテーションセンター武蔵台【通所リハビリテーション】埼玉県日高市久保２７８－１２", "url": "https://www.kaigokensaku.mhlw.go.jp/11/index.php?action_kouhyou_detail_004_kani=true&JigyosyoCd=1176300265-00&ServiceCd=160&Type=search", "url2": "www.musashidai-hp.com" }, "geometry": { "type": "Point", "coordinates": [ 139.299203300000045, 35.8820404 ] } },
{ "type": "Feature", "properties": { "内容": "通所リハビリめぐみ【通所リハビリテーション】埼玉県日高市下鹿山５２７－３", "url": "https://www.kaigokensaku.mhlw.go.jp/11/index.php?action_kouhyou_detail_004_kani=true&JigyosyoCd=1116300339-00&ServiceCd=160&Type=search", "url2": "qqkf4ws9k@cure.ocn.ne" }, "geometry": { "type": "Point", "coordinates": [ 139.347944866934199, 35.888151468202835 ] } },
{ "type": "Feature", "properties": { "内容": "医療法人積仁会　旭ヶ丘病院【通所リハビリテーション】森戸新田99番地1", "url": "https://www.kaigokensaku.mhlw.go.jp/11/index.php?action_kouhyou_detail_004_kani=true&JigyosyoCd=1116300016-00&ServiceCd=160&Type=search", "url2": "sekijinkai.or.jp" }, "geometry": { "type": "Point", "coordinates": [ 139.3729515, 35.9129598 ] } },
{ "type": "Feature", "properties": { "内容": "医療法人社団協友会　吉川中央総合病院【通所リハビリテーション】埼玉県吉川市平沼１１１", "url": "https://www.kaigokensaku.mhlw.go.jp/11/index.php?action_kouhyou_detail_004_kani=true&JigyosyoCd=1116400055-00&ServiceCd=160&Type=search", "url2": "http://www.yoshikawa-hp.or.jp/" }, "geometry": { "type": "Point", "coordinates": [ 139.840812949073779, 35.88253074153338 ] } },
{ "type": "Feature", "properties": { "内容": "介護老人保健施設　ケアリングよしかわ【通所リハビリテーション】埼玉県吉川市八子新田５２９", "url": "https://www.kaigokensaku.mhlw.go.jp/11/index.php?action_kouhyou_detail_004_kani=true&JigyosyoCd=1156480016-00&ServiceCd=160&Type=search", "url2": "http://www.caring-yoshikawa.or.jp/" }, "geometry": { "type": "Point", "coordinates": [ 139.866046800000049, 35.9153009 ] } },
{ "type": "Feature", "properties": { "内容": "介護老人保健施設上福岡リハケアセンター【通所リハビリテーション】埼玉県ふじみ野市福岡新田108-1", "url": "https://www.kaigokensaku.mhlw.go.jp/11/index.php?action_kouhyou_detail_004_kani=true&JigyosyoCd=1153080025-00&ServiceCd=160&Type=search", "url2": "http://www.kamifukuoka.or.jp" }, "geometry": { "type": "Point", "coordinates": [ 139.541128551048416, 35.876813777952407 ] } },
{ "type": "Feature", "properties": { "内容": "ふじみ野介護老人保健施設　ベテラン館【通所リハビリテーション】埼玉県ふじみ野市亀久保1833番地5", "url": "https://www.kaigokensaku.mhlw.go.jp/11/index.php?action_kouhyou_detail_004_kani=true&JigyosyoCd=1153080054-00&ServiceCd=160&Type=search", "url2": "http://mashibamed.com/fujiminoveterankan/" }, "geometry": { "type": "Point", "coordinates": [ 139.49456710000004, 35.8595066 ] } },
{ "type": "Feature", "properties": { "内容": "医療法人財団明理会介護老人保健施設イムスケアふじみの【通所リハビリテーション】埼玉県ふじみ野市鶴ヶ岡５－６－５８", "url": "https://www.kaigokensaku.mhlw.go.jp/11/index.php?action_kouhyou_detail_004_kani=true&JigyosyoCd=1153080039-00&ServiceCd=160&Type=search", "url2": "http://www.ims.gr.jp/fujimino/" }, "geometry": { "type": "Point", "coordinates": [ 139.495291800000018, 35.8659614 ] } },
{ "type": "Feature", "properties": { "内容": "富家在宅リハビリテーションケアセンター【通所リハビリテーション】埼玉県ふじみ野市亀久保１８３９－４", "url": "https://www.kaigokensaku.mhlw.go.jp/11/index.php?action_kouhyou_detail_004_kani=true&JigyosyoCd=1113001575-00&ServiceCd=160&Type=search", "url2": "http://www.fuke-zaitaku.com/" }, "geometry": { "type": "Point", "coordinates": [ 139.493558900000039, 35.8567264 ] } },
{ "type": "Feature", "properties": { "内容": "富家病院デイケアセンター【通所リハビリテーション】埼玉県ふじみ野市亀久保2197番地", "url": "https://www.kaigokensaku.mhlw.go.jp/11/index.php?action_kouhyou_detail_004_kani=true&JigyosyoCd=1113001039-00&ServiceCd=160&Type=search", "url2": null }, "geometry": { "type": "Point", "coordinates": [ 139.478086308737147, 35.851309158770874 ] } },
{ "type": "Feature", "properties": { "内容": "医療生協さいたま生活協同組合大井協同デイケア【通所リハビリテーション】埼玉県ふじみ野市ふじみ野1-1-15", "url": "https://www.kaigokensaku.mhlw.go.jp/11/index.php?action_kouhyou_detail_004_kani=true&JigyosyoCd=1113001096-00&ServiceCd=160&Type=search", "url2": "http://ohikyoudou.mcp-saitamawest.jp/" }, "geometry": { "type": "Point", "coordinates": [ 139.513179300000047, 35.8600016 ] } },
{ "type": "Feature", "properties": { "内容": "白岡整形外科【通所リハビリテーション】埼玉県白岡市小久喜1067-2", "url": "https://www.kaigokensaku.mhlw.go.jp/11/index.php?action_kouhyou_detail_004_kani=true&JigyosyoCd=1110501361-00&ServiceCd=160&Type=search", "url2": "http://www.shiraokaseikei.com/" }, "geometry": { "type": "Point", "coordinates": [ 139.665415199999984, 36.0164403 ] } },
{ "type": "Feature", "properties": { "内容": "デイケアセンター　ぽっかぽか【通所リハビリテーション】白岡市上野田357-1", "url": "https://www.kaigokensaku.mhlw.go.jp/11/index.php?action_kouhyou_detail_004_kani=true&JigyosyoCd=1150580027-00&ServiceCd=160&Type=search", "url2": "http://www.taijukai.com" }, "geometry": { "type": "Point", "coordinates": [ 139.684097, 36.0172952 ] } },
{ "type": "Feature", "properties": { "内容": "医療法人社団　愛友会　介護老人保健施設　一心館【通所リハビリテーション】埼玉県北足立郡伊奈町小室８１１３番地", "url": "https://www.kaigokensaku.mhlw.go.jp/11/index.php?action_kouhyou_detail_004_kani=true&JigyosyoCd=1153080017-00&ServiceCd=160&Type=search", "url2": "http://www.issinkan.jp" }, "geometry": { "type": "Point", "coordinates": [ 139.628215400000045, 35.9992819 ] } },
{ "type": "Feature", "properties": { "内容": "通所リハビリテーションのぞみ【通所リハビリテーション】埼玉県北足立郡伊奈町小室3170", "url": "https://www.kaigokensaku.mhlw.go.jp/11/index.php?action_kouhyou_detail_004_kani=true&JigyosyoCd=1171300369-00&ServiceCd=160&Type=search", "url2": "http://www.nozomi.or.jp/tsusyo.html" }, "geometry": { "type": "Point", "coordinates": [ 139.633943199999976, 35.9831455 ] } },
{ "type": "Feature", "properties": { "内容": "医療法人社団信悠会アール・ブリュ【通所リハビリテーション】埼玉県北足立郡伊奈町大字小室10051-1", "url": "https://www.kaigokensaku.mhlw.go.jp/11/index.php?action_kouhyou_detail_004_kani=true&JigyosyoCd=1171300385-00&ServiceCd=160&Type=search", "url2": "http://www7a.biglobe.ne.jp/~kimuraclinic/" }, "geometry": { "type": "Point", "coordinates": [ 139.615714, 35.9962122 ] } },
{ "type": "Feature", "properties": { "内容": "エムズガーデンデイケアセンター【通所リハビリテーション】埼玉県入間郡三芳町北永井890-2", "url": "https://www.kaigokensaku.mhlw.go.jp/11/index.php?action_kouhyou_detail_004_kani=true&JigyosyoCd=1152480040-00&ServiceCd=160&Type=search", "url2": "https://ms-garden.miyoshino.or.jp" }, "geometry": { "type": "Point", "coordinates": [ 139.5154723, 35.8455891 ] } },
{ "type": "Feature", "properties": { "内容": "介護老人保健施設むさしの苑【通所リハビリテーション】埼玉県入間郡三芳上富1784-7", "url": "https://www.kaigokensaku.mhlw.go.jp/11/index.php?action_kouhyou_detail_004_kani=true&JigyosyoCd=1152480028-00&ServiceCd=160&Type=search", "url2": "http://mkf.jp" }, "geometry": { "type": "Point", "coordinates": [ 139.492592100000024, 35.8409755 ] } },
{ "type": "Feature", "properties": { "内容": "介護老人保健施設　埼玉ロイヤルケアセンター【通所リハビリテーション】埼玉県入間郡三芳町上富２１８１－５", "url": "https://www.kaigokensaku.mhlw.go.jp/11/index.php?action_kouhyou_detail_004_kani=true&JigyosyoCd=1152480010-00&ServiceCd=160&Type=search", "url2": "http://www.ims.gr.jp/saitama.royal" }, "geometry": { "type": "Point", "coordinates": [ 139.5045834, 35.8414897 ] } },
{ "type": "Feature", "properties": { "内容": "介護老人保健施設　薫風園【通所リハビリテーション】埼玉県入間郡毛呂山町大字毛呂本郷字沢又６９１番地", "url": "https://www.kaigokensaku.mhlw.go.jp/11/index.php?action_kouhyou_detail_004_kani=true&JigyosyoCd=1152480036-00&ServiceCd=160&Type=search", "url2": "http://www.saitama-mwa.on.jp" }, "geometry": { "type": "Point", "coordinates": [ 139.306654, 35.9381802 ] } },
{ "type": "Feature", "properties": { "内容": "介護老人保健施設いづみケアセンター【通所リハビリテーション】埼玉県比企郡滑川町和泉８７３", "url": "https://www.kaigokensaku.mhlw.go.jp/11/index.php?action_kouhyou_detail_004_kani=true&JigyosyoCd=1153280013-00&ServiceCd=160&Type=search", "url2": "http://www.kokoro.or.jp/izumi-care/" }, "geometry": { "type": "Point", "coordinates": [ 139.33144249999998, 36.0841039 ] } },
{ "type": "Feature", "properties": { "内容": "宏仁会小川病院【通所リハビリテーション】埼玉県比企郡小川町原川205", "url": "https://www.kaigokensaku.mhlw.go.jp/11/index.php?action_kouhyou_detail_004_kani=true&JigyosyoCd=1113201084-00&ServiceCd=160&Type=search", "url2": "http://www.kohjinkai.or.jp/" }, "geometry": { "type": "Point", "coordinates": [ 139.247621283081145, 36.067862255434875 ] } },
{ "type": "Feature", "properties": { "内容": "医療法人　啓仁会　介護老人保健施設　平成の森【通所リハビリテーション】埼玉県比企郡川島町大字畑中４７８番地１", "url": "https://www.kaigokensaku.mhlw.go.jp/11/index.php?action_kouhyou_detail_004_kani=true&JigyosyoCd=1153280021-00&ServiceCd=160&Type=search", "url2": "http://www.wam-town.jp/kawashima/rouken/index.html" }, "geometry": { "type": "Point", "coordinates": [ 139.490094699999986, 35.991899 ] } },
{ "type": "Feature", "properties": { "内容": "介護老人保健施設なでしこ【通所リハビリテーション】秩父郡横瀬町大字横瀬５８５０", "url": "https://www.kaigokensaku.mhlw.go.jp/11/index.php?action_kouhyou_detail_004_kani=true&JigyosyoCd=1154880027-00&ServiceCd=160&Type=search", "url2": "http://kenshukai-nadeshiko.jp" }, "geometry": { "type": "Point", "coordinates": [ 139.109185499999967, 36.004677200000017 ] } },
{ "type": "Feature", "properties": { "内容": "清水病院　リハビリセンター　アトム【通所リハビリテーション】埼玉県秩父郡皆野町大字皆野１３９４－１清水病院附属　愛育院", "url": "https://www.kaigokensaku.mhlw.go.jp/11/index.php?action_kouhyou_detail_004_kani=true&JigyosyoCd=1174800787-00&ServiceCd=160&Type=search", "url2": "http://www.simizubyouin.or.jp" }, "geometry": { "type": "Point", "coordinates": [ 139.096999, 36.0702454 ] } },
{ "type": "Feature", "properties": { "内容": "縄文の里　長瀞倶楽部【通所リハビリテーション】埼玉県秩父郡長瀞町岩田587番地", "url": "https://www.kaigokensaku.mhlw.go.jp/11/index.php?action_kouhyou_detail_004_kani=true&JigyosyoCd=1154880007-00&ServiceCd=160&Type=search", "url2": "http://www.ishin-kai.or.jp/nagatoro" }, "geometry": { "type": "Point", "coordinates": [ 139.124231399999985, 36.1295401 ] } },
{ "type": "Feature", "properties": { "内容": "国保町立小鹿野中央病院【通所リハビリテーション】埼玉県秩父郡小鹿野町小鹿野300番地", "url": "https://www.kaigokensaku.mhlw.go.jp/11/index.php?action_kouhyou_detail_004_kani=true&JigyosyoCd=1114800926-00&ServiceCd=160&Type=search", "url2": "http://byoin.town.ogano.lg.jp/" }, "geometry": { "type": "Point", "coordinates": [ 139.0038174, 36.0181924 ] } },
{ "type": "Feature", "properties": { "内容": "介護老人保健施設　みどうの杜【通所リハビリテーション】埼玉県秩父郡東秩父村大字御堂１４５６－４", "url": "https://www.kaigokensaku.mhlw.go.jp/11/index.php?action_kouhyou_detail_004_kani=true&JigyosyoCd=1154880019-00&ServiceCd=160&Type=search", "url2": "https://www.mhp.or.jp/midou/" }, "geometry": { "type": "Point", "coordinates": [ 139.201300599999968, 36.052732 ] } },
{ "type": "Feature", "properties": { "内容": "老人保健施設かみかわ【通所リハビリテーション】埼玉県児玉郡神川町大字新里2783-5", "url": "https://www.kaigokensaku.mhlw.go.jp/11/index.php?action_kouhyou_detail_004_kani=true&JigyosyoCd=1154280012-00&ServiceCd=160&Type=search", "url2": "http://www.0495771212.or.jp" }, "geometry": { "type": "Point", "coordinates": [ 139.093766100000039, 36.1961227 ] } },
{ "type": "Feature", "properties": { "内容": "介護老人保健施設　かみさとナーシングホーム【通所リハビリテーション】埼玉県児玉郡上里町金久保１３３６", "url": "https://www.kaigokensaku.mhlw.go.jp/11/index.php?action_kouhyou_detail_004_kani=true&JigyosyoCd=1154280020-00&ServiceCd=160&Type=search", "url2": "http://www.lupinus-kai.or.jp" }, "geometry": { "type": "Point", "coordinates": [ 139.145741899999962, 36.2620671 ] } },
{ "type": "Feature", "properties": { "内容": "介護老人保健施設　逍遥の郷通所リハビリテーション【通所リハビリテーション】埼玉県大里郡寄居町大字折原２４８２", "url": "https://www.kaigokensaku.mhlw.go.jp/11/index.php?action_kouhyou_detail_004_kani=true&JigyosyoCd=1154580023-00&ServiceCd=160&Type=search", "url2": "http://www.hagukumukai.jp/" }, "geometry": { "type": "Point", "coordinates": [ 139.174314399999957, 36.1057418 ] } },
{ "type": "Feature", "properties": { "内容": "介護老人保健施設やまざくら【通所リハビリテーション】埼玉県大里郡寄居町末野2109", "url": "https://www.kaigokensaku.mhlw.go.jp/11/index.php?action_kouhyou_detail_004_kani=true&JigyosyoCd=1154580031-00&ServiceCd=160&Type=search", "url2": "http://www.shunjinkai.or.jp" }, "geometry": { "type": "Point", "coordinates": [ 139.165133400000059, 36.124789 ] } },
{ "type": "Feature", "properties": { "内容": "公設宮代福祉医療センター介護老人保健施設六花【通所リハビリテーション】埼玉県南埼玉郡宮代町大字須賀１７７", "url": "https://www.kaigokensaku.mhlw.go.jp/11/index.php?action_kouhyou_detail_004_kani=true&JigyosyoCd=1150580035-00&ServiceCd=160&Type=search", "url2": "https://www.rikka-jadecom.jp/" }, "geometry": { "type": "Point", "coordinates": [ 139.719641, 36.0210956 ] } },
{ "type": "Feature", "properties": { "内容": "介護老人保健施設　はーとぴあ　通所リハビリテーション【通所リハビリテーション】埼玉県南埼玉郡宮代町字山崎４７２", "url": "https://www.kaigokensaku.mhlw.go.jp/11/index.php?action_kouhyou_detail_004_kani=true&JigyosyoCd=1150580049-00&ServiceCd=160&Type=search", "url2": "http://www.e-heartpia.jp" }, "geometry": { "type": "Point", "coordinates": [ 139.724860300000046, 36.01223 ] } },
{ "type": "Feature", "properties": { "内容": "第2通所リハビリテーションセンター　はーとぴあ【通所リハビリテーション】埼玉県南埼玉郡宮代町字山崎478-9", "url": "https://www.kaigokensaku.mhlw.go.jp/11/index.php?action_kouhyou_detail_004_kani=true&JigyosyoCd=1110501692-00&ServiceCd=160&Type=search", "url2": "http://www.e-heartpia.ｊｐ" }, "geometry": { "type": "Point", "coordinates": [ 139.724304800000027, 36.0126272 ] } },
{ "type": "Feature", "properties": { "内容": "東埼玉総合病院附属清地クリニック【通所リハビリテーション】埼玉県北葛飾郡杉戸町清地5-1-2", "url": "https://www.kaigokensaku.mhlw.go.jp/11/index.php?action_kouhyou_detail_004_kani=true&JigyosyoCd=1171101080-00&ServiceCd=160&Type=search", "url2": "http://jinai.jp/other/center_saitama/" }, "geometry": { "type": "Point", "coordinates": [ 139.737231299999962, 36.0277757 ] } },
{ "type": "Feature", "properties": { "内容": "介護老人保健施設あすかHOUSE松伏【通所リハビリテーション】埼玉県北葛飾郡松伏町上赤岩７５２－１", "url": "https://www.kaigokensaku.mhlw.go.jp/11/index.php?action_kouhyou_detail_004_kani=true&JigyosyoCd=1151180025-00&ServiceCd=160&Type=search", "url2": "http://www.asuka-gp.jp/premier" }, "geometry": { "type": "Point", "coordinates": [ 139.822222600000032, 35.9153949 ] } },
{ "type": "Feature", "properties": { "内容": "医療法人社団明日佳埼玉あすか松伏病院通所リハビリテーションセンター【通所リハビリテーション】埼玉県北葛飾郡松伏町松伏1263番地5", "url": "https://www.kaigokensaku.mhlw.go.jp/11/index.php?action_kouhyou_detail_004_kani=true&JigyosyoCd=1111102961-00&ServiceCd=160&Type=search", "url2": "http://www.asuka-gp.jp/saitama/index.html" }, "geometry": { "type": "Point", "coordinates": [ 139.8288796, 35.9275805 ] } },
{ "type": "Feature", "properties": { "内容": "なのはなの里【通所リハビリテーション】埼玉県北葛飾郡松伏町金杉1908", "url": "https://www.kaigokensaku.mhlw.go.jp/11/index.php?action_kouhyou_detail_004_kani=true&JigyosyoCd=1151180058-00&ServiceCd=160&Type=search", "url2": "http://www.nanohananosato.info" }, "geometry": { "type": "Point", "coordinates": [ 139.826379, 35.9474285 ] } },
{ "type": "Feature", "properties": { "内容": "埼玉筑波病院【通所リハビリテーション】北葛飾郡松伏町築比地４２０", "url": "https://www.kaigokensaku.mhlw.go.jp/11/index.php?action_kouhyou_detail_004_kani=true&JigyosyoCd=1111101898-00&ServiceCd=160&Type=search", "url2": "https://saitamatsukuba-hp.com" }, "geometry": { "type": "Point", "coordinates": [ 139.8327812, 35.9491034 ] } }
]
}
