{
"type": "FeatureCollection",
"name": "geo_11_地域密着型介護老人福祉施設入所者生活介護",
"crs": { "type": "name", "properties": { "name": "urn:ogc:def:crs:OGC:1.3:CRS84" } },
"features": [
{ "type": "Feature", "properties": { "内容": "地域密着型特別養護老人ホームフォルテーラ指扇【地域密着型介護老人福祉施設入所者生活介護】埼玉県さいたま市西区指扇1377-1", "url2": "https://www.kaigokensaku.mhlw.go.jp/11/index.php?action_kouhyou_detail_004_kani=true&JigyosyoCd=1196501348-00&ServiceCd=540&Type=search" }, "geometry": { "type": "Point", "coordinates": [ 139.5763839, 35.9187889 ] } },
{ "type": "Feature", "properties": { "内容": "特別養護老人ホーム扇の森WEST【地域密着型介護老人福祉施設入所者生活介護】さいたま市西区中釘2345-1", "url2": "https://www.kaigokensaku.mhlw.go.jp/11/index.php?action_kouhyou_detail_004_kani=true&JigyosyoCd=1196500399-00&ServiceCd=540&Type=search" }, "geometry": { "type": "Point", "coordinates": [ 139.569167012611359, 35.924596712721197 ] } },
{ "type": "Feature", "properties": { "内容": "特別養護老人ホーム　フルール宮原ＡＮＮＥＸ【地域密着型介護老人福祉施設入所者生活介護】埼玉県さいたま市北区宮原町1-710", "url2": "https://www.kaigokensaku.mhlw.go.jp/11/index.php?action_kouhyou_detail_004_kani=true&JigyosyoCd=1196501488-00&ServiceCd=540&Type=search" }, "geometry": { "type": "Point", "coordinates": [ 139.6144907, 35.9368791 ] } },
{ "type": "Feature", "properties": { "内容": "地域密着型特別養護老人ホーム　おたっしゃ倶楽部【地域密着型介護老人福祉施設入所者生活介護】埼玉県さいたま市大宮区吉敷町3-57-1", "url2": "https://www.kaigokensaku.mhlw.go.jp/11/index.php?action_kouhyou_detail_004_kani=true&JigyosyoCd=1196501009-00&ServiceCd=540&Type=search" }, "geometry": { "type": "Point", "coordinates": [ 139.632049138484291, 35.899689966656823 ] } },
{ "type": "Feature", "properties": { "内容": "特別養護老人ホーム　埼玉さくらんぼⅡ番館【地域密着型介護老人福祉施設入所者生活介護】埼玉県さいたま市南区大字太田窪３５１６－１７", "url2": "https://www.kaigokensaku.mhlw.go.jp/11/index.php?action_kouhyou_detail_004_kani=true&JigyosyoCd=1196500316-00&ServiceCd=540&Type=search" }, "geometry": { "type": "Point", "coordinates": [ 139.693039399999947, 35.8495366 ] } },
{ "type": "Feature", "properties": { "内容": "地域密着型特別養護老人ホーム　ひなの槻【地域密着型介護老人福祉施設入所者生活介護】埼玉県さいたま市岩槻区裏慈恩寺40-3地域密着型特別養護老人ホーム　ひなの槻", "url2": "https://www.kaigokensaku.mhlw.go.jp/11/index.php?action_kouhyou_detail_004_kani=true&JigyosyoCd=1196500829-00&ServiceCd=540&Type=search" }, "geometry": { "type": "Point", "coordinates": [ 139.711668, 35.9907106 ] } },
{ "type": "Feature", "properties": { "内容": "介護老人福祉施設みなみかぜ・燦【地域密着型介護老人福祉施設入所者生活介護】埼玉県川越市吉田２０３番地３", "url2": "https://www.kaigokensaku.mhlw.go.jp/11/index.php?action_kouhyou_detail_004_kani=true&JigyosyoCd=1190400224-00&ServiceCd=540&Type=search" }, "geometry": { "type": "Point", "coordinates": [ 139.426402100000018, 35.9289754 ] } },
{ "type": "Feature", "properties": { "内容": "地域密着型介護老人福祉施設　熊谷ホーム【地域密着型介護老人福祉施設入所者生活介護】埼玉県熊谷市新堀1140番地", "url2": "https://www.kaigokensaku.mhlw.go.jp/11/index.php?action_kouhyou_detail_004_kani=true&JigyosyoCd=1193100144-00&ServiceCd=540&Type=search" }, "geometry": { "type": "Point", "coordinates": [ 139.319800100000066, 36.1744413 ] } },
{ "type": "Feature", "properties": { "内容": "地域密着型特別養護老人ホームみちあい【地域密着型介護老人福祉施設入所者生活介護】川口市道合874番地4", "url2": "https://www.kaigokensaku.mhlw.go.jp/11/index.php?action_kouhyou_detail_004_kani=true&JigyosyoCd=1190200491-00&ServiceCd=540&Type=search" }, "geometry": { "type": "Point", "coordinates": [ 139.721233826519779, 35.851520822936017 ] } },
{ "type": "Feature", "properties": { "内容": "特別養護老人ホーム　くすのき【地域密着型介護老人福祉施設入所者生活介護】埼玉県川口市原町4-5", "url2": "https://www.kaigokensaku.mhlw.go.jp/11/index.php?action_kouhyou_detail_004_kani=true&JigyosyoCd=1190200442-00&ServiceCd=540&Type=search" }, "geometry": { "type": "Point", "coordinates": [ 139.708027425794967, 35.802363247733275 ] } },
{ "type": "Feature", "properties": { "内容": "特別養護⽼⼈ホーム川⼝シニアセンター【地域密着型介護老人福祉施設入所者生活介護】川⼝市⻄新井宿1216-6", "url2": "https://www.kaigokensaku.mhlw.go.jp/11/index.php?action_kouhyou_detail_004_kani=true&JigyosyoCd=1190200483-00&ServiceCd=540&Type=search" }, "geometry": { "type": "Point", "coordinates": [ 139.737956, 35.842748 ] } },
{ "type": "Feature", "properties": { "内容": "特別養護老人ホーム　悠久の栖【地域密着型介護老人福祉施設入所者生活介護】埼玉県川口市道合９３７－１", "url2": "https://www.kaigokensaku.mhlw.go.jp/11/index.php?action_kouhyou_detail_004_kani=true&JigyosyoCd=1190200533-00&ServiceCd=540&Type=search" }, "geometry": { "type": "Point", "coordinates": [ 139.7231339, 35.8503793 ] } },
{ "type": "Feature", "properties": { "内容": "地域密着型特別養護老人ホーム　ふぁみぃゆ東館【地域密着型介護老人福祉施設入所者生活介護】埼玉県行田市下須戸65番地1地域密着型施設", "url2": "https://www.kaigokensaku.mhlw.go.jp/11/index.php?action_kouhyou_detail_004_kani=true&JigyosyoCd=1193700091-00&ServiceCd=540&Type=search" }, "geometry": { "type": "Point", "coordinates": [ 139.5020323, 36.1432531 ] } },
{ "type": "Feature", "properties": { "内容": "地域密着型特別養護老人ホーム楓の森【地域密着型介護老人福祉施設入所者生活介護】埼玉県秩父市荒川上田野766-1", "url2": "https://www.kaigokensaku.mhlw.go.jp/11/index.php?action_kouhyou_detail_004_kani=true&JigyosyoCd=1194900146-00&ServiceCd=540&Type=search" }, "geometry": { "type": "Point", "coordinates": [ 139.041766300000063, 35.9591918 ] } },
{ "type": "Feature", "properties": { "内容": "社会福祉法人　秩父福祉会　白砂恵慈園　永田屋【地域密着型介護老人福祉施設入所者生活介護】埼玉県秩父市永田町9番3号白砂恵慈園　永田屋", "url2": "https://www.kaigokensaku.mhlw.go.jp/11/index.php?action_kouhyou_detail_004_kani=true&JigyosyoCd=1194900237-00&ServiceCd=540&Type=search" }, "geometry": { "type": "Point", "coordinates": [ 139.085671449159207, 36.007631162437896 ] } },
{ "type": "Feature", "properties": { "内容": "地域密着型介護老人福祉施設　平安の森【地域密着型介護老人福祉施設入所者生活介護】埼玉県所沢市東狭山ヶ丘4-2678-1", "url2": "https://www.kaigokensaku.mhlw.go.jp/11/index.php?action_kouhyou_detail_004_kani=true&JigyosyoCd=1192500054-00&ServiceCd=540&Type=search" }, "geometry": { "type": "Point", "coordinates": [ 139.426996799999984, 35.8082477 ] } },
{ "type": "Feature", "properties": { "内容": "地域密着型　特別養護老人ホーム　飛鳥野の森【地域密着型介護老人福祉施設入所者生活介護】所沢市神米金５０５－１", "url2": "https://www.kaigokensaku.mhlw.go.jp/11/index.php?action_kouhyou_detail_004_kani=true&JigyosyoCd=1192500021-00&ServiceCd=540&Type=search" }, "geometry": { "type": "Point", "coordinates": [ 139.454345591540459, 35.821680412284095 ] } },
{ "type": "Feature", "properties": { "内容": "介護老人福祉施設　特養騎西【地域密着型介護老人福祉施設入所者生活介護】埼玉県加須市日出安1268番", "url2": "https://www.kaigokensaku.mhlw.go.jp/11/index.php?action_kouhyou_detail_004_kani=true&JigyosyoCd=1193800172-00&ServiceCd=540&Type=search" }, "geometry": { "type": "Point", "coordinates": [ 139.580645400000037, 36.1123235 ] } },
{ "type": "Feature", "properties": { "内容": "地域密着型ユニット型特別養護老人ホーム四季咲きの杜【地域密着型介護老人福祉施設入所者生活介護】北堀779-3", "url2": "https://www.kaigokensaku.mhlw.go.jp/11/index.php?action_kouhyou_detail_004_kani=true&JigyosyoCd=1194300164-00&ServiceCd=540&Type=search" }, "geometry": { "type": "Point", "coordinates": [ 139.189826900000071, 36.225241200000013 ] } },
{ "type": "Feature", "properties": { "内容": "特別養護老人ホーム千鳥の丘【地域密着型介護老人福祉施設入所者生活介護】埼玉県本庄市児玉町宮内1250-1特別養護老人ホーム千鳥の丘", "url2": "https://www.kaigokensaku.mhlw.go.jp/11/index.php?action_kouhyou_detail_004_kani=true&JigyosyoCd=1194300123-00&ServiceCd=540&Type=search" }, "geometry": { "type": "Point", "coordinates": [ 139.093935800000054, 36.1885791 ] } },
{ "type": "Feature", "properties": { "内容": "地域密着型特別養護老人ホームひがしまつやま寿苑【地域密着型介護老人福祉施設入所者生活介護】埼玉県東松山市柏崎６２９－１", "url2": "https://www.kaigokensaku.mhlw.go.jp/11/index.php?action_kouhyou_detail_004_kani=true&JigyosyoCd=1193300090-00&ServiceCd=540&Type=search" }, "geometry": { "type": "Point", "coordinates": [ 139.421617800000035, 36.0268422 ] } },
{ "type": "Feature", "properties": { "内容": "小松の里【地域密着型介護老人福祉施設入所者生活介護】埼玉県鴻巣市小松２丁目８－１２", "url2": "https://www.kaigokensaku.mhlw.go.jp/11/index.php?action_kouhyou_detail_004_kani=true&JigyosyoCd=1191700051-00&ServiceCd=540&Type=search" }, "geometry": { "type": "Point", "coordinates": [ 139.526071900000034, 36.0405664 ] } },
{ "type": "Feature", "properties": { "内容": "地域密着型介護老人福祉施設　いろは【地域密着型介護老人福祉施設入所者生活介護】埼玉県草加市両新田西町151番地2", "url2": "https://www.kaigokensaku.mhlw.go.jp/11/index.php?action_kouhyou_detail_004_kani=true&JigyosyoCd=1191800356-00&ServiceCd=540&Type=search" }, "geometry": { "type": "Point", "coordinates": [ 139.7810737, 35.8114399 ] } },
{ "type": "Feature", "properties": { "内容": "特別養護老人ホーム　フェリス　八幡【地域密着型介護老人福祉施設入所者生活介護】埼玉県草加市八幡町334番地１", "url2": "https://www.kaigokensaku.mhlw.go.jp/11/index.php?action_kouhyou_detail_004_kani=true&JigyosyoCd=1191800141-00&ServiceCd=540&Type=search" }, "geometry": { "type": "Point", "coordinates": [ 139.817256, 35.848985 ] } },
{ "type": "Feature", "properties": { "内容": "特別養護老人ホーム　プレミア草加南【地域密着型介護老人福祉施設入所者生活介護】埼玉県草加市柳島町890番4", "url2": "https://www.kaigokensaku.mhlw.go.jp/11/index.php?action_kouhyou_detail_004_kani=true&JigyosyoCd=1191800208-00&ServiceCd=540&Type=search" }, "geometry": { "type": "Point", "coordinates": [ 139.786570125794896, 35.816713402418834 ] } },
{ "type": "Feature", "properties": { "内容": "地域密着型介護老人福祉施設憩いの里ユニット【地域密着型介護老人福祉施設入所者生活介護】埼玉県越谷市増森1-85", "url2": "https://www.kaigokensaku.mhlw.go.jp/11/index.php?action_kouhyou_detail_004_kani=true&JigyosyoCd=1190800308-00&ServiceCd=540&Type=search" }, "geometry": { "type": "Point", "coordinates": [ 139.8207903, 35.9003807 ] } },
{ "type": "Feature", "properties": { "内容": "地域密着型介護老人福祉施設　　　　　　　　　越谷ホーム【地域密着型介護老人福祉施設入所者生活介護】埼玉県越谷市南荻島1987番地", "url2": "https://www.kaigokensaku.mhlw.go.jp/11/index.php?action_kouhyou_detail_004_kani=true&JigyosyoCd=1190800290-00&ServiceCd=540&Type=search" }, "geometry": { "type": "Point", "coordinates": [ 139.760187299999984, 35.9029342 ] } },
{ "type": "Feature", "properties": { "内容": "地域密着型介護老人福祉施設　越谷なごみの郷【地域密着型介護老人福祉施設入所者生活介護】越谷市川柳3丁目55番1", "url2": "https://www.kaigokensaku.mhlw.go.jp/11/index.php?action_kouhyou_detail_004_kani=true&JigyosyoCd=1190800217-00&ServiceCd=540&Type=search" }, "geometry": { "type": "Point", "coordinates": [ 139.812969899999985, 35.8634909 ] } },
{ "type": "Feature", "properties": { "内容": "地域密着型特別養護老人ホーム桃の里【地域密着型介護老人福祉施設入所者生活介護】埼玉県越谷市船渡４３番地", "url2": "https://www.kaigokensaku.mhlw.go.jp/11/index.php?action_kouhyou_detail_004_kani=true&JigyosyoCd=1190800233-00&ServiceCd=540&Type=search" }, "geometry": { "type": "Point", "coordinates": [ 139.794101599999976, 35.9393657 ] } },
{ "type": "Feature", "properties": { "内容": "地域密着型特別養護老人ホーム　輝の杜こしがや【地域密着型介護老人福祉施設入所者生活介護】埼玉県越谷市大字南荻島492-1輝の杜こしがや", "url2": "https://www.kaigokensaku.mhlw.go.jp/11/index.php?action_kouhyou_detail_004_kani=true&JigyosyoCd=1190800472-00&ServiceCd=540&Type=search" }, "geometry": { "type": "Point", "coordinates": [ 139.767284605418951, 35.91060460877501 ] } },
{ "type": "Feature", "properties": { "内容": "地域密着型特別養護老人ホーム朝霞苑【地域密着型介護老人福祉施設入所者生活介護】埼玉県朝霞市大字溝沼字仲田1231-2地域密着型特別養護老人ホーム朝霞苑", "url2": "https://www.kaigokensaku.mhlw.go.jp/11/index.php?action_kouhyou_detail_004_kani=true&JigyosyoCd=1192100137-00&ServiceCd=540&Type=search" }, "geometry": { "type": "Point", "coordinates": [ 139.592330100000027, 35.8105891 ] } },
{ "type": "Feature", "properties": { "内容": "地域密着型介護老人福祉施設入所者生活介護　第Ⅱ殿山亀寿苑【地域密着型介護老人福祉施設入所者生活介護】埼玉県新座市堀ノ内二丁目１番４０号", "url2": "https://www.kaigokensaku.mhlw.go.jp/11/index.php?action_kouhyou_detail_004_kani=true&JigyosyoCd=1195100100-00&ServiceCd=540&Type=search" }, "geometry": { "type": "Point", "coordinates": [ 139.56075009999995, 35.7755298 ] } },
{ "type": "Feature", "properties": { "内容": "よつばあたご苑【地域密着型介護老人福祉施設入所者生活介護】埼玉県新座市あたご3-4-6", "url2": "https://www.kaigokensaku.mhlw.go.jp/11/index.php?action_kouhyou_detail_004_kani=true&JigyosyoCd=1195100175-00&ServiceCd=540&Type=search" }, "geometry": { "type": "Point", "coordinates": [ 139.544034499999952, 35.7927161 ] } },
{ "type": "Feature", "properties": { "内容": "地域密着型特別養護老人ホームえぶりわん鶴瀬Nisi【地域密着型介護老人福祉施設入所者生活介護】埼玉県富士見市鶴瀬西2丁目8番25号", "url2": "https://www.kaigokensaku.mhlw.go.jp/11/index.php?action_kouhyou_detail_004_kani=true&JigyosyoCd=1192900148-00&ServiceCd=540&Type=search" }, "geometry": { "type": "Point", "coordinates": [ 139.53379415449217, 35.845617169411994 ] } },
{ "type": "Feature", "properties": { "内容": "特別養護老人ホーム羽沢の里【地域密着型介護老人福祉施設入所者生活介護】埼玉県富士見市羽沢3-1-27", "url2": "https://www.kaigokensaku.mhlw.go.jp/11/index.php?action_kouhyou_detail_004_kani=true&JigyosyoCd=1192900213-00&ServiceCd=540&Type=search" }, "geometry": { "type": "Point", "coordinates": [ 139.544929599999932, 35.8560891 ] } },
{ "type": "Feature", "properties": { "内容": "地域密着型特別養護老人ホームむさしの【地域密着型介護老人福祉施設入所者生活介護】埼玉県富士見市水子1882番地1ひだまりの庭　むさしの", "url2": "https://www.kaigokensaku.mhlw.go.jp/11/index.php?action_kouhyou_detail_004_kani=true&JigyosyoCd=1192900114-00&ServiceCd=540&Type=search" }, "geometry": { "type": "Point", "coordinates": [ 139.564598199999978, 35.8446019 ] } },
{ "type": "Feature", "properties": { "内容": "地域密着型特別養護老人ホーム　ウィステリア鶴瀬【地域密着型介護老人福祉施設入所者生活介護】埼玉県富士見市大字鶴馬２５９１－１", "url2": "https://www.kaigokensaku.mhlw.go.jp/11/index.php?action_kouhyou_detail_004_kani=true&JigyosyoCd=1192900098-00&ServiceCd=540&Type=search" }, "geometry": { "type": "Point", "coordinates": [ 139.536716899999988, 35.8445347 ] } },
{ "type": "Feature", "properties": { "内容": "百年健康くらぶ彦成苑【地域密着型介護老人福祉施設入所者生活介護】埼玉県三郷市上彦名１２７－3百年健康くらぶ彦成苑", "url2": "https://www.kaigokensaku.mhlw.go.jp/11/index.php?action_kouhyou_detail_004_kani=true&JigyosyoCd=1191200151-00&ServiceCd=540&Type=search" }, "geometry": { "type": "Point", "coordinates": [ 139.845770799999968, 35.8497405 ] } },
{ "type": "Feature", "properties": { "内容": "地域密着型特別養護老人ホーム　サークルホームかたやなぎ【地域密着型介護老人福祉施設入所者生活介護】埼玉県坂戸市片柳1431番1", "url2": "https://www.kaigokensaku.mhlw.go.jp/11/index.php?action_kouhyou_detail_004_kani=true&JigyosyoCd=1196000234-00&ServiceCd=540&Type=search" }, "geometry": { "type": "Point", "coordinates": [ 139.410721781328562, 35.975370269819443 ] } },
{ "type": "Feature", "properties": { "内容": "地域密着型介護老人福祉施設　桜楓苑【地域密着型介護老人福祉施設入所者生活介護】幸手市平須賀2丁目225番地", "url2": "https://www.kaigokensaku.mhlw.go.jp/11/index.php?action_kouhyou_detail_004_kani=true&JigyosyoCd=1196100034-00&ServiceCd=540&Type=search" }, "geometry": { "type": "Point", "coordinates": [ 139.734766600000057, 36.0531672 ] } },
{ "type": "Feature", "properties": { "内容": "地域密着型介護老人福祉施設しらさぎ苑【地域密着型介護老人福祉施設入所者生活介護】埼玉県幸手市下吉羽1250番1", "url2": "https://www.kaigokensaku.mhlw.go.jp/11/index.php?action_kouhyou_detail_004_kani=true&JigyosyoCd=1196100042-00&ServiceCd=540&Type=search" }, "geometry": { "type": "Point", "coordinates": [ 139.763541, 36.0708465 ] } },
{ "type": "Feature", "properties": { "内容": "特別養護老人ホームみゆきの里【地域密着型介護老人福祉施設入所者生活介護】埼玉県幸手市松石東220番2", "url2": "https://www.kaigokensaku.mhlw.go.jp/11/index.php?action_kouhyou_detail_004_kani=true&JigyosyoCd=1196100026-00&ServiceCd=540&Type=search" }, "geometry": { "type": "Point", "coordinates": [ 139.714733099999989, 36.0904454 ] } },
{ "type": "Feature", "properties": { "内容": "地域密着型特別養護老人ホーム第２清流苑【地域密着型介護老人福祉施設入所者生活介護】埼玉県日高市武蔵台1-26-8高齢者サポートセンター武蔵台", "url2": "https://www.kaigokensaku.mhlw.go.jp/11/index.php?action_kouhyou_detail_004_kani=true&JigyosyoCd=1196300063-00&ServiceCd=540&Type=search" }, "geometry": { "type": "Point", "coordinates": [ 139.302791800000023, 35.8801796 ] } },
{ "type": "Feature", "properties": { "内容": "地域密着型特別特別養護老人ホームほほえみの家【地域密着型介護老人福祉施設入所者生活介護】埼玉県吉川市大字上内川４４８番１ほほえみの家", "url2": "https://www.kaigokensaku.mhlw.go.jp/11/index.php?action_kouhyou_detail_004_kani=true&JigyosyoCd=1196400079-00&ServiceCd=540&Type=search" }, "geometry": { "type": "Point", "coordinates": [ 139.833815790212981, 35.937203650932844 ] } },
{ "type": "Feature", "properties": { "内容": "地域密着型特別養護老人ホーム　鶴ケ岡苑【地域密着型介護老人福祉施設入所者生活介護】埼玉県ふじみ野市西鶴ケ岡2158番3", "url2": "https://www.kaigokensaku.mhlw.go.jp/11/index.php?action_kouhyou_detail_004_kani=true&JigyosyoCd=1193000104-00&ServiceCd=540&Type=search" }, "geometry": { "type": "Point", "coordinates": [ 139.498880500000041, 35.8629091 ] } },
{ "type": "Feature", "properties": { "内容": "地域密着型特別養護老人ホーム　マザーアースサテライト【地域密着型介護老人福祉施設入所者生活介護】埼玉県ふじみ野市大井730-12", "url2": "https://www.kaigokensaku.mhlw.go.jp/11/index.php?action_kouhyou_detail_004_kani=true&JigyosyoCd=1193000120-00&ServiceCd=540&Type=search" }, "geometry": { "type": "Point", "coordinates": [ 139.522206933868404, 35.847602960190066 ] } },
{ "type": "Feature", "properties": { "内容": "地域密着型特別養護老人ホーム　光乃里【地域密着型介護老人福祉施設入所者生活介護】埼玉県白岡市荒井新田359-1", "url2": "https://www.kaigokensaku.mhlw.go.jp/11/index.php?action_kouhyou_detail_004_kani=true&JigyosyoCd=1196600017-00&ServiceCd=540&Type=search" }, "geometry": { "type": "Point", "coordinates": [ 139.62295359999996, 36.042231 ] } },
{ "type": "Feature", "properties": { "内容": "絆の丘【地域密着型介護老人福祉施設入所者生活介護】埼玉県秩父郡横瀬町大字横瀬２１９７－１", "url2": "https://www.kaigokensaku.mhlw.go.jp/11/index.php?action_kouhyou_detail_004_kani=true&JigyosyoCd=1194800072-00&ServiceCd=540&Type=search" }, "geometry": { "type": "Point", "coordinates": [ 139.105053699999985, 35.9841395 ] } },
{ "type": "Feature", "properties": { "内容": "地域密着型特別養護老人ホーム巨香の郷【地域密着型介護老人福祉施設入所者生活介護】埼玉県秩父郡小鹿野町小鹿野４７１番地", "url2": "https://www.kaigokensaku.mhlw.go.jp/11/index.php?action_kouhyou_detail_004_kani=true&JigyosyoCd=1194800114-00&ServiceCd=540&Type=search" }, "geometry": { "type": "Point", "coordinates": [ 138.9993912, 36.0214205 ] } },
{ "type": "Feature", "properties": { "内容": "介護老人福祉施設ふるとねの郷【地域密着型介護老人福祉施設入所者生活介護】埼玉県南埼玉郡宮代町和戸860-1", "url2": "https://www.kaigokensaku.mhlw.go.jp/11/index.php?action_kouhyou_detail_004_kani=true&JigyosyoCd=1190500080-00&ServiceCd=540&Type=search" }, "geometry": { "type": "Point", "coordinates": [ 139.6957754, 36.0483416 ] } },
{ "type": "Feature", "properties": { "内容": "地域密着型特別養護老人ホーム三戸里園【地域密着型介護老人福祉施設入所者生活介護】埼玉県北葛飾郡松伏町大川戸968番地１", "url2": "https://www.kaigokensaku.mhlw.go.jp/11/index.php?action_kouhyou_detail_004_kani=true&JigyosyoCd=1191100112-00&ServiceCd=540&Type=search" }, "geometry": { "type": "Point", "coordinates": [ 139.82040955396721, 35.935566199380119 ] } }
]
}
