{
"type": "FeatureCollection",
"name": "geo_11_地域密着型特定施設入居者生活介護（有料老人ホーム）",
"crs": { "type": "name", "properties": { "name": "urn:ogc:def:crs:OGC:1.3:CRS84" } },
"features": [
{ "type": "Feature", "properties": { "内容": "ロイヤルレジデンス西大宮弐番館【地域密着型特定施設入居者生活介護（有料老人ホーム）】埼玉県さいたま市西区三橋6丁目1370番地2", "url": "https://www.kaigokensaku.mhlw.go.jp/11/index.php?action_kouhyou_detail_004_kani=true&JigyosyoCd=1196501587-00&ServiceCd=361&Type=search", "url2": "http://www.syasouken.com" }, "geometry": { "type": "Point", "coordinates": [ 139.586719499999987, 35.9181624 ] } },
{ "type": "Feature", "properties": { "内容": "ミモザ浦和【地域密着型特定施設入居者生活介護（有料老人ホーム）】埼玉県さいたま市桜区大字神田７１５番地", "url": "https://www.kaigokensaku.mhlw.go.jp/11/index.php?action_kouhyou_detail_004_kani=true&JigyosyoCd=1196500340-00&ServiceCd=361&Type=search", "url2": null }, "geometry": { "type": "Point", "coordinates": [ 139.6087877, 35.8756294 ] } },
{ "type": "Feature", "properties": { "内容": "ミモザ川越【地域密着型特定施設入居者生活介護（有料老人ホーム）】埼玉県川越市大字的場2464番地2", "url": "https://www.kaigokensaku.mhlw.go.jp/11/index.php?action_kouhyou_detail_004_kani=true&JigyosyoCd=1190400182-00&ServiceCd=361&Type=search", "url2": "https://mimoza-care.com/facility/paid-nursing-home/post-2766/" }, "geometry": { "type": "Point", "coordinates": [ 139.4421257, 35.9204544 ] } }
]
}
