{
"type": "FeatureCollection",
"name": "geo_11_訪問リハビリテーション",
"crs": { "type": "name", "properties": { "name": "urn:ogc:def:crs:OGC:1.3:CRS84" } },
"features": [
{ "type": "Feature", "properties": { "内容": "むらたクリニック訪問リハビリテーション【訪問リハビリテーション】さいたま市西区内野本郷450-1", "url2": "https://www.kaigokensaku.mhlw.go.jp/11/index.php?action_kouhyou_detail_004_kani=true&JigyosyoCd=1116506448-00&ServiceCd=140&Type=search" }, "geometry": { "type": "Point", "coordinates": [ 139.592407, 35.9345867 ] } },
{ "type": "Feature", "properties": { "内容": "さいたま市民医療センター訪問リハビリテーション事業所【訪問リハビリテーション】埼玉県さいたま市西区大字島根299番地1さいたま市民医療センター　R5訪問リハビリ事務室", "url2": "https://www.kaigokensaku.mhlw.go.jp/11/index.php?action_kouhyou_detail_004_kani=true&JigyosyoCd=1116504344-00&ServiceCd=140&Type=search" }, "geometry": { "type": "Point", "coordinates": [ 139.5982017, 35.8817485 ] } },
{ "type": "Feature", "properties": { "内容": "訪問リハビリステーションくるみ【訪問リハビリテーション】埼玉県さいたま市西区三橋6丁目567番地ル・サンク湯澤", "url2": "https://www.kaigokensaku.mhlw.go.jp/11/index.php?action_kouhyou_detail_004_kani=true&JigyosyoCd=1176513875-00&ServiceCd=140&Type=search" }, "geometry": { "type": "Point", "coordinates": [ 139.591504150553874, 35.915707611513568 ] } },
{ "type": "Feature", "properties": { "内容": "訪問リハビリ　春陽苑【訪問リハビリテーション】埼玉県さいたま市西区飯田新田91-1", "url2": "https://www.kaigokensaku.mhlw.go.jp/11/index.php?action_kouhyou_detail_004_kani=true&JigyosyoCd=1150380055-00&ServiceCd=140&Type=search" }, "geometry": { "type": "Point", "coordinates": [ 139.55994433372959, 35.888195317363248 ] } },
{ "type": "Feature", "properties": { "内容": "ケア大宮花の丘【訪問リハビリテーション】埼玉県さいたま市西区内野本郷９７５番地５", "url2": "https://www.kaigokensaku.mhlw.go.jp/11/index.php?action_kouhyou_detail_004_kani=true&JigyosyoCd=1156580070-00&ServiceCd=140&Type=search" }, "geometry": { "type": "Point", "coordinates": [ 139.590629299999989, 35.938367900000017 ] } },
{ "type": "Feature", "properties": { "内容": "介護老人保健施設　トワーム指扇【訪問リハビリテーション】埼玉県さいたま市西区宝来591", "url2": "https://www.kaigokensaku.mhlw.go.jp/11/index.php?action_kouhyou_detail_004_kani=true&JigyosyoCd=1156580001-00&ServiceCd=140&Type=search" }, "geometry": { "type": "Point", "coordinates": [ 139.5578789, 35.9269635 ] } },
{ "type": "Feature", "properties": { "内容": "介護老人保健施設　みやびの里【訪問リハビリテーション】埼玉県さいたま市北区別所町９２０", "url2": "https://www.kaigokensaku.mhlw.go.jp/11/index.php?action_kouhyou_detail_004_kani=true&JigyosyoCd=1156580047-00&ServiceCd=140&Type=search" }, "geometry": { "type": "Point", "coordinates": [ 139.590623100000016, 35.9578191 ] } },
{ "type": "Feature", "properties": { "内容": "彩の国東大宮メディカルセンター指定訪問リハビリテーション事業所【訪問リハビリテーション】埼玉県さいたま市北区土呂町1522", "url2": "https://www.kaigokensaku.mhlw.go.jp/11/index.php?action_kouhyou_detail_004_kani=true&JigyosyoCd=1116507248-00&ServiceCd=140&Type=search" }, "geometry": { "type": "Point", "coordinates": [ 139.629081400000018, 35.9348969 ] } },
{ "type": "Feature", "properties": { "内容": "OKPwithLifeクリニック【訪問リハビリテーション】櫛引町2丁目488番地1", "url2": "https://www.kaigokensaku.mhlw.go.jp/11/index.php?action_kouhyou_detail_004_kani=true&JigyosyoCd=1116519912-00&ServiceCd=140&Type=search" }, "geometry": { "type": "Point", "coordinates": [ 139.6075696, 35.9204077 ] } },
{ "type": "Feature", "properties": { "内容": "おおみや形成・整形クリニック【訪問リハビリテーション】埼玉県さいたま市大宮区大門町二丁目118大宮門街WEST4階", "url2": "https://www.kaigokensaku.mhlw.go.jp/11/index.php?action_kouhyou_detail_004_kani=true&JigyosyoCd=1116519532-00&ServiceCd=140&Type=search" }, "geometry": { "type": "Point", "coordinates": [ 139.6271701, 35.9073402 ] } },
{ "type": "Feature", "properties": { "内容": "介護老人保健施設　高齢者ケアセンターのぞみ【訪問リハビリテーション】埼玉県さいたま市見沼区片柳1387-1", "url2": "https://www.kaigokensaku.mhlw.go.jp/11/index.php?action_kouhyou_detail_004_kani=true&JigyosyoCd=1156580092-00&ServiceCd=140&Type=search" }, "geometry": { "type": "Point", "coordinates": [ 139.6902935, 35.903453 ] } },
{ "type": "Feature", "properties": { "内容": "ハートの森クリニック【訪問リハビリテーション】埼玉県さいたま市見沼区東大宮2-35-3", "url2": "https://www.kaigokensaku.mhlw.go.jp/11/index.php?action_kouhyou_detail_004_kani=true&JigyosyoCd=1116500532-00&ServiceCd=140&Type=search" }, "geometry": { "type": "Point", "coordinates": [ 139.634905600000025, 35.948186700000015 ] } },
{ "type": "Feature", "properties": { "内容": "ハートケア東大宮【訪問リハビリテーション】さいたま市見沼区風渡野４５", "url2": "https://www.kaigokensaku.mhlw.go.jp/11/index.php?action_kouhyou_detail_004_kani=true&JigyosyoCd=1156580021-00&ServiceCd=140&Type=search" }, "geometry": { "type": "Point", "coordinates": [ 139.673877400000038, 35.9373896 ] } },
{ "type": "Feature", "properties": { "内容": "あすはゆリハビリクリニック【訪問リハビリテーション】埼玉県さいたま市見沼区東大宮5-39-3英和ビル４F", "url2": "https://www.kaigokensaku.mhlw.go.jp/11/index.php?action_kouhyou_detail_004_kani=true&JigyosyoCd=1116509319-00&ServiceCd=140&Type=search" }, "geometry": { "type": "Point", "coordinates": [ 139.640960299999989, 35.9490935 ] } },
{ "type": "Feature", "properties": { "内容": "介護老人保健施設　あすか【訪問リハビリテーション】さいたま市見沼区染谷3丁目430番地１", "url2": "https://www.kaigokensaku.mhlw.go.jp/11/index.php?action_kouhyou_detail_004_kani=true&JigyosyoCd=1150380030-00&ServiceCd=140&Type=search" }, "geometry": { "type": "Point", "coordinates": [ 139.686513200000036, 35.9078463 ] } },
{ "type": "Feature", "properties": { "内容": "介護老人保健施設アーバンみらいハートランド東大宮【訪問リハビリテーション】埼玉県さいたま市見沼区春野２－９－２２", "url2": "https://www.kaigokensaku.mhlw.go.jp/11/index.php?action_kouhyou_detail_004_kani=true&JigyosyoCd=1156580062-00&ServiceCd=140&Type=search" }, "geometry": { "type": "Point", "coordinates": [ 139.660516799999982, 35.9576117 ] } },
{ "type": "Feature", "properties": { "内容": "医療法人社団　皆英会　ハレノテラスみな整形外科　訪問リハビリテーション【訪問リハビリテーション】埼玉県さいたま市見沼区島町393番地ハレノテラスC棟２階", "url2": "https://www.kaigokensaku.mhlw.go.jp/11/index.php?action_kouhyou_detail_004_kani=true&JigyosyoCd=1116509509-00&ServiceCd=140&Type=search" }, "geometry": { "type": "Point", "coordinates": [ 139.651305400000012, 35.9456764 ] } },
{ "type": "Feature", "properties": { "内容": "きたうらわクリニック【訪問リハビリテーション】新中里1-1-10", "url2": "https://www.kaigokensaku.mhlw.go.jp/11/index.php?action_kouhyou_detail_004_kani=true&JigyosyoCd=1116519896-00&ServiceCd=140&Type=search" }, "geometry": { "type": "Point", "coordinates": [ 139.6381557, 35.8708297 ] } },
{ "type": "Feature", "properties": { "内容": "至誠堂整形外科訪問リハビリテーション【訪問リハビリテーション】埼玉県さいたま市中央区新中里2-9-35", "url2": "https://www.kaigokensaku.mhlw.go.jp/11/index.php?action_kouhyou_detail_004_kani=true&JigyosyoCd=1116502819-00&ServiceCd=140&Type=search" }, "geometry": { "type": "Point", "coordinates": [ 139.6329824, 35.8718233 ] } },
{ "type": "Feature", "properties": { "内容": "介護老人保健施設ファインハイム【訪問リハビリテーション】埼玉県さいたま市桜区宿３７２－１", "url2": "https://www.kaigokensaku.mhlw.go.jp/11/index.php?action_kouhyou_detail_004_kani=true&JigyosyoCd=1156580013-00&ServiceCd=140&Type=search" }, "geometry": { "type": "Point", "coordinates": [ 139.594741699999986, 35.8768538 ] } },
{ "type": "Feature", "properties": { "内容": "医療法人聖仁会西部総合病院【訪問リハビリテーション】埼玉県さいたま市桜区大字上大久保884番地", "url2": "https://www.kaigokensaku.mhlw.go.jp/11/index.php?action_kouhyou_detail_004_kani=true&JigyosyoCd=1110104000-00&ServiceCd=140&Type=search" }, "geometry": { "type": "Point", "coordinates": [ 139.61553170000002, 35.8732743 ] } },
{ "type": "Feature", "properties": { "内容": "かさい医院在宅訪問診療部【訪問リハビリテーション】さいたま市浦和区針ヶ谷2-14-3", "url2": "https://www.kaigokensaku.mhlw.go.jp/11/index.php?action_kouhyou_detail_004_kani=true&JigyosyoCd=1110105445-00&ServiceCd=140&Type=search" }, "geometry": { "type": "Point", "coordinates": [ 139.644005564452783, 35.882624744927639 ] } },
{ "type": "Feature", "properties": { "内容": "おおやま整形外科【訪問リハビリテーション】埼玉県さいたま市南区南浦和２丁目２番１５石田ビル１，２階", "url2": "https://www.kaigokensaku.mhlw.go.jp/11/index.php?action_kouhyou_detail_004_kani=true&JigyosyoCd=1116502280-00&ServiceCd=140&Type=search" }, "geometry": { "type": "Point", "coordinates": [ 139.668268500000011, 35.8498799 ] } },
{ "type": "Feature", "properties": { "内容": "川久保整形外科クリニック訪問リハビリテーション【訪問リハビリテーション】埼玉県さいたま市緑区太田窪3-8-2", "url2": "https://www.kaigokensaku.mhlw.go.jp/11/index.php?action_kouhyou_detail_004_kani=true&JigyosyoCd=1116507743-00&ServiceCd=140&Type=search" }, "geometry": { "type": "Point", "coordinates": [ 139.672718600000053, 35.8632294 ] } },
{ "type": "Feature", "properties": { "内容": "介護老人保健施設あさがお【訪問リハビリテーション】埼玉県さいたま市緑区大崎3385-1", "url2": "https://www.kaigokensaku.mhlw.go.jp/11/index.php?action_kouhyou_detail_004_kani=true&JigyosyoCd=1156580100-00&ServiceCd=140&Type=search" }, "geometry": { "type": "Point", "coordinates": [ 139.7159709, 35.8869974 ] } },
{ "type": "Feature", "properties": { "内容": "医療法人社団弘象会東和病院【訪問リハビリテーション】東浦和7-6-1", "url2": "https://www.kaigokensaku.mhlw.go.jp/11/index.php?action_kouhyou_detail_004_kani=true&JigyosyoCd=1116502629-00&ServiceCd=140&Type=search" }, "geometry": { "type": "Point", "coordinates": [ 139.7009098, 35.8703085 ] } },
{ "type": "Feature", "properties": { "内容": "医療法人社団明雄会介護老人保健施設エスポワールさいたま【訪問リハビリテーション】大門1548-7", "url2": "https://www.kaigokensaku.mhlw.go.jp/11/index.php?action_kouhyou_detail_004_kani=true&JigyosyoCd=1156580126-00&ServiceCd=140&Type=search" }, "geometry": { "type": "Point", "coordinates": [ 139.7281381, 35.8827465 ] } },
{ "type": "Feature", "properties": { "内容": "いしまるクリニック　リハビリテーションセンター【訪問リハビリテーション】埼玉県さいたま市岩槻区諏訪2-2-15", "url2": "https://www.kaigokensaku.mhlw.go.jp/11/index.php?action_kouhyou_detail_004_kani=true&JigyosyoCd=1116506802-00&ServiceCd=140&Type=search" }, "geometry": { "type": "Point", "coordinates": [ 139.708171091401681, 35.967505450161774 ] } },
{ "type": "Feature", "properties": { "内容": "医療法人　慈正会　丸山記念総合病院【訪問リハビリテーション】埼玉県さいたま市岩槻区本町2-10-5", "url2": "https://www.kaigokensaku.mhlw.go.jp/11/index.php?action_kouhyou_detail_004_kani=true&JigyosyoCd=1110700054-00&ServiceCd=140&Type=search" }, "geometry": { "type": "Point", "coordinates": [ 139.695800227647396, 35.945382932999472 ] } },
{ "type": "Feature", "properties": { "内容": "医療法人東州会　フローラ太田小通りクリニック【訪問リハビリテーション】埼玉県さいたま市岩槻区仲町1-12-27", "url2": "https://www.kaigokensaku.mhlw.go.jp/11/index.php?action_kouhyou_detail_004_kani=true&JigyosyoCd=1116504070-00&ServiceCd=140&Type=search" }, "geometry": { "type": "Point", "coordinates": [ 139.701221300000043, 35.947228 ] } },
{ "type": "Feature", "properties": { "内容": "医療法人洋洲会　田中ファミリークリニック【訪問リハビリテーション】埼玉県さいたま市岩槻区大字鹿室９８７－１", "url2": "https://www.kaigokensaku.mhlw.go.jp/11/index.php?action_kouhyou_detail_004_kani=true&JigyosyoCd=1110700898-00&ServiceCd=140&Type=search" }, "geometry": { "type": "Point", "coordinates": [ 139.700494099999986, 35.9893411 ] } },
{ "type": "Feature", "properties": { "内容": "岩槻南病院　訪問リハビリテーション【訪問リハビリテーション】埼玉県さいたま市岩槻区黒谷2256", "url2": "https://www.kaigokensaku.mhlw.go.jp/11/index.php?action_kouhyou_detail_004_kani=true&JigyosyoCd=1116503031-00&ServiceCd=140&Type=search" }, "geometry": { "type": "Point", "coordinates": [ 139.7234135, 35.9280294 ] } },
{ "type": "Feature", "properties": { "内容": "訪問リハビリテーション　本川越【訪問リハビリテーション】埼玉県川越市中原町1丁目12番地1医療法人刀圭会　本川越病院", "url2": "https://www.kaigokensaku.mhlw.go.jp/11/index.php?action_kouhyou_detail_004_kani=true&JigyosyoCd=1170405813-00&ServiceCd=140&Type=search" }, "geometry": { "type": "Point", "coordinates": [ 139.480483052639784, 35.917420089791285 ] } },
{ "type": "Feature", "properties": { "内容": "南古谷病院【訪問リハビリテーション】埼玉県川越市久下戸110番地", "url2": "https://www.kaigokensaku.mhlw.go.jp/11/index.php?action_kouhyou_detail_004_kani=true&JigyosyoCd=1110405043-00&ServiceCd=140&Type=search" }, "geometry": { "type": "Point", "coordinates": [ 139.528670299999931, 35.9014721 ] } },
{ "type": "Feature", "properties": { "内容": "西部診療所【訪問リハビリテーション】埼玉県川越市天沼新田３０７－１", "url2": "https://www.kaigokensaku.mhlw.go.jp/11/index.php?action_kouhyou_detail_004_kani=true&JigyosyoCd=1110403170-00&ServiceCd=140&Type=search" }, "geometry": { "type": "Point", "coordinates": [ 139.432721, 35.9377742 ] } },
{ "type": "Feature", "properties": { "内容": "医療法人　真正会　霞ヶ関中央クリニック【訪問リハビリテーション】埼玉県川越市安比奈新田259-2", "url2": "https://www.kaigokensaku.mhlw.go.jp/11/index.php?action_kouhyou_detail_004_kani=true&JigyosyoCd=1110406009-00&ServiceCd=140&Type=search" }, "geometry": { "type": "Point", "coordinates": [ 139.419288300000062, 35.9047489 ] } },
{ "type": "Feature", "properties": { "内容": "介護老人保健施設瑞穂の里【訪問リハビリテーション】中台元町1-16-11", "url2": "https://www.kaigokensaku.mhlw.go.jp/11/index.php?action_kouhyou_detail_004_kani=true&JigyosyoCd=1150480053-00&ServiceCd=140&Type=search" }, "geometry": { "type": "Point", "coordinates": [ 139.481338, 35.8916037 ] } },
{ "type": "Feature", "properties": { "内容": "西武川越病院訪問リハビリテーション【訪問リハビリテーション】川越市大字今福265番地2", "url2": "https://www.kaigokensaku.mhlw.go.jp/11/index.php?action_kouhyou_detail_004_kani=true&JigyosyoCd=1110402677-00&ServiceCd=140&Type=search" }, "geometry": { "type": "Point", "coordinates": [ 139.466002399999979, 35.8754205 ] } },
{ "type": "Feature", "properties": { "内容": "池袋病院【訪問リハビリテーション】埼玉県川越市大字笠幡3724番地6", "url2": "https://www.kaigokensaku.mhlw.go.jp/11/index.php?action_kouhyou_detail_004_kani=true&JigyosyoCd=1110403923-00&ServiceCd=140&Type=search" }, "geometry": { "type": "Point", "coordinates": [ 139.406355499999989, 35.9065053 ] } },
{ "type": "Feature", "properties": { "内容": "武蔵野総合病院【訪問リハビリテーション】埼玉県川越市大袋新田977-9", "url2": "https://www.kaigokensaku.mhlw.go.jp/11/index.php?action_kouhyou_detail_004_kani=true&JigyosyoCd=1110401745-00&ServiceCd=140&Type=search" }, "geometry": { "type": "Point", "coordinates": [ 139.4466313, 35.889777 ] } },
{ "type": "Feature", "properties": { "内容": "医療法人埼玉病院【訪問リハビリテーション】埼玉県川越市西小仙波町1-8-3", "url2": "https://www.kaigokensaku.mhlw.go.jp/11/index.php?action_kouhyou_detail_004_kani=true&JigyosyoCd=1110400861-00&ServiceCd=140&Type=search" }, "geometry": { "type": "Point", "coordinates": [ 139.4870489, 35.9175796 ] } },
{ "type": "Feature", "properties": { "内容": "医療法人真正会　霞ヶ関南病院デイホスピタル【訪問リハビリテーション】埼玉県川越市安比奈新田２８３－１", "url2": "https://www.kaigokensaku.mhlw.go.jp/11/index.php?action_kouhyou_detail_004_kani=true&JigyosyoCd=1110402750-00&ServiceCd=140&Type=search" }, "geometry": { "type": "Point", "coordinates": [ 139.419538200000034, 35.9020688 ] } },
{ "type": "Feature", "properties": { "内容": "医療法人豊仁会三井病院（平成27年10月1日より異動、再開）（みなし指定）【訪問リハビリテーション】埼玉県川越市連雀町19-3", "url2": "https://www.kaigokensaku.mhlw.go.jp/11/index.php?action_kouhyou_detail_004_kani=true&JigyosyoCd=1110401315-00&ServiceCd=140&Type=search" }, "geometry": { "type": "Point", "coordinates": [ 139.4844018, 35.9187376 ] } },
{ "type": "Feature", "properties": { "内容": "康正会病院　訪問リハビリ事業所【訪問リハビリテーション】埼玉県川越市山田320-1", "url2": "https://www.kaigokensaku.mhlw.go.jp/11/index.php?action_kouhyou_detail_004_kani=true&JigyosyoCd=1110405134-00&ServiceCd=140&Type=search" }, "geometry": { "type": "Point", "coordinates": [ 139.474088400000028, 35.9362787 ] } },
{ "type": "Feature", "properties": { "内容": "介護老人保健施設はなぶさ訪問リハビリテーション事業所【訪問リハビリテーション】埼玉県熊谷市玉井336番地1", "url2": "https://www.kaigokensaku.mhlw.go.jp/11/index.php?action_kouhyou_detail_004_kani=true&JigyosyoCd=1173103357-00&ServiceCd=140&Type=search" }, "geometry": { "type": "Point", "coordinates": [ 139.35119, 36.1707509 ] } },
{ "type": "Feature", "properties": { "内容": "熊谷総合病院訪問リハビリテーション【訪問リハビリテーション】埼玉県熊谷市中西4丁目5番1号", "url2": "https://www.kaigokensaku.mhlw.go.jp/11/index.php?action_kouhyou_detail_004_kani=true&JigyosyoCd=1113104023-00&ServiceCd=140&Type=search" }, "geometry": { "type": "Point", "coordinates": [ 139.3962909, 36.1483373 ] } },
{ "type": "Feature", "properties": { "内容": "介護老人保健施設　トワーム熊谷【訪問リハビリテーション】埼玉県熊谷市小曽根337-1", "url2": "https://www.kaigokensaku.mhlw.go.jp/11/index.php?action_kouhyou_detail_004_kani=true&JigyosyoCd=1153100019-00&ServiceCd=140&Type=search" }, "geometry": { "type": "Point", "coordinates": [ 139.390134499999931, 36.173785 ] } },
{ "type": "Feature", "properties": { "内容": "社会福祉法人埼玉慈恵会　埼玉慈恵病院【訪問リハビリテーション】埼玉県熊谷市石原3-208", "url2": "https://www.kaigokensaku.mhlw.go.jp/11/index.php?action_kouhyou_detail_004_kani=true&JigyosyoCd=1113100013-00&ServiceCd=140&Type=search" }, "geometry": { "type": "Point", "coordinates": [ 139.377517399999988, 36.1489453 ] } },
{ "type": "Feature", "properties": { "内容": "県西在宅クリニック熊谷【訪問リハビリテーション】埼玉県熊谷市村岡307-1", "url2": "https://www.kaigokensaku.mhlw.go.jp/11/index.php?action_kouhyou_detail_004_kani=true&JigyosyoCd=1113104221-00&ServiceCd=140&Type=search" }, "geometry": { "type": "Point", "coordinates": [ 139.376992300000012, 36.1249096 ] } },
{ "type": "Feature", "properties": { "内容": "ゆうあい内科・脳神経クリニック　訪問リハビリテーション【訪問リハビリテーション】埼玉県熊谷市太井1685-1", "url2": "https://www.kaigokensaku.mhlw.go.jp/11/index.php?action_kouhyou_detail_004_kani=true&JigyosyoCd=1113103876-00&ServiceCd=140&Type=search" }, "geometry": { "type": "Point", "coordinates": [ 139.424025199999988, 36.1178087 ] } },
{ "type": "Feature", "properties": { "内容": "ぬくもり【訪問リハビリテーション】熊谷市石原510", "url2": "https://www.kaigokensaku.mhlw.go.jp/11/index.php?action_kouhyou_detail_004_kani=true&JigyosyoCd=1153180023-00&ServiceCd=140&Type=search" }, "geometry": { "type": "Point", "coordinates": [ 139.371172900000033, 36.1562528 ] } },
{ "type": "Feature", "properties": { "内容": "寿康会病院【訪問リハビリテーション】埼玉県川口市西青木2丁目15番10号", "url2": "https://www.kaigokensaku.mhlw.go.jp/11/index.php?action_kouhyou_detail_004_kani=true&JigyosyoCd=1110203786-00&ServiceCd=140&Type=search" }, "geometry": { "type": "Point", "coordinates": [ 139.7147895, 35.8163154 ] } },
{ "type": "Feature", "properties": { "内容": "青木中央クリニック【訪問リハビリテーション】埼玉県川口市柳崎3-7-24", "url2": "https://www.kaigokensaku.mhlw.go.jp/11/index.php?action_kouhyou_detail_004_kani=true&JigyosyoCd=1110208223-00&ServiceCd=140&Type=search" }, "geometry": { "type": "Point", "coordinates": [ 139.6977028, 35.852939 ] } },
{ "type": "Feature", "properties": { "内容": "医療法人健仁会　益子病院【訪問リハビリテーション】埼玉県川口市芝中田二丁目４８番６号", "url2": "https://www.kaigokensaku.mhlw.go.jp/11/index.php?action_kouhyou_detail_004_kani=true&JigyosyoCd=1110201996-00&ServiceCd=140&Type=search" }, "geometry": { "type": "Point", "coordinates": [ 139.705825, 35.8275591 ] } },
{ "type": "Feature", "properties": { "内容": "ふれあい生協病院【訪問リハビリテーション】埼玉県木曽呂1302-1", "url2": "https://www.kaigokensaku.mhlw.go.jp/11/index.php?action_kouhyou_detail_004_kani=true&JigyosyoCd=1110210419-00&ServiceCd=140&Type=search" }, "geometry": { "type": "Point", "coordinates": [ 139.7169424, 35.8609516 ] } },
{ "type": "Feature", "properties": { "内容": "埼玉厚生病院訪問リハビリテーション【訪問リハビリテーション】埼玉県川口市南鳩ヶ谷6-5-5", "url2": "https://www.kaigokensaku.mhlw.go.jp/11/index.php?action_kouhyou_detail_004_kani=true&JigyosyoCd=1170205858-00&ServiceCd=140&Type=search" }, "geometry": { "type": "Point", "coordinates": [ 139.7354228, 35.8176727 ] } },
{ "type": "Feature", "properties": { "内容": "医療法人社団　協友会　東川口病院【訪問リハビリテーション】埼玉県川口市東川口2-10-8", "url2": "https://www.kaigokensaku.mhlw.go.jp/11/index.php?action_kouhyou_detail_004_kani=true&JigyosyoCd=1110203794-00&ServiceCd=140&Type=search" }, "geometry": { "type": "Point", "coordinates": [ 139.747386399999982, 35.877325800000023 ] } },
{ "type": "Feature", "properties": { "内容": "つばさクリニック【訪問リハビリテーション】川口市西青木5-9-6", "url2": "https://www.kaigokensaku.mhlw.go.jp/11/index.php?action_kouhyou_detail_004_kani=true&JigyosyoCd=1110209783-00&ServiceCd=140&Type=search" }, "geometry": { "type": "Point", "coordinates": [ 139.7159304, 35.8230913 ] } },
{ "type": "Feature", "properties": { "内容": "医療法人　安東病院【訪問リハビリテーション】埼玉県川口市芝3丁目7番12号", "url2": "https://www.kaigokensaku.mhlw.go.jp/11/index.php?action_kouhyou_detail_004_kani=true&JigyosyoCd=1110201715-00&ServiceCd=140&Type=search" }, "geometry": { "type": "Point", "coordinates": [ 139.6955647, 35.8362439 ] } },
{ "type": "Feature", "properties": { "内容": "介護老人保健施設　グリーンビレッジ安行【訪問リハビリテーション】埼玉県川口市大字安行1145", "url2": "https://www.kaigokensaku.mhlw.go.jp/11/index.php?action_kouhyou_detail_004_kani=true&JigyosyoCd=1150280057-00&ServiceCd=140&Type=search" }, "geometry": { "type": "Point", "coordinates": [ 139.758031171163907, 35.850003433617275 ] } },
{ "type": "Feature", "properties": { "内容": "医療法人社団　清幸会　行田中央総合病院【訪問リハビリテーション】埼玉県行田市富士見町2丁目17番地17", "url2": "https://www.kaigokensaku.mhlw.go.jp/11/index.php?action_kouhyou_detail_004_kani=true&JigyosyoCd=1113701158-00&ServiceCd=140&Type=search" }, "geometry": { "type": "Point", "coordinates": [ 139.4751794, 36.1479487 ] } },
{ "type": "Feature", "properties": { "内容": "石井クリニック【訪問リハビリテーション】埼玉県行田市大字下忍1089番地1", "url2": "https://www.kaigokensaku.mhlw.go.jp/11/index.php?action_kouhyou_detail_004_kani=true&JigyosyoCd=1113701398-00&ServiceCd=140&Type=search" }, "geometry": { "type": "Point", "coordinates": [ 139.461051365317758, 36.116204966374283 ] } },
{ "type": "Feature", "properties": { "内容": "社会医療法人壮幸会　行田総合病院【訪問リハビリテーション】埼玉県行田市持田376", "url2": "https://www.kaigokensaku.mhlw.go.jp/11/index.php?action_kouhyou_detail_004_kani=true&JigyosyoCd=1113700986-00&ServiceCd=140&Type=search" }, "geometry": { "type": "Point", "coordinates": [ 139.449463599999945, 36.1260418 ] } },
{ "type": "Feature", "properties": { "内容": "影森クリニック【訪問リハビリテーション】埼玉県秩父市下影森９３９番地２ー１階", "url2": "https://www.kaigokensaku.mhlw.go.jp/11/index.php?action_kouhyou_detail_004_kani=true&JigyosyoCd=1114902136-00&ServiceCd=140&Type=search" }, "geometry": { "type": "Point", "coordinates": [ 139.072360300000014, 35.980527 ] } },
{ "type": "Feature", "properties": { "内容": "秩父第一病院【訪問リハビリテーション】埼玉県秩父市中村町2‐8‐14", "url2": "https://www.kaigokensaku.mhlw.go.jp/11/index.php?action_kouhyou_detail_004_kani=true&JigyosyoCd=1114901302-00&ServiceCd=140&Type=search" }, "geometry": { "type": "Point", "coordinates": [ 139.076682299999987, 35.9959143 ] } },
{ "type": "Feature", "properties": { "内容": "介護老人保健施設　ケアステーション所沢【訪問リハビリテーション】埼玉県所沢市東狭山ヶ丘6-2823-13", "url2": "https://www.kaigokensaku.mhlw.go.jp/11/index.php?action_kouhyou_detail_004_kani=true&JigyosyoCd=1152580025-00&ServiceCd=140&Type=search" }, "geometry": { "type": "Point", "coordinates": [ 139.424713200000042, 35.8157635 ] } },
{ "type": "Feature", "properties": { "内容": "社会医療法人至仁会　訪問リハビリテーション遊【訪問リハビリテーション】埼玉県所沢市東狭山ヶ丘4-2666-1", "url2": "https://www.kaigokensaku.mhlw.go.jp/11/index.php?action_kouhyou_detail_004_kani=true&JigyosyoCd=1152580088-00&ServiceCd=140&Type=search" }, "geometry": { "type": "Point", "coordinates": [ 139.428604795196804, 35.809800126749771 ] } },
{ "type": "Feature", "properties": { "内容": "社会医療法人　至仁会　よしかわクリニック　訪問リハビリテーション【訪問リハビリテーション】埼玉県所沢市若狭3-2570-2　圏央ヘルスケアセンター若狭内", "url2": "https://www.kaigokensaku.mhlw.go.jp/11/index.php?action_kouhyou_detail_004_kani=true&JigyosyoCd=1112505790-00&ServiceCd=140&Type=search" }, "geometry": { "type": "Point", "coordinates": [ 139.4200352, 35.8016486 ] } },
{ "type": "Feature", "properties": { "内容": "東所沢訪問リハビリテーション【訪問リハビリテーション】埼玉県所沢市東所沢1-18-5", "url2": "https://www.kaigokensaku.mhlw.go.jp/11/index.php?action_kouhyou_detail_004_kani=true&JigyosyoCd=1112506038-00&ServiceCd=140&Type=search" }, "geometry": { "type": "Point", "coordinates": [ 139.516325300000062, 35.7976759 ] } },
{ "type": "Feature", "properties": { "内容": "明生リハビリテーション病院【訪問リハビリテーション】埼玉県所沢市東狭山ヶ丘2-2681-2", "url2": "https://www.kaigokensaku.mhlw.go.jp/11/index.php?action_kouhyou_detail_004_kani=true&JigyosyoCd=1112510139-00&ServiceCd=140&Type=search" }, "geometry": { "type": "Point", "coordinates": [ 139.4116591, 35.8114179 ] } },
{ "type": "Feature", "properties": { "内容": "カイゴロウジンホケンシセツ　エスポワールトコロザワ【訪問リハビリテーション】埼玉県所沢市下富1310-15", "url2": "https://www.kaigokensaku.mhlw.go.jp/11/index.php?action_kouhyou_detail_004_kani=true&JigyosyoCd=1152580062-00&ServiceCd=140&Type=search" }, "geometry": { "type": "Point", "coordinates": [ 139.456570699999986, 35.8240593 ] } },
{ "type": "Feature", "properties": { "内容": "医療法人社団　秀栄会　所沢第一病院【訪問リハビリテーション】下安松1559-1", "url2": "https://www.kaigokensaku.mhlw.go.jp/11/index.php?action_kouhyou_detail_004_kani=true&JigyosyoCd=1112503431-00&ServiceCd=140&Type=search" }, "geometry": { "type": "Point", "coordinates": [ 139.499640799999952, 35.7926206 ] } },
{ "type": "Feature", "properties": { "内容": "桑の実本郷クリニック【訪問リハビリテーション】埼玉県所沢市本郷268-1", "url2": "https://www.kaigokensaku.mhlw.go.jp/11/index.php?action_kouhyou_detail_004_kani=true&JigyosyoCd=1112505774-00&ServiceCd=140&Type=search" }, "geometry": { "type": "Point", "coordinates": [ 139.5223144, 35.796799299999968 ] } },
{ "type": "Feature", "properties": { "内容": "上新井くろかわクリニック訪問リハビリテーション【訪問リハビリテーション】上新井一丁目25番地の10", "url2": "https://www.kaigokensaku.mhlw.go.jp/11/index.php?action_kouhyou_detail_004_kani=true&JigyosyoCd=1112510246-00&ServiceCd=140&Type=search" }, "geometry": { "type": "Point", "coordinates": [ 139.448129599999987, 35.7917213 ] } },
{ "type": "Feature", "properties": { "内容": "医療法人啓仁会　所沢ロイヤル病院【訪問リハビリテーション】埼玉県所沢市北野三丁目１番地１１", "url2": "https://www.kaigokensaku.mhlw.go.jp/11/index.php?action_kouhyou_detail_004_kani=true&JigyosyoCd=1112504496-00&ServiceCd=140&Type=search" }, "geometry": { "type": "Point", "coordinates": [ 139.420642300000054, 35.7976767 ] } },
{ "type": "Feature", "properties": { "内容": "東所沢病院けやき訪問リハビリテーション【訪問リハビリテーション】城435-1", "url2": "https://www.kaigokensaku.mhlw.go.jp/11/index.php?action_kouhyou_detail_004_kani=true&JigyosyoCd=1112501773-00&ServiceCd=140&Type=search" }, "geometry": { "type": "Point", "coordinates": [ 139.530233240475468, 35.800027621281302 ] } },
{ "type": "Feature", "properties": { "内容": "介護老人保健施設さんとめ【訪問リハビリテーション】所沢市中富1617", "url2": "https://www.kaigokensaku.mhlw.go.jp/11/index.php?action_kouhyou_detail_004_kani=true&JigyosyoCd=1152580033-00&ServiceCd=140&Type=search" }, "geometry": { "type": "Point", "coordinates": [ 139.483444400000053, 35.8150616 ] } },
{ "type": "Feature", "properties": { "内容": "医療法人　泰一会　飯能整形外科病院【訪問リハビリテーション】埼玉県飯能市東町12-2", "url2": "https://www.kaigokensaku.mhlw.go.jp/11/index.php?action_kouhyou_detail_004_kani=true&JigyosyoCd=1112601383-00&ServiceCd=140&Type=search" }, "geometry": { "type": "Point", "coordinates": [ 139.324751, 35.8531366 ] } },
{ "type": "Feature", "properties": { "内容": "医療法人　新正会　間柴医院　訪問リハビリ室【訪問リハビリテーション】飯能市緑町３－４", "url2": "https://www.kaigokensaku.mhlw.go.jp/11/index.php?action_kouhyou_detail_004_kani=true&JigyosyoCd=1112601516-00&ServiceCd=140&Type=search" }, "geometry": { "type": "Point", "coordinates": [ 139.33013660000006, 35.8522591 ] } },
{ "type": "Feature", "properties": { "内容": "介護老人保健施設　飯能リハビリ館【訪問リハビリテーション】埼玉県飯能市下畑296", "url2": "https://www.kaigokensaku.mhlw.go.jp/11/index.php?action_kouhyou_detail_004_kani=true&JigyosyoCd=1152680023-00&ServiceCd=140&Type=search" }, "geometry": { "type": "Point", "coordinates": [ 139.294085200000012, 35.8359661 ] } },
{ "type": "Feature", "properties": { "内容": "飯能ケアセンター　楠苑【訪問リハビリテーション】飯能市大字落合458番地1", "url2": "https://www.kaigokensaku.mhlw.go.jp/11/index.php?action_kouhyou_detail_004_kani=true&JigyosyoCd=1152680015-00&ServiceCd=140&Type=search" }, "geometry": { "type": "Point", "coordinates": [ 139.313706, 35.8363778 ] } },
{ "type": "Feature", "properties": { "内容": "小室クリニック【訪問リハビリテーション】埼玉県飯能市八幡町２番３号", "url2": "https://www.kaigokensaku.mhlw.go.jp/11/index.php?action_kouhyou_detail_004_kani=true&JigyosyoCd=1112601599-00&ServiceCd=140&Type=search" }, "geometry": { "type": "Point", "coordinates": [ 139.320097151589977, 35.853803393380602 ] } },
{ "type": "Feature", "properties": { "内容": "医療法人　柏成会　青木病院【訪問リハビリテーション】埼玉県本庄市下野堂1-13-27", "url2": "https://www.kaigokensaku.mhlw.go.jp/11/index.php?action_kouhyou_detail_004_kani=true&JigyosyoCd=1114301370-00&ServiceCd=140&Type=search" }, "geometry": { "type": "Point", "coordinates": [ 139.165721399999939, 36.2490969 ] } },
{ "type": "Feature", "properties": { "内容": "老人保健施設　彩の苑【訪問リハビリテーション】埼玉県本庄市千代田１－１－２１", "url2": "https://www.kaigokensaku.mhlw.go.jp/11/index.php?action_kouhyou_detail_004_kani=true&JigyosyoCd=1154380028-00&ServiceCd=140&Type=search" }, "geometry": { "type": "Point", "coordinates": [ 139.182271799999967, 36.2396758 ] } },
{ "type": "Feature", "properties": { "内容": "岡病院訪問リハビリテーション室【訪問リハビリテーション】埼玉県本庄市北堀810番地", "url2": "https://www.kaigokensaku.mhlw.go.jp/11/index.php?action_kouhyou_detail_004_kani=true&JigyosyoCd=1114301610-00&ServiceCd=140&Type=search" }, "geometry": { "type": "Point", "coordinates": [ 139.1919327, 36.2264716 ] } },
{ "type": "Feature", "properties": { "内容": "吉沢病院訪問リハビリテーション事業所【訪問リハビリテーション】本庄市１２１６番地１", "url2": "https://www.kaigokensaku.mhlw.go.jp/11/index.php?action_kouhyou_detail_004_kani=true&JigyosyoCd=1114301719-00&ServiceCd=140&Type=search" }, "geometry": { "type": "Point", "coordinates": [ 139.204925274882498, 36.24018806253499 ] } },
{ "type": "Feature", "properties": { "内容": "本庄脳神経外科・脊椎外科【訪問リハビリテーション】埼玉県本庄市早稲田の杜5丁目10-8", "url2": "https://www.kaigokensaku.mhlw.go.jp/11/index.php?action_kouhyou_detail_004_kani=true&JigyosyoCd=1114301784-00&ServiceCd=140&Type=search" }, "geometry": { "type": "Point", "coordinates": [ 139.1882312, 36.2190601 ] } },
{ "type": "Feature", "properties": { "内容": "宏仁会高坂醫院【訪問リハビリテーション】埼玉県東松山市西本宿1759-1", "url2": "https://www.kaigokensaku.mhlw.go.jp/11/index.php?action_kouhyou_detail_004_kani=true&JigyosyoCd=1113301678-00&ServiceCd=140&Type=search" }, "geometry": { "type": "Point", "coordinates": [ 139.395236599999976, 35.9979699 ] } },
{ "type": "Feature", "properties": { "内容": "武蔵嵐山病院訪問リハビリテーション【訪問リハビリテーション】埼玉県東松山市上唐子1312-1", "url2": "https://www.kaigokensaku.mhlw.go.jp/11/index.php?action_kouhyou_detail_004_kani=true&JigyosyoCd=1113302015-00&ServiceCd=140&Type=search" }, "geometry": { "type": "Point", "coordinates": [ 139.34657679999998, 36.0396802 ] } },
{ "type": "Feature", "properties": { "内容": "山崎整形外科【訪問リハビリテーション】春日部市牛島１０８１－３", "url2": "https://www.kaigokensaku.mhlw.go.jp/11/index.php?action_kouhyou_detail_004_kani=true&JigyosyoCd=1110602359-00&ServiceCd=140&Type=search" }, "geometry": { "type": "Point", "coordinates": [ 139.776612699999987, 35.9859949 ] } },
{ "type": "Feature", "properties": { "内容": "医療法人みやび会　おおつ整形外科【訪問リハビリテーション】埼玉県春日部市中央2-17-10昭和ビル3F", "url2": "https://www.kaigokensaku.mhlw.go.jp/11/index.php?action_kouhyou_detail_004_kani=true&JigyosyoCd=1110603100-00&ServiceCd=140&Type=search" }, "geometry": { "type": "Point", "coordinates": [ 139.750309300000026, 35.9757123 ] } },
{ "type": "Feature", "properties": { "内容": "埼玉東部診療所【訪問リハビリテーション】埼玉県春日部市大畑321-1宮前ビル1階", "url2": "https://www.kaigokensaku.mhlw.go.jp/11/index.php?action_kouhyou_detail_004_kani=true&JigyosyoCd=1110603373-00&ServiceCd=140&Type=search" }, "geometry": { "type": "Point", "coordinates": [ 139.769870903704827, 35.947139027848195 ] } },
{ "type": "Feature", "properties": { "内容": "医療法人光仁会春日部厚生クリニック【訪問リハビリテーション】春日部市下蛭田１２５－１", "url2": "https://www.kaigokensaku.mhlw.go.jp/11/index.php?action_kouhyou_detail_004_kani=true&JigyosyoCd=1110601781-00&ServiceCd=140&Type=search" }, "geometry": { "type": "Point", "coordinates": [ 139.720079899999973, 35.9609319 ] } },
{ "type": "Feature", "properties": { "内容": "春日部厚生病院【訪問リハビリテーション】埼玉県春日部市緑町6-11-48", "url2": "https://www.kaigokensaku.mhlw.go.jp/11/index.php?action_kouhyou_detail_004_kani=true&JigyosyoCd=1110601013-00&ServiceCd=140&Type=search" }, "geometry": { "type": "Point", "coordinates": [ 139.76604660000001, 35.966827 ] } },
{ "type": "Feature", "properties": { "内容": "医療法人社団東京石心会　さやま地域ケアクリニック【訪問リハビリテーション】埼玉県狭山市鵜ノ木1-33", "url2": "https://www.kaigokensaku.mhlw.go.jp/11/index.php?action_kouhyou_detail_004_kani=true&JigyosyoCd=1112702306-00&ServiceCd=140&Type=search" }, "geometry": { "type": "Point", "coordinates": [ 139.39925889999995, 35.8528028 ] } },
{ "type": "Feature", "properties": { "内容": "狭山神経内科病院【訪問リハビリテーション】埼玉県狭山市加佐志65", "url2": "https://www.kaigokensaku.mhlw.go.jp/11/index.php?action_kouhyou_detail_004_kani=true&JigyosyoCd=1112701704-00&ServiceCd=140&Type=search" }, "geometry": { "type": "Point", "coordinates": [ 139.436779800000068, 35.8678794 ] } },
{ "type": "Feature", "properties": { "内容": "介護老人保健施設カノープス・羽生【訪問リハビリテーション】埼玉県羽生市本川俣１３０５番地", "url2": "https://www.kaigokensaku.mhlw.go.jp/11/index.php?action_kouhyou_detail_004_kani=true&JigyosyoCd=1153980018-00&ServiceCd=140&Type=search" }, "geometry": { "type": "Point", "coordinates": [ 139.5339659, 36.1886661 ] } },
{ "type": "Feature", "properties": { "内容": "訪問リハビリテーションあいの郷【訪問リハビリテーション】埼玉県羽生市桑崎196-1", "url2": "https://www.kaigokensaku.mhlw.go.jp/11/index.php?action_kouhyou_detail_004_kani=true&JigyosyoCd=1153980030-00&ServiceCd=140&Type=search" }, "geometry": { "type": "Point", "coordinates": [ 139.5183752, 36.1776303 ] } },
{ "type": "Feature", "properties": { "内容": "羽生総合病院　訪問リハビリ【訪問リハビリテーション】埼玉県羽生市下岩瀬446", "url2": "https://www.kaigokensaku.mhlw.go.jp/11/index.php?action_kouhyou_detail_004_kani=true&JigyosyoCd=1113901055-00&ServiceCd=140&Type=search" }, "geometry": { "type": "Point", "coordinates": [ 139.527915799999988, 36.160834 ] } },
{ "type": "Feature", "properties": { "内容": "医療法人財団ヘリオス会ヘリオス会病院【訪問リハビリテーション】埼玉県鴻巣市広田824-1", "url2": "https://www.kaigokensaku.mhlw.go.jp/11/index.php?action_kouhyou_detail_004_kani=true&JigyosyoCd=1111701267-00&ServiceCd=140&Type=search" }, "geometry": { "type": "Point", "coordinates": [ 139.511735600000065, 36.10377 ] } },
{ "type": "Feature", "properties": { "内容": "こうのす共生病院【訪問リハビリテーション】埼玉県鴻巣市上谷2073番地１", "url2": "https://www.kaigokensaku.mhlw.go.jp/11/index.php?action_kouhyou_detail_004_kani=true&JigyosyoCd=1111701812-00&ServiceCd=140&Type=search" }, "geometry": { "type": "Point", "coordinates": [ 139.5317384, 36.061712 ] } },
{ "type": "Feature", "properties": { "内容": "埼玉県鴻巣市吹上本町１丁目４番１３号【訪問リハビリテーション】埼玉県鴻巣市吹上本町１丁目４番１３号", "url2": "https://www.kaigokensaku.mhlw.go.jp/11/index.php?action_kouhyou_detail_004_kani=true&JigyosyoCd=1111701523-00&ServiceCd=140&Type=search" }, "geometry": { "type": "Point", "coordinates": [ 139.4543261, 36.1041467 ] } },
{ "type": "Feature", "properties": { "内容": "医療法人　仁科整形外科【訪問リハビリテーション】埼玉県鴻巣市本町１丁目１番３号エルミこうのす３階", "url2": "https://www.kaigokensaku.mhlw.go.jp/11/index.php?action_kouhyou_detail_004_kani=true&JigyosyoCd=1111701549-00&ServiceCd=140&Type=search" }, "geometry": { "type": "Point", "coordinates": [ 139.510465299999964, 36.059653 ] } },
{ "type": "Feature", "properties": { "内容": "こうのすナーシングホーム共生園【訪問リハビリテーション】埼玉県鴻巣市下谷409-1", "url2": "https://www.kaigokensaku.mhlw.go.jp/11/index.php?action_kouhyou_detail_004_kani=true&JigyosyoCd=1151780030-00&ServiceCd=140&Type=search" }, "geometry": { "type": "Point", "coordinates": [ 139.546703596820066, 36.051813317369245 ] } },
{ "type": "Feature", "properties": { "内容": "介護老人保健施設　はなみずき【訪問リハビリテーション】埼玉県深谷市柏合1041-1", "url2": "https://www.kaigokensaku.mhlw.go.jp/11/index.php?action_kouhyou_detail_004_kani=true&JigyosyoCd=1174602373-00&ServiceCd=140&Type=search" }, "geometry": { "type": "Point", "coordinates": [ 139.261076499999945, 36.1851251 ] } },
{ "type": "Feature", "properties": { "内容": "医療法人康曜会　プラーナクリニック【訪問リハビリテーション】埼玉県深谷市柏合144-2", "url2": "https://www.kaigokensaku.mhlw.go.jp/11/index.php?action_kouhyou_detail_004_kani=true&JigyosyoCd=1114601928-00&ServiceCd=140&Type=search" }, "geometry": { "type": "Point", "coordinates": [ 139.2693706, 36.1805257 ] } },
{ "type": "Feature", "properties": { "内容": "訪問リハビリ　深谷【訪問リハビリテーション】埼玉県深谷市宿根245-1ふかやクリニック", "url2": "https://www.kaigokensaku.mhlw.go.jp/11/index.php?action_kouhyou_detail_004_kani=true&JigyosyoCd=1114601274-00&ServiceCd=140&Type=search" }, "geometry": { "type": "Point", "coordinates": [ 139.266119709192679, 36.196789915593591 ] } },
{ "type": "Feature", "properties": { "内容": "介護老人保健施設　ふれあいの郷あげお【訪問リハビリテーション】埼玉県上尾市平方1915", "url2": "https://www.kaigokensaku.mhlw.go.jp/11/index.php?action_kouhyou_detail_004_kani=true&JigyosyoCd=1151680040-00&ServiceCd=140&Type=search" }, "geometry": { "type": "Point", "coordinates": [ 139.550073600000019, 35.9484793 ] } },
{ "type": "Feature", "properties": { "内容": "医療法人社団　愛友会　介護老人保健施設エルサ上尾【訪問リハビリテーション】埼玉県上尾市藤波３丁目２６５番１号", "url2": "https://www.kaigokensaku.mhlw.go.jp/11/index.php?action_kouhyou_detail_004_kani=true&JigyosyoCd=1151680032-00&ServiceCd=140&Type=search" }, "geometry": { "type": "Point", "coordinates": [ 139.549203499999976, 35.9907339 ] } },
{ "type": "Feature", "properties": { "内容": "藤村病院【訪問リハビリテーション】埼玉県上尾市仲町１ー８－３３", "url2": "https://www.kaigokensaku.mhlw.go.jp/11/index.php?action_kouhyou_detail_004_kani=true&JigyosyoCd=1111601087-00&ServiceCd=140&Type=search" }, "geometry": { "type": "Point", "coordinates": [ 139.59116419999998, 35.9729531 ] } },
{ "type": "Feature", "properties": { "内容": "医療法人　英琳会　上尾ふじなみ診療所【訪問リハビリテーション】埼玉県上尾市藤波3丁目303番地2", "url2": "https://www.kaigokensaku.mhlw.go.jp/11/index.php?action_kouhyou_detail_004_kani=true&JigyosyoCd=1111601814-00&ServiceCd=140&Type=search" }, "geometry": { "type": "Point", "coordinates": [ 139.5507941, 35.9914726 ] } },
{ "type": "Feature", "properties": { "内容": "上尾二ツ宮クリニック【訪問リハビリテーション】埼玉県上尾市二ツ宮954-1", "url2": "https://www.kaigokensaku.mhlw.go.jp/11/index.php?action_kouhyou_detail_004_kani=true&JigyosyoCd=1111602812-00&ServiceCd=140&Type=search" }, "geometry": { "type": "Point", "coordinates": [ 139.602160538128601, 35.980946468639821 ] } },
{ "type": "Feature", "properties": { "内容": "上尾メディカルクリニック【訪問リハビリテーション】上尾市原市3133", "url2": "https://www.kaigokensaku.mhlw.go.jp/11/index.php?action_kouhyou_detail_004_kani=true&JigyosyoCd=1111602291-00&ServiceCd=140&Type=search" }, "geometry": { "type": "Point", "coordinates": [ 139.631908, 35.9668918 ] } },
{ "type": "Feature", "properties": { "内容": "西村ハートクリニック【訪問リハビリテーション】埼玉県上尾市春日1-4-22", "url2": "https://www.kaigokensaku.mhlw.go.jp/11/index.php?action_kouhyou_detail_004_kani=true&JigyosyoCd=1111602804-00&ServiceCd=140&Type=search" }, "geometry": { "type": "Point", "coordinates": [ 139.582937546570889, 35.976385807732477 ] } },
{ "type": "Feature", "properties": { "内容": "医療法人健好会石橋内科クリニック【訪問リハビリテーション】埼玉県上尾市中分１丁目１－６", "url2": "https://www.kaigokensaku.mhlw.go.jp/11/index.php?action_kouhyou_detail_004_kani=true&JigyosyoCd=1111602416-00&ServiceCd=140&Type=search" }, "geometry": { "type": "Point", "coordinates": [ 139.561064399999964, 35.9671788 ] } },
{ "type": "Feature", "properties": { "内容": "介護老人保健施設　あげお愛友の里【訪問リハビリテーション】上尾市西門前字南前６３６", "url2": "https://www.kaigokensaku.mhlw.go.jp/11/index.php?action_kouhyou_detail_004_kani=true&JigyosyoCd=1151680016-00&ServiceCd=140&Type=search" }, "geometry": { "type": "Point", "coordinates": [ 139.588194, 35.9910014 ] } },
{ "type": "Feature", "properties": { "内容": "医療法人社団愛友会上尾中央第二病院【訪問リハビリテーション】上尾市地頭方４２１－１", "url2": "https://www.kaigokensaku.mhlw.go.jp/11/index.php?action_kouhyou_detail_004_kani=true&JigyosyoCd=1111601673-00&ServiceCd=140&Type=search" }, "geometry": { "type": "Point", "coordinates": [ 139.572102500000028, 35.9526673 ] } },
{ "type": "Feature", "properties": { "内容": "医療法人財団明理会　介護老人保健施設　草加ロイヤルケアセンター【訪問リハビリテーション】埼玉県草加市柿木町123-2", "url2": "https://www.kaigokensaku.mhlw.go.jp/11/index.php?action_kouhyou_detail_004_kani=true&JigyosyoCd=1151880038-00&ServiceCd=140&Type=search" }, "geometry": { "type": "Point", "coordinates": [ 139.834182700000014, 35.8580542 ] } },
{ "type": "Feature", "properties": { "内容": "メディカルトピア草加病院【訪問リハビリテーション】埼玉県草加市谷塚1-11-18", "url2": "https://www.kaigokensaku.mhlw.go.jp/11/index.php?action_kouhyou_detail_004_kani=true&JigyosyoCd=1111801091-00&ServiceCd=140&Type=search" }, "geometry": { "type": "Point", "coordinates": [ 139.800428102516179, 35.812013022424274 ] } },
{ "type": "Feature", "properties": { "内容": "医療法人埼友会　埼友草加病院【訪問リハビリテーション】埼玉県草加市松原1-7-22", "url2": "https://www.kaigokensaku.mhlw.go.jp/11/index.php?action_kouhyou_detail_004_kani=true&JigyosyoCd=1111803139-00&ServiceCd=140&Type=search" }, "geometry": { "type": "Point", "coordinates": [ 139.800768799999986, 35.841677 ] } },
{ "type": "Feature", "properties": { "内容": "医療法人アンサンブルメディカ　草加内科呼吸ケアクリニック【訪問リハビリテーション】埼玉県草加市草加1-4-5", "url2": "https://www.kaigokensaku.mhlw.go.jp/11/index.php?action_kouhyou_detail_004_kani=true&JigyosyoCd=1111802925-00&ServiceCd=140&Type=search" }, "geometry": { "type": "Point", "coordinates": [ 139.801154573263574, 35.834150650676278 ] } },
{ "type": "Feature", "properties": { "内容": "医療法人東西医会　草加整形外科内科【訪問リハビリテーション】埼玉県草加市中央1-1-18", "url2": "https://www.kaigokensaku.mhlw.go.jp/11/index.php?action_kouhyou_detail_004_kani=true&JigyosyoCd=1111802008-00&ServiceCd=140&Type=search" }, "geometry": { "type": "Point", "coordinates": [ 139.807504200000011, 35.8268735 ] } },
{ "type": "Feature", "properties": { "内容": "訪問リハビリグリーン【訪問リハビリテーション】埼玉県草加市金明町604-1・１階", "url2": "https://www.kaigokensaku.mhlw.go.jp/11/index.php?action_kouhyou_detail_004_kani=true&JigyosyoCd=1111803535-00&ServiceCd=140&Type=search" }, "geometry": { "type": "Point", "coordinates": [ 139.7922949, 35.8561817 ] } },
{ "type": "Feature", "properties": { "内容": "医療法人新和会　鳳永病院　訪問リハビリテーションホウエイ【訪問リハビリテーション】埼玉県草加市谷塚2-12-15", "url2": "https://www.kaigokensaku.mhlw.go.jp/11/index.php?action_kouhyou_detail_004_kani=true&JigyosyoCd=1111800929-00&ServiceCd=140&Type=search" }, "geometry": { "type": "Point", "coordinates": [ 139.7981461, 35.8099018 ] } },
{ "type": "Feature", "properties": { "内容": "医療法人財団　明理会　新越谷病院【訪問リハビリテーション】埼玉県越谷市元柳田町6-45", "url2": "https://www.kaigokensaku.mhlw.go.jp/11/index.php?action_kouhyou_detail_004_kani=true&JigyosyoCd=1110801191-00&ServiceCd=140&Type=search" }, "geometry": { "type": "Point", "coordinates": [ 139.7870767969589, 35.881541543035631 ] } },
{ "type": "Feature", "properties": { "内容": "訪問リハビリステーション越ケ谷レイクタウン【訪問リハビリテーション】埼玉県越谷市東町5丁目155番地１", "url2": "https://www.kaigokensaku.mhlw.go.jp/11/index.php?action_kouhyou_detail_004_kani=true&JigyosyoCd=1170804890-00&ServiceCd=140&Type=search" }, "geometry": { "type": "Point", "coordinates": [ 139.8314385, 35.8717497 ] } },
{ "type": "Feature", "properties": { "内容": "介護老人保健施設シルバーケア敬愛【訪問リハビリテーション】埼玉県越谷市平方272番地1", "url2": "https://www.kaigokensaku.mhlw.go.jp/11/index.php?action_kouhyou_detail_004_kani=true&JigyosyoCd=1150880013-00&ServiceCd=140&Type=search" }, "geometry": { "type": "Point", "coordinates": [ 139.778826900000013, 35.9571628 ] } },
{ "type": "Feature", "properties": { "内容": "リハビリテーション天草病院【訪問リハビリテーション】埼玉県越谷市平方３４３－１", "url2": "https://www.kaigokensaku.mhlw.go.jp/11/index.php?action_kouhyou_detail_004_kani=true&JigyosyoCd=1110801324-00&ServiceCd=140&Type=search" }, "geometry": { "type": "Point", "coordinates": [ 139.778838299999961, 35.9552907 ] } },
{ "type": "Feature", "properties": { "内容": "医療法人社団協友会　越谷誠和病院　リハビリテーション科【訪問リハビリテーション】埼玉県越谷市谷中町４－２５－５", "url2": "https://www.kaigokensaku.mhlw.go.jp/11/index.php?action_kouhyou_detail_004_kani=true&JigyosyoCd=1110802249-00&ServiceCd=140&Type=search" }, "geometry": { "type": "Point", "coordinates": [ 139.77008120000005, 35.8905889 ] } },
{ "type": "Feature", "properties": { "内容": "医療法人社団貴昌会　岡野クリニック【訪問リハビリテーション】越谷市赤山本町７－２", "url2": "https://www.kaigokensaku.mhlw.go.jp/11/index.php?action_kouhyou_detail_004_kani=true&JigyosyoCd=1110803825-00&ServiceCd=140&Type=search" }, "geometry": { "type": "Point", "coordinates": [ 139.785621600000013, 35.8867234 ] } },
{ "type": "Feature", "properties": { "内容": "湖街ホスピタル【訪問リハビリテーション】埼玉県越谷市レイクタウン八丁目12番地12ケアハーモニー湖街　１階から５階", "url2": "https://www.kaigokensaku.mhlw.go.jp/11/index.php?action_kouhyou_detail_004_kani=true&JigyosyoCd=1110810176-00&ServiceCd=140&Type=search" }, "geometry": { "type": "Point", "coordinates": [ 139.823329300000012, 35.8754231 ] } },
{ "type": "Feature", "properties": { "内容": "医療法人社団　玉恵会　こしがや脳神経外科　訪問リハビリテーション【訪問リハビリテーション】埼玉県越谷市蒲生寿町5-7越谷メディカルビル2F", "url2": "https://www.kaigokensaku.mhlw.go.jp/11/index.php?action_kouhyou_detail_004_kani=true&JigyosyoCd=1110804336-00&ServiceCd=140&Type=search" }, "geometry": { "type": "Point", "coordinates": [ 139.794288100000017, 35.8677014 ] } },
{ "type": "Feature", "properties": { "内容": "医療法人　今井病院【訪問リハビリテーション】埼玉県蕨市塚越7-34-2", "url2": "https://www.kaigokensaku.mhlw.go.jp/11/index.php?action_kouhyou_detail_004_kani=true&JigyosyoCd=1111400555-00&ServiceCd=140&Type=search" }, "geometry": { "type": "Point", "coordinates": [ 139.705639499999961, 35.8199984 ] } },
{ "type": "Feature", "properties": { "内容": "介護老人保健施設グリーンビレッジ蕨【訪問リハビリテーション】埼玉県蕨市北町5-13-6", "url2": "https://www.kaigokensaku.mhlw.go.jp/11/index.php?action_kouhyou_detail_004_kani=true&JigyosyoCd=1151480017-00&ServiceCd=140&Type=search" }, "geometry": { "type": "Point", "coordinates": [ 139.668727, 35.8343433 ] } },
{ "type": "Feature", "properties": { "内容": "医療法人　慈公会　公平病院【訪問リハビリテーション】埼玉県戸田市笹目南町20-16", "url2": "https://www.kaigokensaku.mhlw.go.jp/11/index.php?action_kouhyou_detail_004_kani=true&JigyosyoCd=1111900661-00&ServiceCd=140&Type=search" }, "geometry": { "type": "Point", "coordinates": [ 139.652662099999986, 35.8128786 ] } },
{ "type": "Feature", "properties": { "内容": "とだ小林医院【訪問リハビリテーション】戸田市喜沢１－２７－１０", "url2": "https://www.kaigokensaku.mhlw.go.jp/11/index.php?action_kouhyou_detail_004_kani=true&JigyosyoCd=1111901024-00&ServiceCd=140&Type=search" }, "geometry": { "type": "Point", "coordinates": [ 139.695459699999986, 35.8140556 ] } },
{ "type": "Feature", "properties": { "内容": "医療法人社団東光会在宅専門診療所戸田中央トータルケアクリニック【訪問リハビリテーション】埼玉県戸田市本町一丁目24番7号リュミエールビル1F", "url2": "https://www.kaigokensaku.mhlw.go.jp/11/index.php?action_kouhyou_detail_004_kani=true&JigyosyoCd=1111901578-00&ServiceCd=140&Type=search" }, "geometry": { "type": "Point", "coordinates": [ 139.6792338, 35.809409 ] } },
{ "type": "Feature", "properties": { "内容": "戸田中央リハビリテーション病院　訪問リハビリテーション匠【訪問リハビリテーション】埼玉県戸田市新曽南4-1-29", "url2": "https://www.kaigokensaku.mhlw.go.jp/11/index.php?action_kouhyou_detail_004_kani=true&JigyosyoCd=1111902097-00&ServiceCd=140&Type=search" }, "geometry": { "type": "Point", "coordinates": [ 139.6646216, 35.8070588 ] } },
{ "type": "Feature", "properties": { "内容": "社会医療法人東明会　原田病院【訪問リハビリテーション】埼玉県入間市豊岡1丁目13番地3号", "url2": "https://www.kaigokensaku.mhlw.go.jp/11/index.php?action_kouhyou_detail_004_kani=true&JigyosyoCd=1112800423-00&ServiceCd=140&Type=search" }, "geometry": { "type": "Point", "coordinates": [ 139.3881523, 35.8365822 ] } },
{ "type": "Feature", "properties": { "内容": "小林病院【訪問リハビリテーション】入間市宮寺２４１７番地", "url2": "https://www.kaigokensaku.mhlw.go.jp/11/index.php?action_kouhyou_detail_004_kani=true&JigyosyoCd=1112800837-00&ServiceCd=140&Type=search" }, "geometry": { "type": "Point", "coordinates": [ 139.3783793, 35.7942037 ] } },
{ "type": "Feature", "properties": { "内容": "訪問リハビリテーションつつじの郷【訪問リハビリテーション】埼玉県朝霞市下内間木1363-1", "url2": "https://www.kaigokensaku.mhlw.go.jp/11/index.php?action_kouhyou_detail_004_kani=true&JigyosyoCd=1152180024-00&ServiceCd=140&Type=search" }, "geometry": { "type": "Point", "coordinates": [ 139.6177403, 35.8177724 ] } },
{ "type": "Feature", "properties": { "内容": "介護老人保健施設　グリーンビレッジ朝霞台【訪問リハビリテーション】埼玉県朝霞市大字宮戸3番地", "url2": "https://www.kaigokensaku.mhlw.go.jp/11/index.php?action_kouhyou_detail_004_kani=true&JigyosyoCd=1152180004-00&ServiceCd=140&Type=search" }, "geometry": { "type": "Point", "coordinates": [ 139.602105599999987, 35.820802 ] } },
{ "type": "Feature", "properties": { "内容": "訪問リハビリステーション　ケアライフ朝霞【訪問リハビリテーション】埼玉県朝霞市溝沼2-4-10", "url2": "https://www.kaigokensaku.mhlw.go.jp/11/index.php?action_kouhyou_detail_004_kani=true&JigyosyoCd=1152180016-00&ServiceCd=140&Type=search" }, "geometry": { "type": "Point", "coordinates": [ 139.589669599999979, 35.8009406 ] } },
{ "type": "Feature", "properties": { "内容": "朝霞中央クリニック　訪問リハビリテーション【訪問リハビリテーション】朝霞市大字岡79-3", "url2": "https://www.kaigokensaku.mhlw.go.jp/11/index.php?action_kouhyou_detail_004_kani=true&JigyosyoCd=1112101988-00&ServiceCd=140&Type=search" }, "geometry": { "type": "Point", "coordinates": [ 139.596575700000017, 35.8131407 ] } },
{ "type": "Feature", "properties": { "内容": "ＴＭＧあさか医療センター【訪問リハビリテーション】埼玉県朝霞市溝沼1340-1", "url2": "https://www.kaigokensaku.mhlw.go.jp/11/index.php?action_kouhyou_detail_004_kani=true&JigyosyoCd=1112101996-00&ServiceCd=140&Type=search" }, "geometry": { "type": "Point", "coordinates": [ 139.5936503, 35.811025 ] } },
{ "type": "Feature", "properties": { "内容": "TMG宗岡中央病院　訪問リハビリテーション【訪問リハビリテーション】埼玉県志木市上宗岡5丁目14-50", "url2": "https://www.kaigokensaku.mhlw.go.jp/11/index.php?action_kouhyou_detail_004_kani=true&JigyosyoCd=1112200954-00&ServiceCd=140&Type=search" }, "geometry": { "type": "Point", "coordinates": [ 139.583282700000041, 35.8462961 ] } },
{ "type": "Feature", "properties": { "内容": "介護老人保健施設　志木瑞穂の里【訪問リハビリテーション】埼玉県志木市上宗岡２−２０−１７", "url2": "https://www.kaigokensaku.mhlw.go.jp/11/index.php?action_kouhyou_detail_004_kani=true&JigyosyoCd=1152280010-00&ServiceCd=140&Type=search" }, "geometry": { "type": "Point", "coordinates": [ 139.581371600000011, 35.8498679 ] } },
{ "type": "Feature", "properties": { "内容": "医療法人社団新座志木中央総合病院【訪問リハビリテーション】埼玉県新座市東北1-7-2", "url2": "https://www.kaigokensaku.mhlw.go.jp/11/index.php?action_kouhyou_detail_004_kani=true&JigyosyoCd=1115100151-00&ServiceCd=140&Type=search" }, "geometry": { "type": "Point", "coordinates": [ 139.570543, 35.820277 ] } },
{ "type": "Feature", "properties": { "内容": "訪問リハビリテーションきたの【訪問リハビリテーション】埼玉県新座市北野2-14-8", "url2": "https://www.kaigokensaku.mhlw.go.jp/11/index.php?action_kouhyou_detail_004_kani=true&JigyosyoCd=1175100849-00&ServiceCd=140&Type=search" }, "geometry": { "type": "Point", "coordinates": [ 139.5623924, 35.8172695 ] } },
{ "type": "Feature", "properties": { "内容": "医療法人社団武蔵野会新座病院【訪問リハビリテーション】埼玉県新座市堀ノ内３－１４－３０", "url2": "https://www.kaigokensaku.mhlw.go.jp/11/index.php?action_kouhyou_detail_004_kani=true&JigyosyoCd=1115100565-00&ServiceCd=140&Type=search" }, "geometry": { "type": "Point", "coordinates": [ 139.55474490000006, 35.7739854 ] } },
{ "type": "Feature", "properties": { "内容": "介護老人保健施設ハートランド桶川【訪問リハビリテーション】埼玉県桶川市坂田1725", "url2": "https://www.kaigokensaku.mhlw.go.jp/11/index.php?action_kouhyou_detail_004_kani=true&JigyosyoCd=1155280029-00&ServiceCd=140&Type=search" }, "geometry": { "type": "Point", "coordinates": [ 139.561538399999989, 36.0112418 ] } },
{ "type": "Feature", "properties": { "内容": "介護老人保健施設桜田　訪問リハビリテーション【訪問リハビリテーション】東大輪2039-4", "url2": "https://www.kaigokensaku.mhlw.go.jp/11/index.php?action_kouhyou_detail_004_kani=true&JigyosyoCd=1151100011-00&ServiceCd=140&Type=search" }, "geometry": { "type": "Point", "coordinates": [ 139.6754439, 36.0968534 ] } },
{ "type": "Feature", "properties": { "内容": "東鷲宮病院　訪問リハビリテーション【訪問リハビリテーション】埼玉県久喜市桜田2-6-5", "url2": "https://www.kaigokensaku.mhlw.go.jp/11/index.php?action_kouhyou_detail_004_kani=true&JigyosyoCd=1110901322-00&ServiceCd=140&Type=search" }, "geometry": { "type": "Point", "coordinates": [ 139.682244579762227, 36.095572123554241 ] } },
{ "type": "Feature", "properties": { "内容": "社会医療法人社団　埼玉巨樹の会　新久喜総合病院【訪問リハビリテーション】埼玉県久喜市上早見418-1", "url2": "https://www.kaigokensaku.mhlw.go.jp/11/index.php?action_kouhyou_detail_004_kani=true&JigyosyoCd=1110901264-00&ServiceCd=140&Type=search" }, "geometry": { "type": "Point", "coordinates": [ 139.6562238, 36.0702081 ] } },
{ "type": "Feature", "properties": { "内容": "医療法人早仁会　久喜メディカルクリニック【訪問リハビリテーション】埼玉県久喜市下早見1183-1", "url2": "https://www.kaigokensaku.mhlw.go.jp/11/index.php?action_kouhyou_detail_004_kani=true&JigyosyoCd=1110900886-00&ServiceCd=140&Type=search" }, "geometry": { "type": "Point", "coordinates": [ 139.6788922, 36.0542885 ] } },
{ "type": "Feature", "properties": { "内容": "栗橋ナーシングホーム翔裕園【訪問リハビリテーション】小右衛門951-1", "url2": "https://www.kaigokensaku.mhlw.go.jp/11/index.php?action_kouhyou_detail_004_kani=true&JigyosyoCd=1170901431-00&ServiceCd=140&Type=search" }, "geometry": { "type": "Point", "coordinates": [ 139.71607, 36.1168224 ] } },
{ "type": "Feature", "properties": { "内容": "県西在宅クリニック久喜駅前【訪問リハビリテーション】埼玉県久喜市久喜東2-35-5M&Mビル1階", "url2": "https://www.kaigokensaku.mhlw.go.jp/11/index.php?action_kouhyou_detail_004_kani=true&JigyosyoCd=1110901256-00&ServiceCd=140&Type=search" }, "geometry": { "type": "Point", "coordinates": [ 139.684980499999966, 36.06309110000003 ] } },
{ "type": "Feature", "properties": { "内容": "みさか内科クリニック【訪問リハビリテーション】埼玉県久喜市久喜中央4-9-11イトーヨーカドー久喜店5階", "url2": "https://www.kaigokensaku.mhlw.go.jp/11/index.php?action_kouhyou_detail_004_kani=true&JigyosyoCd=1110901553-00&ServiceCd=140&Type=search" }, "geometry": { "type": "Point", "coordinates": [ 139.6750266, 36.0707475 ] } },
{ "type": "Feature", "properties": { "内容": "医療法人社団よしだ整形外科内科【訪問リハビリテーション】埼玉県北本市北本市北本３－３４", "url2": "https://www.kaigokensaku.mhlw.go.jp/11/index.php?action_kouhyou_detail_004_kani=true&JigyosyoCd=1115300884-00&ServiceCd=140&Type=search" }, "geometry": { "type": "Point", "coordinates": [ 139.5357967, 36.0345634 ] } },
{ "type": "Feature", "properties": { "内容": "医療法人誠昇会【訪問リハビリテーション】埼玉県北本市石戸宿５－２３６", "url2": "https://www.kaigokensaku.mhlw.go.jp/11/index.php?action_kouhyou_detail_004_kani=true&JigyosyoCd=1155380027-00&ServiceCd=140&Type=search" }, "geometry": { "type": "Point", "coordinates": [ 139.509091399999988, 36.0019931 ] } },
{ "type": "Feature", "properties": { "内容": "医療法人社団博翔会　桃泉園北本病院【訪問リハビリテーション】深井3-75医療法人社団博翔会　桃泉園北本病院", "url2": "https://www.kaigokensaku.mhlw.go.jp/11/index.php?action_kouhyou_detail_004_kani=true&JigyosyoCd=1115301106-00&ServiceCd=140&Type=search" }, "geometry": { "type": "Point", "coordinates": [ 139.6184437, 35.4390715 ] } },
{ "type": "Feature", "properties": { "内容": "本藤整形外科訪問リハビリ【訪問リハビリテーション】埼玉県北本市山中1-167-1", "url2": "https://www.kaigokensaku.mhlw.go.jp/11/index.php?action_kouhyou_detail_004_kani=true&JigyosyoCd=1115300637-00&ServiceCd=140&Type=search" }, "geometry": { "type": "Point", "coordinates": [ 139.545086949073777, 36.035158545519003 ] } },
{ "type": "Feature", "properties": { "内容": "介護老人保健施設ケアセンター八潮【訪問リハビリテーション】埼玉県八潮市鶴ヶ曽根１１８４－４", "url2": "https://www.kaigokensaku.mhlw.go.jp/11/index.php?action_kouhyou_detail_004_kani=true&JigyosyoCd=1151080019-00&ServiceCd=140&Type=search" }, "geometry": { "type": "Point", "coordinates": [ 139.8365387, 35.8266742 ] } },
{ "type": "Feature", "properties": { "内容": "医療法人社団協友会八潮中央総合病院【訪問リハビリテーション】埼玉県八潮市南川崎845番地", "url2": "https://www.kaigokensaku.mhlw.go.jp/11/index.php?action_kouhyou_detail_004_kani=true&JigyosyoCd=1111000991-00&ServiceCd=140&Type=search" }, "geometry": { "type": "Point", "coordinates": [ 139.851224399999978, 35.8132124 ] } },
{ "type": "Feature", "properties": { "内容": "医療法人陽悠会　八潮なめかわ整形外科リハビリテーション事業所【訪問リハビリテーション】埼玉県八潮市大瀬5-1-15さいゆう3rdヴィレッジ1階", "url2": "https://www.kaigokensaku.mhlw.go.jp/11/index.php?action_kouhyou_detail_004_kani=true&JigyosyoCd=1111001130-00&ServiceCd=140&Type=search" }, "geometry": { "type": "Point", "coordinates": [ 139.8465859, 35.8062532 ] } },
{ "type": "Feature", "properties": { "内容": "医療法人社団協友会　埼玉回生病院【訪問リハビリテーション】埼玉県八潮市大原455番地", "url2": "https://www.kaigokensaku.mhlw.go.jp/11/index.php?action_kouhyou_detail_004_kani=true&JigyosyoCd=1111000231-00&ServiceCd=140&Type=search" }, "geometry": { "type": "Point", "coordinates": [ 139.83942159999998, 35.805140199999975 ] } },
{ "type": "Feature", "properties": { "内容": "医療法人さくら　さくら記念病院【訪問リハビリテーション】水谷東1-28-1", "url2": "https://www.kaigokensaku.mhlw.go.jp/11/index.php?action_kouhyou_detail_004_kani=true&JigyosyoCd=1112901593-00&ServiceCd=140&Type=search" }, "geometry": { "type": "Point", "coordinates": [ 139.570495200000011, 35.8419925 ] } },
{ "type": "Feature", "properties": { "内容": "埼玉県富士見市大字鶴馬1967-1【訪問リハビリテーション】大字鶴馬1967-1", "url2": "https://www.kaigokensaku.mhlw.go.jp/11/index.php?action_kouhyou_detail_004_kani=true&JigyosyoCd=1112901312-00&ServiceCd=140&Type=search" }, "geometry": { "type": "Point", "coordinates": [ 139.553542, 35.8554893 ] } },
{ "type": "Feature", "properties": { "内容": "みずほ在宅医療【訪問リハビリテーション】埼玉県富士見市東みずほ台1--9-272階", "url2": "https://www.kaigokensaku.mhlw.go.jp/11/index.php?action_kouhyou_detail_004_kani=true&JigyosyoCd=1112901809-00&ServiceCd=140&Type=search" }, "geometry": { "type": "Point", "coordinates": [ 139.555215800000013, 35.8410247 ] } },
{ "type": "Feature", "properties": { "内容": "埼玉みさと総合リハビリテーション病院　訪問リハビリテーション【訪問リハビリテーション】埼玉県三郷市新和5-207", "url2": "https://www.kaigokensaku.mhlw.go.jp/11/index.php?action_kouhyou_detail_004_kani=true&JigyosyoCd=1111200203-00&ServiceCd=140&Type=search" }, "geometry": { "type": "Point", "coordinates": [ 139.881801254631, 35.810286449678237 ] } },
{ "type": "Feature", "properties": { "内容": "介護老人保健施設　三郷ケアセンター　訪問リハビリテーション【訪問リハビリテーション】埼玉県三郷市南蓮沼260－2", "url2": "https://www.kaigokensaku.mhlw.go.jp/11/index.php?action_kouhyou_detail_004_kani=true&JigyosyoCd=1151280015-00&ServiceCd=140&Type=search" }, "geometry": { "type": "Point", "coordinates": [ 139.87126330000001, 35.8469496 ] } },
{ "type": "Feature", "properties": { "内容": "医療法人社団愛友会　三郷中央総合病院【訪問リハビリテーション】三郷市中央4-5-1", "url2": "https://www.kaigokensaku.mhlw.go.jp/11/index.php?action_kouhyou_detail_004_kani=true&JigyosyoCd=1111200591-00&ServiceCd=140&Type=search" }, "geometry": { "type": "Point", "coordinates": [ 139.878574299999968, 35.830352 ] } },
{ "type": "Feature", "properties": { "内容": "蓮田ナーシングホーム翔裕園【訪問リハビリテーション】埼玉県蓮田市閏戸1826-1", "url2": "https://www.kaigokensaku.mhlw.go.jp/11/index.php?action_kouhyou_detail_004_kani=true&JigyosyoCd=1155780010-00&ServiceCd=140&Type=search" }, "geometry": { "type": "Point", "coordinates": [ 139.6429028, 36.002267 ] } },
{ "type": "Feature", "properties": { "内容": "はすだセントラルクリニック【訪問リハビリテーション】黒浜678", "url2": "https://www.kaigokensaku.mhlw.go.jp/11/index.php?action_kouhyou_detail_004_kani=true&JigyosyoCd=1115700877-00&ServiceCd=140&Type=search" }, "geometry": { "type": "Point", "coordinates": [ 139.6703616, 35.9807313 ] } },
{ "type": "Feature", "properties": { "内容": "松野記念クリニック【訪問リハビリテーション】埼玉県坂戸市大字上吉田６３９", "url2": "https://www.kaigokensaku.mhlw.go.jp/11/index.php?action_kouhyou_detail_004_kani=true&JigyosyoCd=1116001101-00&ServiceCd=140&Type=search" }, "geometry": { "type": "Point", "coordinates": [ 139.4000529, 35.9831745 ] } },
{ "type": "Feature", "properties": { "内容": "医療法人　大元気会　ルネサンス【訪問リハビリテーション】埼玉県坂戸市大字北峰33番地", "url2": "https://www.kaigokensaku.mhlw.go.jp/11/index.php?action_kouhyou_detail_004_kani=true&JigyosyoCd=1116001275-00&ServiceCd=140&Type=search" }, "geometry": { "type": "Point", "coordinates": [ 139.362068499999964, 35.9613744 ] } },
{ "type": "Feature", "properties": { "内容": "医療法人　若葉会　若葉病院【訪問リハビリテーション】坂戸市戸宮６０９番地", "url2": "https://www.kaigokensaku.mhlw.go.jp/11/index.php?action_kouhyou_detail_004_kani=true&JigyosyoCd=1116001317-00&ServiceCd=140&Type=search" }, "geometry": { "type": "Point", "coordinates": [ 139.425902400000041, 35.9626054 ] } },
{ "type": "Feature", "properties": { "内容": "介護老人保健施設　はつらつ【訪問リハビリテーション】埼玉県坂戸市本町2-13", "url2": "https://www.kaigokensaku.mhlw.go.jp/11/index.php?action_kouhyou_detail_004_kani=true&JigyosyoCd=1156080014-00&ServiceCd=140&Type=search" }, "geometry": { "type": "Point", "coordinates": [ 139.393676300000038, 35.9612774 ] } },
{ "type": "Feature", "properties": { "内容": "リハビリケアさくら【訪問リハビリテーション】埼玉県坂戸市末広町5番地1ｼｬﾝﾎﾞｰﾙﾋﾞﾙ205", "url2": "https://www.kaigokensaku.mhlw.go.jp/11/index.php?action_kouhyou_detail_004_kani=true&JigyosyoCd=1116001697-00&ServiceCd=140&Type=search" }, "geometry": { "type": "Point", "coordinates": [ 139.3955961, 35.9742151 ] } },
{ "type": "Feature", "properties": { "内容": "東埼玉総合病院【訪問リハビリテーション】埼玉県幸手市大字吉野517番5", "url2": "https://www.kaigokensaku.mhlw.go.jp/11/index.php?action_kouhyou_detail_004_kani=true&JigyosyoCd=1116100739-00&ServiceCd=140&Type=search" }, "geometry": { "type": "Point", "coordinates": [ 139.7236431, 36.0538828 ] } },
{ "type": "Feature", "properties": { "内容": "鶴ヶ島在宅医療診療所【訪問リハビリテーション】高倉772-1", "url2": "https://www.kaigokensaku.mhlw.go.jp/11/index.php?action_kouhyou_detail_004_kani=true&JigyosyoCd=1116200455-00&ServiceCd=140&Type=search" }, "geometry": { "type": "Point", "coordinates": [ 139.3847849, 35.9341065 ] } },
{ "type": "Feature", "properties": { "内容": "関越病院【訪問リハビリテーション】埼玉県鶴ヶ島市脚折145-1", "url2": "https://www.kaigokensaku.mhlw.go.jp/11/index.php?action_kouhyou_detail_004_kani=true&JigyosyoCd=1116200075-00&ServiceCd=140&Type=search" }, "geometry": { "type": "Point", "coordinates": [ 139.3866175, 35.9496979 ] } },
{ "type": "Feature", "properties": { "内容": "医療法人　積仁会　旭ヶ丘病院【訪問リハビリテーション】森戸新田99-1", "url2": "https://www.kaigokensaku.mhlw.go.jp/11/index.php?action_kouhyou_detail_004_kani=true&JigyosyoCd=1116300016-00&ServiceCd=140&Type=search" }, "geometry": { "type": "Point", "coordinates": [ 139.3729515, 35.9129598 ] } },
{ "type": "Feature", "properties": { "内容": "武蔵台病院【訪問リハビリテーション】埼玉県日高市久保２７８－１２", "url2": "https://www.kaigokensaku.mhlw.go.jp/11/index.php?action_kouhyou_detail_004_kani=true&JigyosyoCd=1116300255-00&ServiceCd=140&Type=search" }, "geometry": { "type": "Point", "coordinates": [ 139.299203300000045, 35.8820404 ] } },
{ "type": "Feature", "properties": { "内容": "医療法人社団協友会　吉川中央総合病院【訪問リハビリテーション】埼玉県吉川市大字平沼１１１番地", "url2": "https://www.kaigokensaku.mhlw.go.jp/11/index.php?action_kouhyou_detail_004_kani=true&JigyosyoCd=1116400055-00&ServiceCd=140&Type=search" }, "geometry": { "type": "Point", "coordinates": [ 139.840812052778631, 35.882541105447757 ] } },
{ "type": "Feature", "properties": { "内容": "介護老人保健施設　イムスケアふじみの【訪問リハビリテーション】埼玉県埼玉県ふじみ野市鶴ヶ岡５－６－５８", "url2": "https://www.kaigokensaku.mhlw.go.jp/11/index.php?action_kouhyou_detail_004_kani=true&JigyosyoCd=1153080039-00&ServiceCd=140&Type=search" }, "geometry": { "type": "Point", "coordinates": [ 139.495391399999988, 35.8658541 ] } },
{ "type": "Feature", "properties": { "内容": "富家在宅リハビリテーションケアセンター【訪問リハビリテーション】亀久保1839-4", "url2": "https://www.kaigokensaku.mhlw.go.jp/11/index.php?action_kouhyou_detail_004_kani=true&JigyosyoCd=1113001575-00&ServiceCd=140&Type=search" }, "geometry": { "type": "Point", "coordinates": [ 139.4935087, 35.8566445 ] } },
{ "type": "Feature", "properties": { "内容": "医療法人社団哺育会　白岡中央総合病院訪問リハビリテーション【訪問リハビリテーション】埼玉県白岡市小久喜938-12", "url2": "https://www.kaigokensaku.mhlw.go.jp/11/index.php?action_kouhyou_detail_004_kani=true&JigyosyoCd=1110501106-00&ServiceCd=140&Type=search" }, "geometry": { "type": "Point", "coordinates": [ 139.665209799999957, 36.013549 ] } },
{ "type": "Feature", "properties": { "内容": "白岡整形外科【訪問リハビリテーション】埼玉県白岡市小久喜1067-2", "url2": "https://www.kaigokensaku.mhlw.go.jp/11/index.php?action_kouhyou_detail_004_kani=true&JigyosyoCd=1110501361-00&ServiceCd=140&Type=search" }, "geometry": { "type": "Point", "coordinates": [ 139.665477900000013, 36.0163406 ] } },
{ "type": "Feature", "properties": { "内容": "医療法人社団愛友会　介護老人保健施設　一心館【訪問リハビリテーション】埼玉県北足立郡伊奈町小室８１１３番地", "url2": "https://www.kaigokensaku.mhlw.go.jp/11/index.php?action_kouhyou_detail_004_kani=true&JigyosyoCd=1153080017-00&ServiceCd=140&Type=search" }, "geometry": { "type": "Point", "coordinates": [ 139.628215400000045, 35.9992819 ] } },
{ "type": "Feature", "properties": { "内容": "医療法人社団愛友会　　伊奈病院指定訪問リハビリテーション事業所【訪問リハビリテーション】埼玉県北足立郡伊奈町小室5014-1", "url2": "https://www.kaigokensaku.mhlw.go.jp/11/index.php?action_kouhyou_detail_004_kani=true&JigyosyoCd=1111303551-00&ServiceCd=140&Type=search" }, "geometry": { "type": "Point", "coordinates": [ 139.618243753767359, 35.994379732966877 ] } },
{ "type": "Feature", "properties": { "内容": "埼玉ロイヤルケアセンター【訪問リハビリテーション】上富2181-5", "url2": "https://www.kaigokensaku.mhlw.go.jp/11/index.php?action_kouhyou_detail_004_kani=true&JigyosyoCd=1152480010-00&ServiceCd=140&Type=search" }, "geometry": { "type": "Point", "coordinates": [ 139.5046041, 35.8415369 ] } },
{ "type": "Feature", "properties": { "内容": "埼玉セントラル病院　訪問リハビリテーション事業所【訪問リハビリテーション】埼玉県入間郡三芳町上富2177", "url2": "https://www.kaigokensaku.mhlw.go.jp/11/index.php?action_kouhyou_detail_004_kani=true&JigyosyoCd=1112402493-00&ServiceCd=140&Type=search" }, "geometry": { "type": "Point", "coordinates": [ 139.50533889999997, 35.841948 ] } },
{ "type": "Feature", "properties": { "内容": "HAPPINESS館クリニック【訪問リハビリテーション】埼玉県入間郡毛呂山町毛呂本郷1006番地", "url2": "https://www.kaigokensaku.mhlw.go.jp/11/index.php?action_kouhyou_detail_004_kani=true&JigyosyoCd=1112403772-00&ServiceCd=140&Type=search" }, "geometry": { "type": "Point", "coordinates": [ 139.308275676057434, 35.939584169882039 ] } },
{ "type": "Feature", "properties": { "内容": "医療法人昭友会介護老人保健施設いづみケアセンター【訪問リハビリテーション】埼玉県比企郡滑川町和泉873", "url2": "https://www.kaigokensaku.mhlw.go.jp/11/index.php?action_kouhyou_detail_004_kani=true&JigyosyoCd=1153280013-00&ServiceCd=140&Type=search" }, "geometry": { "type": "Point", "coordinates": [ 139.33165120000001, 36.0839457 ] } },
{ "type": "Feature", "properties": { "内容": "医療法人社団宏仁会小川病院【訪問リハビリテーション】埼玉県比企郡小川町原川205", "url2": "https://www.kaigokensaku.mhlw.go.jp/11/index.php?action_kouhyou_detail_004_kani=true&JigyosyoCd=1113201084-00&ServiceCd=140&Type=search" }, "geometry": { "type": "Point", "coordinates": [ 139.245998900000018, 36.067214900000025 ] } },
{ "type": "Feature", "properties": { "内容": "医療法人啓仁会　平成の森・川島病院【訪問リハビリテーション】埼玉県比企郡川島町大字畑中478番地1", "url2": "https://www.kaigokensaku.mhlw.go.jp/11/index.php?action_kouhyou_detail_004_kani=true&JigyosyoCd=1113201613-00&ServiceCd=140&Type=search" }, "geometry": { "type": "Point", "coordinates": [ 139.490135050926284, 35.99213414001661 ] } },
{ "type": "Feature", "properties": { "内容": "医療法人　彩清会　清水病院【訪問リハビリテーション】埼玉県秩父郡皆野町大字皆野１３９０番地２", "url2": "https://www.kaigokensaku.mhlw.go.jp/11/index.php?action_kouhyou_detail_004_kani=true&JigyosyoCd=1114800108-00&ServiceCd=140&Type=search" }, "geometry": { "type": "Point", "coordinates": [ 139.096704600000066, 36.0704426 ] } },
{ "type": "Feature", "properties": { "内容": "医療法人徳洲会　皆野病院【訪問リハビリテーション】埼玉県秩父郡皆野町皆野2031-1", "url2": "https://www.kaigokensaku.mhlw.go.jp/11/index.php?action_kouhyou_detail_004_kani=true&JigyosyoCd=1114801015-00&ServiceCd=140&Type=search" }, "geometry": { "type": "Point", "coordinates": [ 139.1012093, 36.0770979 ] } },
{ "type": "Feature", "properties": { "内容": "長瀞医新クリニック【訪問リハビリテーション】埼玉県秩父郡長瀞町大字岩田５８７番", "url2": "https://www.kaigokensaku.mhlw.go.jp/11/index.php?action_kouhyou_detail_004_kani=true&JigyosyoCd=1114800934-00&ServiceCd=140&Type=search" }, "geometry": { "type": "Point", "coordinates": [ 139.124566929499792, 36.129479806792979 ] } },
{ "type": "Feature", "properties": { "内容": "医療法人社団　慶宏会　南須原医院【訪問リハビリテーション】埼玉県秩父郡長瀞町本野上174番地3", "url2": "https://www.kaigokensaku.mhlw.go.jp/11/index.php?action_kouhyou_detail_004_kani=true&JigyosyoCd=1114800967-00&ServiceCd=140&Type=search" }, "geometry": { "type": "Point", "coordinates": [ 139.113229347221363, 36.112088166271569 ] } },
{ "type": "Feature", "properties": { "内容": "国保町立小鹿野中央病院【訪問リハビリテーション】埼玉県秩父郡小鹿野町小鹿野３００番地", "url2": "https://www.kaigokensaku.mhlw.go.jp/11/index.php?action_kouhyou_detail_004_kani=true&JigyosyoCd=1114800926-00&ServiceCd=140&Type=search" }, "geometry": { "type": "Point", "coordinates": [ 139.003480474205077, 36.018003608583506 ] } },
{ "type": "Feature", "properties": { "内容": "介護老人保健施設　みどうの杜【訪問リハビリテーション】埼玉県東秩父村大字御堂1456-4", "url2": "https://www.kaigokensaku.mhlw.go.jp/11/index.php?action_kouhyou_detail_004_kani=true&JigyosyoCd=1154880019-00&ServiceCd=140&Type=search" }, "geometry": { "type": "Point", "coordinates": [ 139.201426099999907, 36.0527228 ] } },
{ "type": "Feature", "properties": { "内容": "介護老人保健施設かみさとナーシングホーム【訪問リハビリテーション】埼玉県児玉郡上里町金久保1336", "url2": "https://www.kaigokensaku.mhlw.go.jp/11/index.php?action_kouhyou_detail_004_kani=true&JigyosyoCd=1154280020-00&ServiceCd=140&Type=search" }, "geometry": { "type": "Point", "coordinates": [ 139.145761399999969, 36.262081 ] } },
{ "type": "Feature", "properties": { "内容": "逍遥の郷（介護予防）訪問リハビリテーション【訪問リハビリテーション】埼玉県大里郡寄居町大字折原２４８２番地", "url2": "https://www.kaigokensaku.mhlw.go.jp/11/index.php?action_kouhyou_detail_004_kani=true&JigyosyoCd=1174501609-00&ServiceCd=140&Type=search" }, "geometry": { "type": "Point", "coordinates": [ 139.174314399999957, 36.1057418 ] } },
{ "type": "Feature", "properties": { "内容": "公設宮代福祉医療センター診療所六花【訪問リハビリテーション】埼玉県南埼玉郡宮代町大字須賀１７７", "url2": "https://www.kaigokensaku.mhlw.go.jp/11/index.php?action_kouhyou_detail_004_kani=true&JigyosyoCd=1110501684-00&ServiceCd=140&Type=search" }, "geometry": { "type": "Point", "coordinates": [ 139.719222575393701, 36.021191052312723 ] } },
{ "type": "Feature", "properties": { "内容": "埼玉杉戸診療所【訪問リハビリテーション】埼玉県北葛飾郡杉戸町本郷273-1", "url2": "https://www.kaigokensaku.mhlw.go.jp/11/index.php?action_kouhyou_detail_004_kani=true&JigyosyoCd=1111102946-00&ServiceCd=140&Type=search" }, "geometry": { "type": "Point", "coordinates": [ 139.757833299999987, 36.0067861 ] } }
]
}
